city,postal_code,latitude,longitude,categories,attributes.RestaurantsPriceRange2,attributes.WiFi,Prediction
Vancouver,V6G 1E2,49.2911559687,-123.1354170713,food,2,free,0
Vancouver,V5K 3W8,49.2814925,-123.0498771,chinese,2,free,0
Vancouver,V5P 3V7,49.2361844,-123.0649258,restaurants,2,no,1
Richmond,V7C 1V1,49.149311395,-123.182500944,sushi bars,2,no,1
Vancouver,V5Z 2W8,49.2541464081,-123.1150238347,sushi bars,2,free,1
Vancouver,V5Z 3Y6,49.2625971,-123.115638,food,2,free,0
Vancouver,V5K 2A6,49.2808895,-123.0305558,coffee & tea,1,free,0
Vancouver,V6K 1N7,49.2682704,-123.1536805,restaurants,2,no,1
Richmond,V6X 2E3,49.1708997,-123.1368139,coffee & tea,1,free,0
Vancouver,V6B 5P9,49.2766534,-123.1194406,bars,3,free,0
Vancouver,V6A,49.2839705871,-123.0998314282,american (traditional),2,free,0
Vancouver,V6E 4R5,49.2878816,-123.1204418,seafood,2,free,0
Vancouver,V6C 2V6,49.2852619,-123.1164446,bakeries,2,no,0
New Westminster,V3M 4K3,49.2114526,-122.9357154,dim sum,2,no,1
Vancouver,V6Z 1L4,49.2786348,-123.1242,food,2,free,0
West Vancouver,V7V 1K4,49.330856,-123.172252,asian fusion,3,free,1
New Westminster,V3M 1E6,49.2019929,-122.9120575,japanese,2,no,0
Vancouver,V5Z 4M3,49.263479,-123.124468,indian,2,free,0
Vancouver,V5R 5H2,49.2393614,-123.0531503,dim sum,2,free,1
Vancouver,V6Z 1L4,49.2789617,-123.1237552,bars,2,no,0
Vancouver,V5L 1J2,49.2850084,-123.064968,bars,1,no,0
Surrey,V3V 4B9,49.1750781,-122.8893289,restaurants,2,free,0
Vancouver,V6B 3L9,49.2793994,-123.1204331,cafes,2,free,1
Vancouver,V6E 4T9,49.2861571269,-123.1246596035,restaurants,3,free,0
North Vancouver,V7M 1T3,49.3228495,-123.0746116,pizza,2,free,0
Surrey,V3R 3W9,49.198143,-122.8121234,restaurants,1,no,0
Burnaby,V5H 4N2,49.2256980669,-122.9973637685,restaurants,2,no,0
Richmond,V6X 1C3,49.17879,-123.132851,restaurants,2,paid,0
Vancouver,V6Z 1X6,49.2878887,-123.1162042,japanese,3,no,1
Vancouver,V6E 1B2,49.2850272,-123.1260593,burgers,2,free,1
Vancouver,V6B 1T1,49.2830164,-123.1127467,vietnamese,2,no,1
Burnaby,V5H 2A9,49.228771,-123.004838,barbeque,2,no,0
Richmond,V6X 4G4,49.1832986,-123.125616,desserts,1,free,0
Delta,V4E 3G3,49.1207126459,-122.8906753014,nightlife,2,free,0
Vancouver,V6B 0M3,49.2809928,-123.1170021,cafes,2,free,0
Coquitlam,V3B 1C2,49.2783034,-122.8073134,cafes,2,no,0
Richmond,V6V 1X7,49.190947,-123.073984,restaurants,2,free,0
North Vancouver,V7M 2E7,49.3121695,-123.078662,salad,2,no,1
Vancouver,V6A 2V4,49.2787627,-123.1003603,food,2,free,1
Delta,V4K 2P7,49.089906,-123.091545,restaurants,3,no,0
Vancouver,V5W 2Z6,49.2302225,-123.0908067,cafes,2,no,0
Vancouver,V6P 3E7,49.2040721,-123.1349289,cafes,1,free,1
Vancouver,V6E 1M5,49.2802392,-123.1305632,japanese,2,no,0
Vancouver,V6K 2G5,49.26457,-123.1670453,delis,3,no,0
Coquitlam,V3B 4S4,49.2774881,-122.7930624,barbeque,2,free,0
Richmond,V6X 3L4,49.177791,-123.1293525,japanese,2,no,0
Vancouver,V5N 4A3,49.2689969,-123.0692568,food,2,free,0
Vancouver,V6C 2G2,49.2852611,-123.1187535,american (new),2,no,0
Vancouver,V6J 3J3,49.2641591,-123.1459617,restaurants,1,no,0
Vancouver,V7Y 1K8,49.2826923,-123.1181354,restaurants,2,no,0
Vancouver,V6E 1C2,49.2870226,-123.1283048,coffee & tea,1,free,0
Vancouver,V5T 1B1,49.2691055,-123.104496,japanese,2,free,0
Vancouver,V5Y 4A8,49.2630454634,-123.112614326,sushi bars,2,no,0
Vancouver,V6C 2E7,49.2854132,-123.1172916,korean,1,free,0
Steveston,V7E 3B6,49.1242322069,-123.1832477371,restaurants,1,free,1
Burnaby,V5J 0A2,49.2020089718,-122.9817295074,restaurants,2,free,0
Vancouver,V6M 3W4,49.2376685,-123.1556307,american (traditional),2,free,0
Coquitlam,V3B 0G5,49.2825699,-122.7969556,food,1,free,0
North Vancouver,V7M 2G9,49.3175768,-123.072853,specialty food,2,no,0
Vancouver,V6A 1X5,49.2793684,-123.0988074,restaurants,1,no,0
Vancouver,V7Y 0A2,49.2821086652,-123.119648695,nightlife,2,free,0
Vancouver,V5P 3V7,49.2361844,-123.0649258,seafood,2,no,1
Vancouver,V5L 3X3,49.2746697,-123.0696745,restaurants,2,no,0
Vancouver,V5N 2T1,49.2457947,-123.0659378,indian,2,no,1
North Vancouver,V7P 1T5,49.323285359,-123.1139709316,burgers,2,free,0
Vancouver,V6Z 2S2,49.2778637,-123.1276568,chicken wings,2,no,0
New Westminster,V3L 3X5,49.2301628,-122.8924283,specialty food,2,no,1
Vancouver,V6B 2X6,49.2760871,-123.1218043,sandwiches,1,free,1
Vancouver,V6M 1Y8,49.2344086533,-123.1548166439,bakeries,2,free,1
Vancouver,V6E 3S7,49.2869813,-123.1194964,restaurants,1,no,0
Richmond,V7C 1V2,49.1495918,-123.1828201,burgers,1,free,0
Vancouver,V6M 2V7,49.233302,-123.128579,restaurants,2,free,1
Richmond,V6X 1S3,49.1922921571,-123.1161964642,cafes,1,free,0
Richmond,V6X 1A4,49.1705877,-123.1395731,chicken wings,2,no,0
Coquitlam,V3K 6N5,49.2357085,-122.8649114,food,1,no,0
Burnaby,V5H 3E8,49.2249077,-122.9977646,pubs,2,free,0
Vancouver,V6R 2J1,49.2637021,-123.211343,restaurants,1,no,0
Richmond,V6X 2A4,49.1775037684,-123.1389441865,asian fusion,2,free,0
Richmond,V6Y 2B6,49.1660053,-123.1385914,american (traditional),2,no,0
Vancouver,V6K 2G9,49.2642141,-123.1742235,vegetarian,2,no,0
Vancouver,V5P 3X8,49.2250574,-123.0659426,sushi bars,2,free,0
Vancouver,V6E 1B5,49.2849376,-123.1247791,sandwiches,2,no,1
Richmond,V6X 4K3,49.1907516909,-123.1332696402,bars,3,free,1
Vancouver,V6B 4Z9,49.2777318,-123.1162302,coffee & tea,1,free,1
Surrey,V3R 6N7,49.1877452,-122.8005994,restaurants,2,no,0
Bowen Island,V0N 1G0,49.3795322,-123.3344804,restaurants,2,free,0
Surrey,V3T 2S9,49.2056325109,-122.8668560982,fast food,1,free,0
North Vancouver,V7L 0B2,49.310312383,-123.0800118527,restaurants,2,free,0
Vancouver,V6E 1N1,49.281362,-123.1329409,pizza,1,free,0
Burnaby,V5H 4M9,49.2263825,-123.0041497,noodles,2,free,0
Richmond,V6X 2M9,49.188223,-123.111749,breakfast & brunch,2,free,0
Vancouver,V6N 2G5,49.2421678,-123.1704104,restaurants,2,no,0
Vancouver,V6B 2J2,49.2828842,-123.1041375,bars,2,free,1
Richmond,V6X 4J7,49.1841117,-123.1335429,dim sum,2,no,0
Vancouver,V5N 2T2,49.2452244,-123.0641417,fast food,1,free,0
North Vancouver,V7M 2J7,49.324877,-123.0720477,salad,2,free,0
Port Coquitlam,V3C 3B2,49.2612388,-122.7780441,restaurants,1,free,0
Richmond,V7E 3L9,49.1260888,-123.1824918,restaurants,2,free,1
Vancouver,V5P 3V2,49.2375504,-123.065129,mexican,1,no,1
Vancouver,V6A 1Z6,49.2787559,-123.0989242,asian fusion,2,free,1
Vancouver,V6B 1G6,49.2814874,-123.1051311,restaurants,2,free,0
Vancouver,V5Z 3J2,49.2629559,-123.120137,cafes,1,free,0
Vancouver,V6B 2M1,49.2781484,-123.1134165,breakfast & brunch,2,no,0
Vancouver,V5W 2Z7,49.229339,-123.0903445,middle eastern,1,no,0
Vancouver,V5T 1C3,49.2680363,-123.1032564,bakeries,1,free,1
Vancouver,V6G 3G1,49.2916656936,-123.1283824472,nightlife,2,free,1
Vancouver,V6A 3W9,49.2721641377,-123.0978167058,sandwiches,1,free,0
Vancouver,V5L 3X9,49.2715348,-123.069451,food,1,no,0
Vancouver,V5T 1X7,49.2623238015,-123.0898282416,food,2,free,1
Vancouver,V6B 2J2,49.283339,-123.1044428,cafes,2,free,1
Vancouver,V5L 3X9,49.272036,-123.069429,italian,2,free,0
Vancouver,V6B 2L2,49.2807799,-123.1079494,noodles,2,free,1
Coquitlam,V3E 1K9,49.2782412411,-122.8119339421,restaurants,3,no,0
Vancouver,V6B 2L3,49.2801460008,-123.1099253281,breakfast & brunch,3,free,1
Burnaby,V5G 1G4,49.2544359,-123.0200503,restaurants,2,free,1
Vancouver,V5N 4B1,49.2665809,-123.0698983,specialty food,1,no,0
Burnaby,V5C 2K6,49.28131,-122.9991401,canadian (new),1,free,0
Vancouver,V6J 1M7,49.2679643637,-123.1486456498,fast food,1,free,0
Richmond,V7B 1K7,49.1937338837,-123.1806505099,restaurants,2,free,0
Vancouver,V6K 1N8,49.2680343284,-123.1567248776,restaurants,2,no,0
Vancouver,V6B 6N9,49.2799726075,-123.1071531541,restaurants,1,free,0
Vancouver,V6B 4P4,49.2788904,-123.1130896,nightlife,2,free,0
Vancouver,V6C 2E7,49.2854132,-123.1172916,indian,1,free,0
Burnaby,V5C 1R3,49.2812542,-123.0147065,restaurants,2,no,0
Vancouver,V6E,49.2847213,-123.1242343,japanese,2,free,0
Richmond,V7B 0A4,49.17852,-123.16744,food,1,free,0
Vancouver,V6S 2G6,49.2487365233,-123.185229376,sandwiches,2,free,1
Vancouver,V6A,49.2813426,-123.0845603,restaurants,1,free,0
Vancouver,V5N 4A5,49.2683744,-123.0696119,restaurants,2,free,0
New Westminster,V3M 4J9,49.210223,-122.933128,cafes,1,free,1
Vancouver,V6E 1A3,49.2845587688,-123.1228691903,desserts,3,free,0
Vancouver,V6K 3E6,49.2710692786,-123.1551035911,restaurants,2,free,0
Vancouver,V6K 3E6,49.2712175,-123.1551644,asian fusion,4,no,1
North Vancouver,V7R 4K9,49.3790102203,-123.0833663398,canadian (new),3,free,0
Coquitlam,V3K 3P5,49.2493602,-122.8600992,food,1,free,0
Vancouver,V6Z 1X9,49.2827851243,-123.1231677532,restaurants,2,free,1
Vancouver,V6B 6B3,49.2795715,-123.1152874,coffee & tea,2,free,0
Richmond,V6X 1L5,49.1839312913,-123.093415685,restaurants,1,free,0
Vancouver,V5Z 2V9,49.2586971,-123.1149428,food delivery services,2,free,0
Vancouver,V5P 3W7,49.2318859,-123.0655468,restaurants,2,no,0
Vancouver,V6G 2H1,49.2870154,-123.1357669,food,1,free,1
Coquitlam,V3B 2P5,49.2819484742,-122.7998798816,restaurants,2,no,0
Vancouver,V5L 3X6,49.2724944,-123.0692524,barbeque,2,no,0
West Vancouver,V7T 0A5,49.3261450417,-123.1362669339,restaurants,2,free,0
North Vancouver,V7M 3K7,49.3107068,-123.0817305,restaurants,1,no,1
Burnaby,V5A 2H4,49.2478768181,-122.940112249,mexican,1,no,1
Richmond,V6X 4B4,49.1871956,-123.1301739,restaurants,2,free,0
Burnaby,V5H 4T2,49.2271865,-122.9949401,restaurants,2,no,0
Burnaby,V5B 1R4,49.2806944,-122.9817086,japanese,2,free,0
Vancouver,V5K 1Y6,49.2811803,-123.0562209,restaurants,1,no,0
Vancouver,V5Y 1R4,49.2632805429,-123.1131614464,food,1,no,1
Richmond,V6X 3A9,49.1775900007,-123.1335939288,coffee & tea,1,free,0
Richmond,V6X 0A4,49.1841117,-123.1335429,chinese,1,no,0
Coquitlam,V3J 1S6,49.2499009,-122.863887,japanese,2,free,0
Vancouver,V6B 5C6,49.2847191,-123.110385563,japanese,2,no,0
Burnaby,V5A 4H7,49.2643072601,-122.9145056098,sandwiches,2,free,1
Burnaby,V5H 4N2,49.2257241087,-123.0015292489,food,1,free,0
Coquitlam,V3C 3L3,49.2677931743,-122.7911370993,restaurants,2,free,0
Vancouver,V6B 3L4,49.280257302,-123.1202300284,food,1,free,1
Burnaby,V5B 1S1,49.2805874196,-122.9648204595,burgers,2,free,1
Vancouver,V6Z 3G4,49.2807288,-123.1249374,japanese,2,free,1
Vancouver,V5V 3C6,49.2531346,-123.0830035,chinese,2,no,0
Vancouver,V5N 4C1,49.2617421,-123.0699298,japanese,2,free,0
Vancouver,V6H 3R9,49.2727097,-123.1352146,delis,2,no,1
Vancouver,V6A 1G7,49.2831841,-123.0935172,restaurants,2,free,1
Vancouver,V6C 3L6,49.2876106,-123.1151091,sandwiches,1,no,0
Vancouver,V5N 5E5,49.2626036,-123.0567227,seafood,2,no,0
Vancouver,V6E 1X4,49.2802973,-123.1315906,restaurants,1,no,0
Richmond,V6X 1A7,49.170692,-123.133071,japanese,1,no,0
Vancouver,V6A 2C4,49.2773401,-123.0869244,bakeries,1,free,1
New Westminster,V3M 6B9,49.1997723,-122.9124427,specialty food,2,no,1
Vancouver,V6H 3J6,49.2591801,-123.1391536,breakfast & brunch,2,free,0
Vancouver,V5Z 1G1,49.2631385,-123.1191972,sushi bars,1,no,0
New Westminster,V3M 1B2,49.2020192,-122.9104281,cafes,1,free,0
Vancouver,V6K 1B4,49.2724915,-123.1545326,restaurants,1,free,0
Vancouver,V6B 5C6,49.2849319448,-123.1109837093,pubs,2,free,0
Vancouver,V7Y 0A2,49.2821086652,-123.119648695,american (new),2,free,0
Vancouver,V6P 4Z8,49.2108334,-123.1407047,chinese,2,no,0
Vancouver,V6K 1P1,49.2679886,-123.158081,mediterranean,2,free,1
Richmond,V6X 3J9,49.172039,-123.135162,sushi bars,2,free,0
North Vancouver,V7G 1L2,49.3268742454,-122.9493626042,seafood,2,no,0
Vancouver,V6P 4Z7,49.209577,-123.1400906,restaurants,2,no,0
Vancouver,V6E 4R5,49.2898381595,-123.1212867299,restaurants,2,free,0
West Vancouver,V7V 1H8,49.3283853,-123.1572678,delis,2,free,1
Port Moody,V3H 2B2,49.2769407,-122.857935,chinese,2,no,0
Burnaby,V5E 1E7,49.2182508,-122.9585048,sushi bars,2,no,0
Burnaby,V5J 0A3,49.197964,-122.97847,seafood,2,no,1
Vancouver,V6B 2B2,49.278965668,-123.1162121147,restaurants,2,free,0
Richmond,V7C 5S7,49.1697783,-123.1676235,breakfast & brunch,2,free,0
Vancouver,V6S 0B9,49.254116,-123.2359573,food,2,free,1
Vancouver,V6T 2H9,49.2659838,-123.2423919,breakfast & brunch,2,free,0
Richmond,V7E 4R7,49.1236154,-123.1836194,seafood,2,free,0
Vancouver,V6E 3T3,49.2885292,-123.1208289,canadian (new),2,free,0
Richmond,V6V 3C3,49.1789391,-123.0696891,cafes,2,free,0
Coquitlam,V3K 3S3,49.2429006464,-122.8892603517,mediterranean,2,free,1
Vancouver,V6R 3R8,49.2642329148,-123.1847000368,coffee & tea,1,free,1
Vancouver,V6P,49.2116601,-123.1407641,sushi bars,2,no,0
Vancouver,V6B 1B8,49.2846566,-123.1093607,vegetarian,2,free,0
Vancouver,V6B 1L6,49.2841432,-123.1126064,canadian (new),2,free,1
North Vancouver,V7M 1A3,49.3113574,-123.0801274,restaurants,2,free,1
North Vancouver,V7P 1T3,49.3237147185,-123.1082354344,sushi bars,2,no,0
Vancouver,V5V 3E3,49.251,-123.07699,desserts,2,free,1
Vancouver,V7Y 1K8,49.2827092,-123.1188238,japanese,1,no,0
Vancouver,V6J 1Y1,49.2635479353,-123.1451335079,restaurants,2,free,0
Coquitlam,V3B 6J6,49.2772689,-122.7944257411,american (traditional),2,free,0
Vancouver,V6M 4J7,49.2340910614,-123.1401199847,restaurants,2,no,0
Coquitlam,V3E 2Y8,49.3062789879,-122.7892608941,food,2,free,1
Vancouver,V6K 2H1,49.2640001,-123.1733634,desserts,2,no,1
Vancouver,V6B 2L2,49.2814279,-123.1077261,bars,2,no,0
Vancouver,V5T 3G2,49.2594378539,-123.1007927656,food,1,no,0
Vancouver,V5S 4J6,49.2149295,-123.0304364,italian,2,no,1
Vancouver,V5V 3P1,49.2505379542,-123.1011797288,restaurants,2,no,1
Vancouver,V6E 2E9,49.2877498,-123.1182265,restaurants,2,free,0
Vancouver,V5P 3Y8,49.2208472,-123.0656879,taiwanese,1,free,0
Coquitlam,V3B 0B8,49.2827328,-122.7987587,bars,2,free,0
Burnaby,V3J 1M2,49.2531819933,-122.8976020392,middle eastern,1,free,1
Vancouver,V6B 1R3,49.2802711224,-123.1062266017,restaurants,1,free,0
Port Moody,V3H 2C4,49.2764008164,-122.8431129456,fast food,1,free,0
Vancouver,V6P 4Z8,49.2120085,-123.1408187,vietnamese,1,no,0
Coquitlam,V3J 1S5,49.249515,-122.8658428,restaurants,2,free,0
Vancouver,V6Z 2K7,49.2827182,-123.123884,bars,3,no,1
Vancouver,V5R 5H5,49.2375721315,-123.0494863128,chinese,2,no,0
North Vancouver,V7M 3J9,49.3119942954,-123.0818671244,seafood,2,free,0
Vancouver,V6M 2B4,49.233934,-123.1536898,food,2,no,1
Vancouver,V5R 5K6,49.2328713897,-123.0330413193,chinese,3,free,0
Coquitlam,V3J 3X2,49.2437714,-122.8904822,sushi bars,2,free,0
Vancouver,V6B 5S3,49.2785831916,-123.1184803433,cafes,2,free,0
Richmond,V7E 3A3,49.125208,-123.1834819,food,1,free,0
Vancouver,V5L 4G5,49.2738774,-123.0653991,pizza,2,no,1
Vancouver,V5V 3P5,49.2491177949,-123.1014562603,nightlife,2,free,0
Vancouver,V6T 0C5,49.2663064,-123.247114,restaurants,1,free,0
Surrey,V3R 0Y3,49.1927423,-122.800336,restaurants,1,free,1
Surrey,V3T 4G1,49.1847851,-122.8441387,indian,2,no,0
Burnaby,V5H 4M1,49.227351,-123.000127,japanese,1,no,0
Burnaby,V5C 2L1,49.2812270753,-122.9943909193,burgers,1,free,0
Vancouver,V6H 3J6,49.2591801,-123.1391536,bars,2,free,0
Burnaby,V5E 1C5,49.2193525649,-122.9706721008,chinese,2,free,0
Delta,V4K 2P7,49.089906,-123.091545,chinese,3,no,0
Burnaby,V3N 1B4,49.2219563,-122.9445863,korean,2,free,1
Vancouver,V6Z 1L3,49.2796089,-123.1228884,american (traditional),1,free,0
Delta,V4C 6P6,49.146889,-122.8911121,salad,2,no,1
Vancouver,V6C 0B9,49.2880163462,-123.1169538763,restaurants,2,free,0
Surrey,V3W 1R1,49.151484,-122.865506,desserts,1,free,1
Richmond,V6Y 2N9,49.155147,-123.124699,restaurants,2,free,0
Vancouver,V6A 2Z9,49.284789,-123.066125,food,1,no,0
Vancouver,V6K 2G3,49.2640755304,-123.1659137158,restaurants,2,no,0
Vancouver,V6E 2P4,49.2882192,-123.1222259,breakfast & brunch,2,free,0
Coquitlam,V3B 8A9,49.2799756,-122.7927041,restaurants,2,free,0
New Westminster,V3M 7A3,49.1867640832,-122.955329577,chinese,2,no,0
Vancouver,V6B 2B7,49.2802668,-123.1184049,fast food,1,no,1
Burnaby,V5C 2J5,49.2812679,-123.0106091,restaurants,2,free,1
Vancouver,V5P 3W2,49.2331545277,-123.0657614126,restaurants,1,free,0
Vancouver,V6B 5K3,49.2846966,-123.1119349,food,1,free,0
Vancouver,V5K 1Z6,49.281027,-123.051462,mediterranean,2,free,1
Surrey,V3R 1M7,49.1913499,-122.8083641,restaurants,2,no,1
Vancouver,V5M 3E4,49.256488,-123.0495414,specialty food,3,free,0
Vancouver,V6L 2N8,49.250721434,-123.1679942638,food,1,no,1
Coquitlam,V3B 5R5,49.279852,-122.798073,pizza,1,free,0
Richmond,V6X 4A9,49.1791673,-123.1249487,restaurants,2,free,0
Vancouver,V6B 5T4,49.276155,-123.1211291,sushi bars,3,free,1
Vancouver,V6R 2G4,49.2632336744,-123.1867123023,food,2,free,0
Coquitlam,V3B 0B8,49.2827328,-122.7987587,restaurants,2,free,0
Richmond,V6X 3L8,49.1852398,-123.1070487,restaurants,2,free,0
North Vancouver,V7G 1S3,49.3164706618,-122.9533378672,pubs,2,no,0
Richmond,V6X 2C4,49.1817704,-123.1349831,fast food,1,no,0
Port Moody,V3H 0E1,49.2791039661,-122.8283901109,chicken wings,2,no,0
Richmond,V6X 1C4,49.177791,-123.1293525,vietnamese,1,free,0
Burnaby,V5J 1H1,49.2206873,-122.9765179,burgers,1,free,0
Burnaby,V5C 2H9,49.2812152,-123.0154676,restaurants,2,free,1
Coquitlam,V3B 1C5,49.2734749,-122.7935344,restaurants,2,free,0
Vancouver,V5N 5E5,49.2626036,-123.0567227,food,2,no,0
Richmond,V6V 2R3,49.1876919,-123.0810562,sushi bars,2,no,1
Surrey,V3T 2X3,49.1949156,-122.8444006,bars,1,free,0
Richmond,V6X 1C3,49.1790446,-123.1317906,restaurants,1,no,0
Richmond,V7E 1T6,49.1245685,-123.1815968,sushi bars,2,free,0
Vancouver,V6J 1W9,49.2638967,-123.1421012,restaurants,4,free,0
Vancouver,V6B 3L9,49.2793335643,-123.120303154,italian,2,free,0
Vancouver,V5T 3J5,49.2616783501,-123.097996829,restaurants,2,free,1
Port Coquitlam,V3C 6K5,49.2662329561,-122.7769331719,nightlife,2,free,0
Richmond,V6Y 1K4,49.1550891102,-123.124449403,mediterranean,2,free,1
Vancouver,V6G 1C9,49.2911017,-123.1345502,restaurants,1,free,1
Richmond,V6X 0E1,49.196435,-123.126171,seafood,2,no,0
Vancouver,V5T 1W2,49.2630766531,-123.101267087,restaurants,1,free,1
Vancouver,V5R 5L3,49.2324432,-123.0320058,food,2,no,0
Vancouver,V6A 1G4,49.2830301,-123.096308,american (new),1,free,0
West Vancouver,V7T 0A5,49.3264502785,-123.139376289,burgers,2,free,0
Vancouver,V6M 3W7,49.2354466,-123.1560453,breakfast & brunch,2,no,0
Vancouver,V6B 2J2,49.283339,-123.1044428,nightlife,2,free,1
Burnaby,V5E 1E4,49.2186494882,-122.9643932169,asian fusion,1,free,0
New Westminster,V3M 1G9,49.2048053,-122.9102207,chinese,1,free,1
New Westminster,V3L 3B1,49.2106056213,-122.9174957275,sushi bars,1,no,0
Vancouver,V6B 1GB,49.2821414,-123.1090685,nightlife,1,free,0
Vancouver,V5Z 1E9,49.2630882,-123.1168633,japanese,2,no,1
Port Moody,V3H 2C1,49.2767851,-122.848641,restaurants,1,no,1
Surrey,V3W 2N5,49.1338858,-122.8518572,restaurants,2,no,1
Port Moody,V3H 0B1,49.2766549,-122.8310594,bakeries,1,no,0
Richmond,V7B 0A4,49.1951863,-123.1788712,canadian (new),2,no,0
Vancouver,V6M 2V7,49.233302,-123.128579,delis,2,free,1
Vancouver,V5N 2A3,49.2593198,-123.0705747,cafes,2,free,1
Vancouver,V6A 2Z1,49.2832626115,-123.098110155,nightlife,2,free,1
Vancouver,V6P 5A1,49.2082081,-123.140128,restaurants,1,free,0
New Westminster,V3M 6Z6,49.2000426091,-122.9116097396,mexican,2,free,0
Vancouver,V6B 1G8,49.2819405562,-123.1076447924,restaurants,2,free,0
Vancouver,V6B 1B8,49.2846566,-123.1093607,bars,2,free,0
Vancouver,V5Y 3L1,49.2632037459,-123.110469593,restaurants,2,free,1
Surrey,V3R 0J8,49.1839142193,-122.8021354922,canadian (new),2,free,1
Vancouver,V6Z 1B7,49.2787221,-123.1289473,restaurants,1,free,0
Port Coquitlam,V3B 1S9,49.2715473,-122.7537036,restaurants,1,no,1
Vancouver,V6G 1B6,49.277640419,-123.1272201075,bakeries,1,free,0
Surrey,V3T 2W1,49.1864648,-122.848401,chinese,2,free,0
Vancouver,V5T 1G5,49.267041,-123.0997387,bakeries,1,free,1
Vancouver,V5P 3V4,49.2372789,-123.0656188,taiwanese,2,free,0
Vancouver,V5V 3R2,49.2452367584,-123.1015564501,burgers,1,free,0
Port Moody,V3H 5N1,49.279559147,-122.8292845264,burgers,2,free,0
North Vancouver,V7P 1T4,49.324137,-123.1119572,restaurants,2,free,1
Vancouver,V6C 0B9,49.2880163462,-123.1169538763,coffee & tea,2,free,0
Vancouver,V5Z 2W6,49.2555355,-123.1153982,restaurants,2,free,0
Vancouver,V6B 2C9,49.2801605,-123.1216592,restaurants,2,free,0
Vancouver,V6P 4Z5,49.2126959119,-123.1404929059,coffee & tea,1,free,1
Vancouver,V6G 1V9,49.285228,-123.1389968,fast food,1,free,0
Vancouver,V5R 5K6,49.2336372,-123.0342988,japanese,2,no,0
Richmond,V6X 4B4,49.1871956,-123.1301739,food,2,free,0
Coquitlam,V3B 2P7,49.2829911,-122.7936211,desserts,2,free,1
Vancouver,V5T 1X9,49.2622138,-123.0885161,restaurants,1,free,1
Surrey,V3W 2M6,49.1332413001,-122.8736311197,fast food,1,free,0
Coquitlam,V3J 3R3,49.2630816,-122.8402241,pizza,2,free,1
Vancouver,V7Y 0A2,49.2821086652,-123.119648695,bars,2,free,0
Vancouver,V6B 1G8,49.2820857,-123.1076921,restaurants,2,free,1
Port Coquitlam,V3B 1T4,49.270839,-122.757176,restaurants,2,free,1
Vancouver,V6K 1P1,49.2679886,-123.158081,restaurants,2,free,1
Vancouver,V5N 2T5,49.2435351,-123.0624234,restaurants,2,no,1
Vancouver,V5L 3X6,49.2722609,-123.0692191,pizza,2,free,0
Burnaby,V5C 3Y6,49.2663969,-123.0139369,burgers,2,free,0
New Westminster,V3M 6B9,49.2000834966,-122.9113744655,restaurants,2,free,1
Richmond,V7B 1M8,49.195828,-123.184645,restaurants,1,no,0
Ladner,V4K 1X6,49.089852,-123.0635130572,burgers,1,free,0
Vancouver,V5W 2Z4,49.2332615,-123.0901367,chinese,2,no,0
Port Coquitlam,V3C 3G4,49.2620319,-122.7813942,bakeries,1,no,1
Surrey,V3R 1J8,49.1952464,-122.8015024,bars,2,no,0
Vancouver,V6H 3R5,49.2712624,-123.1357429,restaurants,3,free,0
North Vancouver,V7R 4J1,49.3427831728,-123.1143312202,sandwiches,2,free,1
Port Coquitlam,V3C 3G6,49.2633958,-122.7803775,sushi bars,1,free,0
North Vancouver,V7G 1C3,49.3160234,-122.9689644,japanese,2,free,1
Vancouver,V6G 2M6,49.2889480591,-123.1392364502,restaurants,1,free,0
Burnaby,V5B 1S3,49.2802273,-122.9655966,restaurants,1,no,0
Richmond,V6X 1A7,49.1707057,-123.1323409,chinese,3,free,0
Vancouver,V6H 3N1,49.2443788,-123.1241934,restaurants,1,free,0
Vancouver,V6B 5P2,49.2752798,-123.1209644,japanese,3,no,0
Vancouver,V6K 1P1,49.267999042,-123.1583811343,restaurants,2,free,1
Richmond,V6X 1A3,49.170509,-123.140563,canadian (new),2,free,0
Delta,V4C 2K4,49.1551844,-122.9136371,vietnamese,2,no,1
Vancouver,V6E 4T9,49.2859529,-123.1243852,seafood,3,free,1
Richmond,V6X,49.1809175,-123.1350195,restaurants,1,no,0
Vancouver,V6Z 3G4,49.2814273326,-123.1237540472,nightlife,2,free,0
Vancouver,V6C 2C2,49.284773379,-123.1168954982,vietnamese,1,free,0
Coquitlam,V3K 6V9,49.233612,-122.8534921,japanese,2,no,0
Vancouver,V6Z 2B7,49.2774299,-123.1312797,restaurants,1,free,0
Vancouver,V5T 3H9,49.2634464769,-123.1002470826,vegetarian,1,free,1
Burnaby,V5H 1Z8,49.2310706,-123.0087313,taiwanese,2,no,0
Richmond,V7E 2Z1,49.1295851,-123.1859599,seafood,2,no,0
Port Moody,V3H 1Y6,49.2776247,-122.8619447,coffee & tea,2,free,1
Vancouver,V6E 1C2,49.2865324,-123.1271737,nightlife,1,no,0
North Vancouver,V7J 2P1,49.3365995,-123.0379557,food,2,free,1
Vancouver,V6G 2M9,49.2872573,-123.1412277,food,2,no,1
Vancouver,V6G 1C9,49.2914032,-123.1349407,restaurants,2,free,0
Richmond,V6X 3A6,49.178486,-123.135121,chinese,2,no,0
Vancouver,V6J 1M7,49.2682724,-123.1494515,restaurants,2,no,1
Vancouver,V6K 1N8,49.2680868,-123.1573803,bars,2,no,0
Vancouver,V5W 3A4,49.2264257532,-123.0905699733,sandwiches,2,free,0
Richmond,V6X 1E4,49.1796164847,-123.1347892578,restaurants,1,free,0
Vancouver,V6B 2T9,49.2755693,-123.1211438,restaurants,2,free,0
Richmond,V6Y 3Y8,49.1549127,-123.1258404,sushi bars,2,no,0
West Vancouver,V7V 1H8,49.3283853,-123.1572678,desserts,2,free,1
Vancouver,V5N 2S4,49.2472777,-123.0693067,vietnamese,1,no,0
Burnaby,V5B 1S3,49.2802391,-122.9656132,noodles,1,no,0
Burnaby,V5C 2K6,49.2812108,-122.999388,restaurants,1,free,0
Vancouver,V5M 4Y2,49.269001,-123.04449,desserts,1,free,1
Richmond,V6X 3X9,49.1852211178,-123.1343854346,chinese,2,no,0
North Vancouver,V7M 2K8,49.3296307688,-123.0724537686,burgers,2,free,0
North Vancouver,V7M 1N3,49.3191196,-123.0730036,restaurants,1,free,1
New Westminster,V3L 5H1,49.212361696,-122.9188728724,burgers,1,free,0
Vancouver,V5N 4B1,49.2665422,-123.0698857,vegetarian,2,free,0
Richmond,V6X 2A4,49.1773391,-123.1388746,seafood,3,free,1
Port Coquitlam,V3C 2A5,49.2616716,-122.7788691,breakfast & brunch,1,no,0
Vancouver,V5L 3W8,49.2759073,-123.0695552,restaurants,2,no,1
Vancouver,V6P 6L6,49.2047443,-123.1306627,burgers,2,free,0
Richmond,V6X 2E3,49.1710212,-123.1368523,restaurants,2,free,0
Vancouver,V6B 4P4,49.2781484,-123.1134225,breakfast & brunch,2,free,0
Vancouver,V6A 1P7,49.281485,-123.0948316,bars,2,free,1
Surrey,V3R 9P4,49.1838998056,-122.8030384992,restaurants,1,free,0
Vancouver,V5P 3V1,49.2379826,-123.0658151,restaurants,1,free,0
North Vancouver,V7R 2N8,49.338249,-123.10336,japanese,2,no,1
Vancouver,V5N 1W1,49.2621642815,-123.0708577268,restaurants,2,no,0
Coquitlam,V3B 0J1,49.2823803803,-122.7988856966,vietnamese,1,free,1
Vancouver,V6J 3Y2,49.2629833278,-123.1527945736,desserts,2,free,0
Vancouver,V5V 3R2,49.2452367584,-123.1015564501,fast food,1,free,0
Vancouver,V6H 3R5,49.2712624,-123.1357429,seafood,3,free,0
Vancouver,V6B 1V5,49.2838187,-123.1131301,pizza,1,free,0
Vancouver,V6R 1N6,49.2686543,-123.1787084,japanese,2,no,1
Vancouver,V5K 1Y6,49.2811803,-123.0562209,pizza,1,no,0
Richmond,V7B 1Y7,49.1948020045,-123.1777238846,restaurants,3,free,0
Surrey,V3R 8X8,49.1857462,-122.8004847,coffee & tea,2,no,0
Delta,V4C 6P6,49.146889,-122.8911121,chicken wings,2,no,1
Vancouver,V5L 4T6,49.272606,-123.0561507,sandwiches,1,no,1
Vancouver,V5V 3P5,49.2495953,-123.1013533,bars,2,no,1
West Vancouver,V7W 3H5,49.3743183,-123.2735015,burgers,2,free,0
Burnaby,V3N 4R7,49.243618,-122.8933,restaurants,2,free,0
New Westminster,V3L 2B8,49.2229148,-122.9142552,asian fusion,1,no,1
Vancouver,V6R 1N8,49.2684732,-123.1834864,desserts,2,free,0
Vancouver,V5R 5H2,49.2392139,-123.0528253,restaurants,2,free,1
North Vancouver,V7N 3J3,49.336323,-123.072327,bars,2,free,0
Vancouver,V6C 2R7,49.2850955,-123.1205418,bars,2,free,0
Vancouver,V5X 2S3,49.2108687,-123.102592,burgers,1,no,0
Vancouver,V6A 2C4,49.2773401,-123.0869244,delis,1,free,1
Vancouver,V6Z 2R6,49.273931,-123.122739,restaurants,1,no,0
Vancouver,V6B 0E7,49.2784494056,-123.1149580154,food,1,free,0
West Vancouver,V7T 1H9,49.3278679,-123.1394488,mexican,2,no,0
Vancouver,V6B 1G6,49.2814874,-123.1051311,canadian (new),2,free,0
New Westminster,V3M 0G3,49.200825,-122.914068,restaurants,1,no,1
Coquitlam,V3E 3G8,49.2928033005,-122.7556096369,sushi bars,2,no,0
Vancouver,V5K 2A6,49.2808895,-123.0305558,food,1,free,0
Coquitlam,V3B 6J6,49.277854,-122.795143,chicken wings,1,no,0
Burnaby,V5H 2A9,49.2290734,-123.0048795,chinese,1,no,0
Vancouver,V5V 3R1,49.2474862,-123.1011218,cafes,2,no,1
Vancouver,V5L 1V3,49.2812947,-123.0589523,breakfast & brunch,2,free,1
Richmond,V7C 1V2,49.1486674526,-123.1816534422,breakfast & brunch,1,free,1
Vancouver,V5W 2Z5,49.2317618,-123.0904211,coffee & tea,1,free,1
Port Moody,V3H 5B9,49.2824262,-122.8264644,food,2,free,0
Vancouver,V5V 4G3,49.2463493556,-123.0899834633,coffee & tea,1,free,1
Vancouver,V6C 2E7,49.2856038382,-123.117272,restaurants,1,no,0
Burnaby,V5G 1G4,49.2544359,-123.0200503,restaurants,2,free,1
Richmond,V6X 2H4,49.1915767569,-123.1282424927,japanese,1,no,0
Richmond,V6X 1C3,49.177731,-123.130588,coffee & tea,2,free,0
Surrey,V3X 1Y2,49.1179419179,-122.8900408745,indian,2,free,0
Vancouver,V5R 5K6,49.2341970386,-123.0355279939,restaurants,2,no,0
Burnaby,V5C 5Y1,49.2654880978,-123.0051867664,fast food,1,no,0
New Westminster,V3L 1Y6,49.2159515407,-122.9233270029,breakfast & brunch,2,no,0
Vancouver,V6B 2A8,49.2777867,-123.1139866,breakfast & brunch,1,no,0
Delta,V4K 1V9,49.089978,-123.0842889,vietnamese,1,no,0
Vancouver,V5P 3X5,49.2255155,-123.0659366,middle eastern,2,no,1
Richmond,V6X 3M7,49.1778682044,-123.1255408376,asian fusion,2,free,0
Bowen Island,V0N 1G0,49.3794084,-123.3353143,restaurants,2,free,1
Vancouver,V5V 3R9,49.2412498,-123.1016585,noodles,2,no,0
Richmond,V6X 1Y4,49.1926543312,-123.1337201563,chinese,2,no,0
Vancouver,V6B 2A8,49.2777057047,-123.1141484635,nightlife,2,free,0
Port Coquitlam,V3B 1T3,49.2716394,-122.755357,restaurants,2,free,1
Richmond,V6Y 2N6,49.1549127,-123.1258403,chinese,2,no,0
Vancouver,V6C 1J8,49.285638,-123.11634,pubs,2,free,1
Surrey,V3V 4C1,49.176556,-122.8898423,indian,2,no,0
Burnaby,V5B 1S1,49.2805874196,-122.9648204595,restaurants,2,free,0
Port Moody,V3H 2A3,49.2800630058,-122.8500699252,seafood,2,no,0
Vancouver,V5Z 1E6,49.2634074769,-123.1165004294,noodles,2,no,0
North Vancouver,V7P 2S2,49.322767,-123.1074589,american (new),2,free,1
Vancouver,V6B 2J2,49.2828842,-123.1041375,restaurants,2,free,1
Vancouver,V6S 0C8,49.2545285,-123.2360941,chinese,2,free,0
New Westminster,V3M 0G3,49.2014705082,-122.9134231938,food,2,free,0
Vancouver,V5K 1Z8,49.281355,-123.0472672,restaurants,1,free,1
Vancouver,V6Z 1E4,49.2819929954,-123.1190859014,japanese,2,free,0
North Vancouver,V7J 3K2,49.3431653,-123.0187511,burgers,1,free,1
Vancouver,V5T 1W2,49.2630766531,-123.101267087,pizza,1,free,1
Burnaby,V5H 3E8,49.2249077,-122.9977646,bars,2,free,0
Vancouver,V6E 1V3,49.2867409016,-123.1427178087,american (new),3,free,0
Vancouver,V5T 3C9,49.2643499,-123.1010894,restaurants,2,free,0
North Vancouver,V7L 2P7,49.321793,-123.071199,restaurants,2,free,1
Richmond,V6X 2X9,49.1756887,-123.1346637,restaurants,1,free,0
Vancouver,V6G 1B6,49.277640419,-123.1272201075,fast food,1,free,0
Coquitlam,V3K 1E7,49.2386215122,-122.8637565672,restaurants,2,no,1
Vancouver,V6Z 2R6,49.2738651438,-123.1230095029,vietnamese,1,free,1
Richmond,V6X 2C4,49.1796475115,-123.1392015801,food,2,free,1
Richmond,V6X 1A3,49.1702703,-123.1473308,delis,1,free,1
Surrey,V3X 3K1,49.118241,-122.888557,sushi bars,2,free,0
Richmond,V6X 1A4,49.1705877,-123.1395731,food delivery services,2,no,0
Vancouver,V6E 1C6,49.2875135,-123.1287461,restaurants,2,free,1
Vancouver,V6B 1R2,49.2750725,-123.1227615,nightlife,2,free,0
Burnaby,V3J 1N4,49.250808,-122.89546,restaurants,1,no,0
Vancouver,V6K 3Y2,49.2680934,-123.1686163,nightlife,2,free,0
Vancouver,V6B 2B7,49.286283,-123.118029,restaurants,1,no,1
Richmond,V7B 1K6,49.1918847835,-123.1689492437,restaurants,1,free,0
Vancouver,V6C 2T6,49.2842310155,-123.1179980031,burgers,2,free,0
Port Moody,V3H 2C8,49.27638893,-122.8352131733,restaurants,1,free,0
New Westminster,V3M 1G9,49.2048053,-122.9102207,food,1,free,1
North Vancouver,V7P 1V7,49.325186,-123.123645,american (traditional),2,no,0
North Vancouver,V7N 3X3,49.3329444,-123.0896282,japanese,2,free,1
Bowen Island,V0N 1G0,49.3795322,-123.3344804,nightlife,2,free,0
Vancouver,V5T 3G5,49.2580707,-123.1008151,restaurants,1,no,1
Vancouver,V6E 1C5,49.287051,-123.1290774,restaurants,2,free,1
Surrey,V3R 8X8,49.1857462,-122.8004847,restaurants,2,no,0
Vancouver,V6R 3C4,49.2578401,-123.1859551,sushi bars,2,no,1
Burnaby,V3J 1M2,49.2526544,-122.8982923,american (traditional),2,free,0
Vancouver,V5V 4G3,49.2463493556,-123.0899834633,food,1,free,1
Richmond,V7E 3A2,49.1250636106,-123.185177052,seafood,2,free,0
Vancouver,V6Z,49.2831339782,-123.1229129434,asian fusion,1,no,0
Port Coquitlam,V3C 3B2,49.2612044,-122.7779403,middle eastern,1,no,0
Vancouver,V6K 2H2,49.264347,-123.178896,bars,2,free,0
Richmond,V6X 3W5,49.1785643,-123.1301318,cafes,1,free,1
Burnaby,V5G 1G6,49.2549263,-123.0195599,cafes,2,free,0
Vancouver,V6G 2H1,49.2870154,-123.1357669,delis,1,free,1
Vancouver,V6Z 2V4,49.2739268379,-123.1214358697,restaurants,1,free,1
Vancouver,V6G 2G5,49.2890947,-123.1326326,restaurants,2,free,1
Vancouver,V6P 4Z4,49.2110420844,-123.1401792069,restaurants,3,no,0
Coquitlam,V3B 6J6,49.2772689,-122.7944244,seafood,3,free,1
Burnaby,V3N 4R7,49.243938,-122.894022,restaurants,2,free,0
Vancouver,V6T 1Z4,49.2618141,-123.2552567,bars,2,free,0
Vancouver,V5N 4C6,49.2591178,-123.0695691,restaurants,2,free,1
Vancouver,V6C 1X6,49.2845308,-123.115082,restaurants,1,no,0
Richmond,V6X 1K8,49.1836885,-123.1043022,breakfast & brunch,2,free,0
Coquitlam,V3B 6J6,49.2772689,-122.7944244,food,3,no,0
Richmond,V6X 3K7,49.1790774,-123.1345719,food,2,free,0
Vancouver,V5V 3R2,49.2452367584,-123.1015564501,coffee & tea,1,free,0
Port Coquitlam,V3C 0A4,49.2650180661,-122.7716478497,fast food,1,no,0
Vancouver,V6K 2G6,49.2643585,-123.170372,chinese,2,free,1
Richmond,V7A 4R6,49.1390564,-123.1379482,restaurants,2,free,0
North Vancouver,V7P 1T2,49.324876,-123.109655,seafood,2,free,0
Vancouver,V5N 2S5,49.246797,-123.0682873,restaurants,2,no,0
Vancouver,V6G 1C9,49.2906701,-123.1339159,cafes,2,no,1
Burnaby,V3N 2S9,49.230651,-122.906348,indian,1,free,1
Vancouver,V6Z 2B6,49.2778213,-123.1246019,nightlife,2,free,0
Vancouver,V6B 4P4,49.2781484,-123.1134225,bars,2,free,0
Coquitlam,V3E 1K9,49.2783264,-122.8096052,american (new),2,free,0
Vancouver,V5Y 1R4,49.2632805429,-123.1131614464,restaurants,1,no,0
Vancouver,V5W 2V4,49.225753,-123.101232,indian,2,free,1
North Vancouver,V7R 2X4,49.3374616,-123.102415,delis,2,no,1
Vancouver,V6K 2G3,49.2638609,-123.1659228,pizza,1,no,0
Surrey,V3R 4G5,49.183557,-122.8015222,restaurants,2,no,1
Vancouver,V5V 3P5,49.2491177949,-123.1014562603,bars,2,free,0
Port Coquitlam,V3B 6P2,49.2720872,-122.7895436,chinese,2,no,0
Richmond,V7C 5S7,49.1697783,-123.1676235,barbeque,2,free,0
Richmond,V6X 3Z9,49.1851796,-123.1291287,restaurants,2,free,0
Vancouver,V6S 2G6,49.2487365233,-123.185229376,restaurants,2,free,1
Vancouver,V5P 3T8,49.2388048,-123.0651262,food,2,no,1
Vancouver,V6R,49.2636639749,-123.185155478,bars,2,free,0
Vancouver,V5X 3X6,49.2097506,-123.0908287,restaurants,2,no,0
Vancouver,V5T 3E4,49.2624998,-123.100769,american (new),2,free,1
Richmond,V7B 0A5,49.197946,-123.178542,breakfast & brunch,1,no,0
Burnaby,V5A 4Y6,49.2780161973,-122.9123484898,american (new),2,free,0
Coquitlam,V3B 6J6,49.279079285,-122.7942798986,food,2,free,0
Richmond,V6Y 2C4,49.1644718,-123.1360762,breakfast & brunch,2,free,0
Coquitlam,V3K 6W3,49.2271838,-122.8369942,restaurants,2,free,0
Vancouver,V6J 1M7,49.2682032,-123.1481767,salad,2,free,0
Coquitlam,V3K 7A9,49.2334666,-122.8623957,restaurants,1,free,0
Burnaby,V5G 1C7,49.2563112,-123.0053103,canadian (new),2,free,0
Surrey,V3R 1M7,49.1913499,-122.8083641,specialty food,2,no,1
Vancouver,V6Z 3E2,49.2744548874,-123.1315791607,bakeries,2,free,1
Surrey,V3W,49.1625856,-122.8893579,restaurants,1,no,1
North Vancouver,V7M 2K4,49.3274235,-123.0725559,restaurants,1,free,0
Vancouver,V6B 2R6,49.2740407,-123.1221763,pizza,1,free,0
Surrey,V3W 3M9,49.139607,-122.890066,restaurants,2,no,0
Vancouver,V6A 1X3,49.2796095312,-123.100574596,chinese,3,no,1
Vancouver,V6E 1V3,49.2867409016,-123.1427178087,food,3,free,0
Richmond,V6X 1C3,49.1665898,-123.133569,specialty food,2,free,0
Burnaby,V5E 1E4,49.218677,-122.963913,chinese,2,free,0
Port Moody,V3H 1Y6,49.2776247,-122.8619447,mexican,2,free,1
North Vancouver,V7M 1A2,49.3115723,-123.0802953,restaurants,1,free,0
Vancouver,V5Z 4E1,49.2636604,-123.1251297,bakeries,2,free,1
Vancouver,V5P 3T8,49.2388048,-123.0651262,vietnamese,2,no,1
Vancouver,V6B 2W5,49.2784293,-123.1181311,cafes,2,no,0
Vancouver,V5P 3Y8,49.2204869,-123.0655142,restaurants,2,free,0
Vancouver,V6C 1Z6,49.2827243549,-123.117055884,food,2,free,0
Greater Vancouver A,V6T 1Z3,49.2624183,-123.2450666,sandwiches,1,free,0
Vancouver,V5S 4J6,49.2149295,-123.0304364,asian fusion,2,no,0
Vancouver,V6K 1R1,49.268245,-123.167802,breakfast & brunch,1,free,1
Vancouver,V6G 1C7,49.2897845,-123.1332582,korean,2,free,0
Richmond,V7A 1G5,49.1400926103,-123.1383247967,restaurants,1,free,0
West Vancouver,V7W 3H5,49.3743183,-123.2735015,pubs,2,free,0
Burnaby,V5E 3R7,49.22507,-122.9423701,sushi bars,2,free,0
West Vancouver,V7T 1B7,49.3280137,-123.1560637,restaurants,2,no,0
Richmond,V6X 0J8,49.1846165,-123.1364093,pizza,4,free,0
Vancouver,V5T 1Y5,49.263659,-123.127041,japanese,2,free,0
New Westminster,V3L 3B3,49.2114757572,-122.918422905,coffee & tea,1,no,1
North Vancouver,V7J 1S1,49.3340606,-123.041627,food,1,no,0
Vancouver,V6Z 1M4,49.2770096,-123.1261846,nightlife,2,free,0
Vancouver,V5L 1V2,49.2809215,-123.0610371,restaurants,2,no,0
Vancouver,V6K 1P8,49.2684762,-123.1647896,canadian (new),3,no,1
Vancouver,V5P 3X5,49.2257085771,-123.0659736693,restaurants,1,no,0
Vancouver,V6A 1X5,49.2793717,-123.0989354,chinese,1,no,0
Vancouver,V5L 3X8,49.2716228,-123.0698886,sushi bars,2,no,1
Vancouver,V5Y 0E4,49.2706702,-123.1059184,breakfast & brunch,2,free,0
West Vancouver,V7V 4H8,49.3332327,-123.1822073,seafood,3,free,0
Port Moody,V3H 2C5,49.2762155,-122.8442982,restaurants,2,no,1
Richmond,V7E 3L6,49.126396,-123.184272,japanese,2,free,0
Vancouver,V6A 1E7,49.2831349,-123.1030172,bars,2,no,0
Vancouver,V5L 1T3,49.2815811,-123.0661289,seafood,2,free,0
Vancouver,V6M 4H1,49.2386894944,-123.1295154339,restaurants,2,no,0
Burnaby,V5C 0A4,49.26429,-123.012849,restaurants,2,no,1
Vancouver,V6E 1N2,49.2813044,-123.1322248,restaurants,1,no,0
Burnaby,V5B 1S2,49.279993442,-122.9697731134,burgers,2,free,0
Burnaby,V5E 3R7,49.2232971191,-122.9431762695,restaurants,2,no,0
Vancouver,V6B 2B7,49.2805271,-123.1187971,restaurants,1,no,1
Richmond,V7E 2Z1,49.1295851,-123.1859599,food,2,no,0
Vancouver,V6K 4W7,49.2579886,-123.1678342,japanese,3,no,1
Vancouver,V5Z 1E9,49.2630882,-123.1168633,restaurants,2,no,1
Vancouver,V6Z 1X6,49.2843582,-123.1222877,restaurants,3,free,0
Surrey,V3T 5X3,49.188458,-122.848593,bars,2,no,0
Vancouver,V6E 1N2,49.2813044,-123.1322248,american (traditional),1,no,0
Vancouver,V5T 3E4,49.2624998,-123.100769,canadian (new),2,free,1
Richmond,V6X 3V7,49.1815397,-123.1359355,food,2,no,1
Vancouver,V6K 1N7,49.2682704,-123.1536805,chinese,2,no,1
Richmond,V6X 4B4,49.1871956,-123.1301739,coffee & tea,2,free,0
Vancouver,V6N 3E6,49.2346344,-123.1844711,restaurants,2,free,0
Vancouver,V6A 4E9,49.2791047,-123.1007624,seafood,2,free,0
Vancouver,V6J 1C6,49.272701,-123.1473384,restaurants,1,no,0
Vancouver,V6B 1L2,49.2793023,-123.1229121,sandwiches,1,free,0
Vancouver,V6T 1Z3,49.2660058,-123.2464028,salad,2,free,0
Richmond,V7A 1N6,49.133102,-123.094091,restaurants,1,free,0
North Vancouver,V7M 1N3,49.3191196,-123.0730036,pizza,1,free,1
North Vancouver,V7M 2H9,49.3218356,-123.0725998,restaurants,1,paid,0
Richmond,V6X 1C3,49.1786353,-123.1283987,restaurants,2,no,1
Vancouver,V5N 4P5,49.2401838,-123.0653498,indian,2,free,1
Vancouver,V6T 1T5,49.2660838794,-123.2425742996,restaurants,2,no,0
Vancouver,V6A 2Z8,49.2791942589,-123.0972858036,vegetarian,2,free,1
Vancouver,V6C 1V4,49.2848880198,-123.11434357,cafes,2,free,0
Vancouver,V5P 3X8,49.2250574,-123.0659426,restaurants,2,free,0
Richmond,V7E 4R7,49.1236154,-123.1836194,restaurants,2,free,0
Vancouver,V6B 5P9,49.2763492,-123.1197528,restaurants,2,free,0
North Vancouver,V7R 4K9,49.3790102203,-123.0833663398,american (new),3,free,0
Burnaby,V5C 2J3,49.2808832079,-123.0147175705,restaurants,2,free,1
Richmond,V7A 1N6,49.1322219,-123.095576,restaurants,2,free,0
Burnaby,V5H 4V2,49.2294464,-123.0044077,chinese,1,free,0
Vancouver,V5P 3W5,49.2309756,-123.0652541,restaurants,2,free,0
North Vancouver,V7L 2L3,49.3198269,-123.0719462,food,1,free,0
Vancouver,V6H 3N1,49.2445688,-123.1256825,cafes,1,free,0
Coquitlam,V3K 7A9,49.2334666,-122.8623957,food,1,free,0
Vancouver,V6K 2C8,49.263919,-123.154395,sushi bars,2,no,1
Richmond,V6X 2B2,49.1931892,-123.1297556,dim sum,2,no,0
Vancouver,V5N 2T7,49.2426651824,-123.0604147911,noodles,1,no,1
Vancouver,V5Z 3Y6,49.2625971,-123.115638,desserts,2,free,0
Port Coquitlam,V3C 3G6,49.2633958,-122.7803775,japanese,1,free,1
Vancouver,V6C 2W6,49.2837454,-123.1207825,nightlife,3,free,0
Burnaby,V5C 6R4,49.2676906,-123.0066466,japanese,1,free,0
Richmond,V7A 1N6,49.1330139509,-123.0962971825,japanese,2,no,0
North Vancouver,V7J 1S1,49.3340606,-123.041627,delis,1,no,0
Vancouver,V6E 1W1,49.2845862,-123.1252497,fast food,2,free,0
Richmond,V6X 3A5,49.1780536,-123.1358342,desserts,2,free,0
Vancouver,V6B 1B2,49.2838557,-123.1064112,restaurants,2,no,0
Richmond,V6X 2C2,49.183023,-123.135604,restaurants,2,no,0
Burnaby,V5H 2A9,49.2290085,-123.0050498,restaurants,1,no,0
North Vancouver,V7R 4K9,49.37024451,-123.0986873304,restaurants,2,free,0
Vancouver,V5V 4G1,49.2472163,-123.090345,italian,2,free,1
Vancouver,V6B 3A6,49.2808173,-123.1172019,canadian (new),2,free,0
North Vancouver,V7M 1N9,49.3211477,-123.0740431,breakfast & brunch,2,no,0
Surrey,V3R 1V9,49.1990817,-122.8133497,burgers,2,no,0
Surrey,V3W 4E1,49.130358,-122.868253,food,2,no,1
Vancouver,V6B 2M8,49.284598,-123.108687,bars,2,free,1
Richmond,V6X 4A7,49.1875901,-123.1285147,barbeque,2,no,0
Vancouver,V5N 1V9,49.2624865,-123.0701321,fast food,1,no,0
Port Coquitlam,V3C 4X3,49.2605757711,-122.7802816138,restaurants,1,no,0
Richmond,V7A 4E8,49.1326422854,-123.0912660051,restaurants,2,no,0
Port Coquitlam,V3C 3B2,49.2612388,-122.7780441,japanese,1,free,0
North Vancouver,V7H 1A6,49.3070211,-123.0173342,desserts,1,free,1
Vancouver,V6B 2L2,49.2807799,-123.1079494,restaurants,2,free,1
Delta,V4C 6P6,49.146889,-122.8911121,nightlife,2,no,1
New Westminster,V3L 3C6,49.215385,-122.9229144,coffee & tea,1,free,1
North Vancouver,V7P 1T4,49.3239258742,-123.1123654067,restaurants,2,free,0
Vancouver,V5Z 4E1,49.2636604,-123.1251297,restaurants,2,free,1
Vancouver,V5Z 2X9,49.2498660758,-123.1155605383,chinese,3,no,1
Burnaby,V5E 3N1,49.2391935,-122.9630298,pizza,2,no,1
Vancouver,V6K 4W7,49.2579886,-123.1678342,restaurants,3,no,0
Vancouver,V6Z 2Z4,49.2736116,-123.1183902,pizza,2,free,0
Coquitlam,V3K,49.2445239748,-122.8917860251,chinese,1,no,1
Coquitlam,V3K 6Y2,49.228421277,-122.8482719528,coffee & tea,1,free,0
Vancouver,V6M 1Y8,49.2342436,-123.15406,restaurants,2,no,0
Burnaby,V5H 4M1,49.225904,-122.99696,burgers,1,free,0
Richmond,V6X 2X9,49.1755327,-123.1324264,asian fusion,2,no,0
Richmond,V6X 4B7,49.18766,-123.13135,sushi bars,2,free,0
North Vancouver,V7P 3T2,49.3147999994,-123.1012425998,food,1,free,1
Richmond,V6X 2H4,49.1915767569,-123.1282424927,restaurants,1,no,0
Vancouver,V6K 1N8,49.2680868,-123.1573803,nightlife,2,no,0
Vancouver,V5V 3E1,49.2511628,-123.0790492,vietnamese,1,free,1
Vancouver,V5Y 2A5,49.2547069701,-123.1097225714,restaurants,2,no,1
Vancouver,V5S 4V7,49.2058825,-123.0426519,salad,2,free,0
Vancouver,V6A 1E7,49.2831754,-123.1039151,food,2,no,0
Vancouver,V6B 2A3,49.2817129,-123.116602,food,2,free,0
Vancouver,V6K 1E9,49.2709727,-123.1552829,seafood,2,no,0
Burnaby,V5E 1E1,49.219468,-122.9683527,burgers,2,free,0
Burnaby,V5C 2K6,49.28131,-122.9991401,bars,1,free,0
Burnaby,V5C 2K6,49.28131,-122.9991401,american (new),1,free,0
Vancouver,V6K 2H2,49.264347,-123.178896,nightlife,2,free,0
Vancouver,V6K,49.2715661205,-123.1552887268,nightlife,2,free,1
Vancouver,V6J 1M9,49.2678849,-123.1506642,restaurants,2,no,0
Surrey,V3R 3W7,49.1696186,-122.8127638,sushi bars,2,free,1
Vancouver,V5Z 4C2,49.2637363,-123.1180045,sushi bars,2,no,0
Vancouver,V6Z 1V3,49.2808844,-123.1246278,bars,2,no,1
Vancouver,V6B 6A1,49.2786512,-123.115353,restaurants,1,free,0
North Vancouver,V7H 0A2,49.3060285,-123.0088452,seafood,2,no,0
Vancouver,V5T 1B4,49.2695864693,-123.1028566413,salad,2,free,0
Burnaby,V5C 2K6,49.2812108,-122.999388,noodles,1,free,0
Surrey,V3T 4H4,49.1906849564,-122.8413259238,restaurants,2,free,1
Surrey,V3R 3P1,49.1659225,-122.8018812,japanese,2,free,0
Burnaby,V5H 2G2,49.2229357,-122.9841561,burgers,2,free,0
Vancouver,V5W 2Z5,49.2318385,-123.0905611,restaurants,2,free,0
Vancouver,V6H 1E6,49.2631256,-123.1270799,specialty food,1,no,0
Port Moody,V3H 2C8,49.27638893,-122.8352131733,burgers,1,free,0
Vancouver,V6K 2G9,49.2642141,-123.1742235,mediterranean,2,no,0
Vancouver,V6B 1V5,49.2839983,-123.1135604,restaurants,1,free,1
Vancouver,V5S 4W2,49.2195921,-123.0410176,sushi bars,2,free,0
Burnaby,V5C 2J7,49.2812746974,-123.0065041241,coffee & tea,2,free,0
Vancouver,V5K 4B6,49.2770139,-123.0438715,nightlife,2,free,0
Vancouver,V6A 1S2,49.2806949,-123.0802963,chinese,2,free,0
Vancouver,V6B 2K8,49.283717,-123.106238,bars,2,free,1
Richmond,V7A 1W6,49.1396568327,-123.1378003675,japanese,2,no,0
West Vancouver,V7T 1B7,49.327946,-123.15549,specialty food,2,no,0
Coquitlam,V3B 1B9,49.2773553,-122.8047918,restaurants,2,free,0
Surrey,V3R 3W9,49.198143,-122.8121234,pizza,1,no,0
Burnaby,V5E 3R7,49.22507,-122.9423701,japanese,2,free,0
Vancouver,V6J 3Y4,49.2621202082,-123.1532904304,canadian (new),2,free,0
Vancouver,V6B 1B8,49.2846566,-123.1093607,pizza,2,free,0
Burnaby,V5G 1C7,49.2566565,-123.0069826,nightlife,3,free,1
Coquitlam,V3E 1K9,49.278165,-122.814143,delis,1,free,0
Vancouver,V6J 1G5,49.2704658,-123.1460774,coffee & tea,1,free,1
Vancouver,V5R 5K6,49.2330548744,-123.0328938918,chinese,1,free,0
Delta,V4E 2A9,49.1315671,-122.891824,restaurants,1,free,0
New Westminster,V3L 2B8,49.2229148,-122.9142552,restaurants,1,no,1
Vancouver,V5N 4B1,49.2665422,-123.0698857,restaurants,2,free,0
Richmond,V6X 3X2,49.1862473,-123.1333378,chinese,1,no,0
Vancouver,V6A 1E7,49.2831754,-123.1039151,middle eastern,2,no,0
Vancouver,V5Y 4A8,49.2630454634,-123.112614326,japanese,2,no,1
Richmond,V6Y 2N6,49.1549127,-123.1258403,food,2,no,0
Vancouver,V5Y 4A8,49.2633568994,-123.1141551443,vietnamese,1,no,0
Port Moody,V3H 2C2,49.2764148156,-122.8468033299,food,2,free,1
Vancouver,V6B 0H3,49.2796555873,-123.1170175725,restaurants,1,free,1
New Westminster,V3M 5X2,49.1916440248,-122.9487323016,vietnamese,1,no,0
Vancouver,V6B 1B2,49.283458429,-123.1043702337,restaurants,2,no,0
Vancouver,V6J 1G5,49.2704658,-123.1460774,food,1,free,1
Vancouver,V7Y 0A2,49.2819563,-123.120054,american (traditional),3,free,0
Vancouver,V6B 2Z4,49.2837704,-123.1120424,seafood,2,free,1
Vancouver,V6H 3S2,49.2719608974,-123.1356028095,restaurants,2,no,0
Surrey,V3T 5C5,49.1878144,-122.8459101,canadian (new),2,free,0
Vancouver,V6B 2B7,49.2803610181,-123.1186111772,mediterranean,2,no,0
Vancouver,V5N 1L4,49.2661487,-123.0694056,restaurants,1,free,1
Vancouver,V5L 1V3,49.2812947,-123.0589523,nightlife,2,free,1
Vancouver,V6B 5T4,49.276155,-123.1211291,food delivery services,3,free,1
Burnaby,V5H 4P1,49.22583,-122.996919,restaurants,1,no,0
Bowen Island,V0N 1G2,49.3795289,-123.3354819,bars,2,no,1
Vancouver,V5M 2C9,49.2578961,-123.0459972,food delivery services,2,no,0
Vancouver,V5P 3V4,49.2370473,-123.0656135,chinese,2,free,0
Vancouver,V5Z 1S7,49.2569247,-123.1212865,bars,2,free,1
Coquitlam,V3J 3X4,49.2619143164,-122.8905401006,noodles,2,free,0
Vancouver,V6A 1X5,49.2792784082,-123.0973971309,bars,2,paid,1
Richmond,V6Y 3R9,49.1543507802,-123.1246189479,indian,2,free,0
Richmond,V6X 4A7,49.1875901,-123.1285147,restaurants,2,free,0
Vancouver,V6K 2G6,49.2639493959,-123.1696599,american (traditional),2,free,1
Vancouver,V6G 1C8,49.2914352,-123.1353494,restaurants,1,free,1
Vancouver,V6G 1C9,49.2906701,-123.1339159,coffee & tea,2,no,1
Vancouver,V6B 5K3,49.2846966,-123.1119349,fast food,1,free,0
Vancouver,V6J 1C8,49.2726108,-123.1485271,restaurants,1,free,1
Vancouver,V5Z 1G8,49.263087,-123.120997,vegetarian,2,free,0
Vancouver,V6B,49.2762117,-123.1198819,restaurants,2,no,0
Coquitlam,V3J 7R4,49.2493462645,-122.865828909,restaurants,2,free,1
Vancouver,V6C 3B6,49.2850063037,-123.1180497204,restaurants,2,free,0
Vancouver,V7X 1L3,49.2864911,-123.1214363,bars,2,free,1
Vancouver,V6J 1M7,49.2678627,-123.1508704,bars,2,free,1
Vancouver,V6B 3L9,49.2793994,-123.1204331,restaurants,2,free,0
Vancouver,V6J 1W6,49.263677,-123.1395952,chinese,2,no,0
Vancouver,V6J 2E1,49.2608947,-123.1391588,breakfast & brunch,2,free,0
North Vancouver,V7M 2J5,49.3239738,-123.0727077,bakeries,2,free,1
New Westminster,V5B,49.2016047937,-122.9130933743,coffee & tea,1,free,0
Vancouver,V5X 2P7,49.2118278,-123.0913871,indian,2,no,1
Coquitlam,V3K 3N7,49.249321,-122.8591119,restaurants,2,no,1
Vancouver,V6E 3T3,49.2885292,-123.1208289,american (new),2,free,0
Vancouver,V6A 1R1,49.281009,-123.0897164,food,2,free,0
Richmond,V6Y 1P3,49.1622777571,-123.1326057604,restaurants,2,no,0
Vancouver,V5L 3X4,49.2735354,-123.0692475,food,2,free,0
Coquitlam,V3B 6J6,49.274923,-122.791039,food,2,free,0
Vancouver,V6B 6N9,49.280589687,-123.1062250753,noodles,1,no,0
Vancouver,V5T 3G5,49.2580707,-123.1008151,mediterranean,1,no,1
Vancouver,V6Z 3G4,49.2814273326,-123.1237540472,american (new),2,free,0
Richmond,V6X 3K5,49.1723682,-123.1326865,chinese,2,no,0
Vancouver,V6Z,49.2777222,-123.1278294,restaurants,2,free,1
Burnaby,V5H 2E9,49.2245326,-122.9880865,restaurants,2,free,1
Vancouver,V5M 4P3,49.2691901817,-123.0454243804,seafood,2,no,0
Richmond,V6X 0M5,49.17762,-123.12371,canadian (new),2,free,0
Richmond,V7E 6K7,49.123822759,-123.1839228104,restaurants,2,free,0
Burnaby,V5J 0A6,49.1979326,-122.9749254,restaurants,2,free,0
Port Moody,V3H 2B1,49.2772012,-122.8575859,pubs,2,free,0
North Vancouver,V7M 2J7,49.3251341,-123.0719953,canadian (new),2,free,0
New Westminster,V3M 3P1,49.2025754,-122.9135416,sandwiches,1,free,1
Burnaby,V5E 0A6,49.2199018142,-122.9703659298,dim sum,2,no,0
Richmond,V6X 3Z8,49.1839882,-123.1266499,cafes,1,free,1
Richmond,V7E 3A3,49.125208,-123.1834819,sandwiches,1,free,0
Vancouver,V6P 4Z4,49.2116627,-123.1401882,restaurants,1,free,0
Vancouver,V6B 5T4,49.2767766,-123.1201854,mexican,2,no,1
Surrey,V3W 3M5,49.119977,-122.8898406,restaurants,2,no,0
Richmond,V6X 3V9,49.1872714,-123.1241674,restaurants,1,no,0
Vancouver,V5Z 3J2,49.263047,-123.117827,burgers,2,free,0
Richmond,V6X 3M7,49.1778682044,-123.1255408376,chinese,2,free,0
Vancouver,V5S 4V7,49.2058825,-123.0426519,seafood,2,free,0
Burnaby,V5H 4P1,49.225637,-122.997639,restaurants,1,no,0
Vancouver,V5P 3T8,49.2385526,-123.0651974,chinese,2,free,0
Burnaby,V5C 2J4,49.2809119,-123.0133363,sandwiches,1,no,0
Richmond,V7A 1W6,49.1396568327,-123.1378003675,sushi bars,2,no,0
Burnaby,V5E 1G5,49.2186411,-122.9545003,burgers,1,free,0
Vancouver,V6B 2T5,49.2588426791,-123.1141662598,bars,2,free,0
Vancouver,V6T 1Z1,49.266591,-123.249608,sandwiches,2,free,1
Burnaby,V5C 5Y1,49.2654880978,-123.0051867664,food,1,no,0
Vancouver,V6E 1Z8,49.2814077446,-123.1336959084,sushi bars,4,no,1
Vancouver,V6Z 1T9,49.2818577,-123.1234686,pizza,2,free,0
Coquitlam,V3B 6S2,49.274875,-122.792253,breakfast & brunch,2,free,0
North Vancouver,V7P 1S4,49.3235761,-123.1019458,restaurants,3,free,1
Richmond,V6X 2T9,49.1834396,-123.0922447,restaurants,2,no,0
Richmond,V7B 1X8,49.1975162638,-123.1783060986,canadian (new),2,free,0
Burnaby,V5E 1C5,49.218978346,-122.9690086604,korean,2,free,0
Richmond,V6X 3K1,49.172848,-123.136191,restaurants,2,free,0
Vancouver,V6Z 1T9,49.2820063077,-123.1230249256,fast food,1,free,1
Vancouver,V6C 3E1,49.2894022,-123.1180434,food,2,free,1
Vancouver,V6C 3K4,49.2845427,-123.1183473,sandwiches,2,free,1
Burnaby,V5C 6R5,49.266806,-123.006959,canadian (new),2,free,0
Vancouver,V6K 2E4,49.2640409,-123.1567891,nightlife,2,free,0
Vancouver,V5Y 3Z5,49.264087,-123.1138643,restaurants,2,no,1
Richmond,V6X 3Z9,49.1856245798,-123.1304538958,seafood,2,no,0
North Vancouver,V7P 1R3,49.3234186483,-123.0994107248,restaurants,2,free,0
Vancouver,V6Z 2Y3,49.2733234,-123.119583,restaurants,3,no,0
Vancouver,V6H 2M5,49.251426,-123.127458,restaurants,2,no,0
Vancouver,V6B 6A1,49.2786007374,-123.1160405153,canadian (new),2,no,0
Vancouver,V5N 3P3,49.2836351,-123.1200742,restaurants,1,no,1
Vancouver,V6B 6A1,49.2786007374,-123.1160405153,pubs,2,no,0
Vancouver,V6G 3J2,49.2903006867,-123.1289233852,restaurants,1,free,1
Vancouver,V6A 1T6,49.2805781,-123.1008024,bars,2,free,1
West Vancouver,V7T 0A5,49.3264502785,-123.139376289,canadian (new),2,free,0
Vancouver,V6C 2G8,49.2875834,-123.1167499,restaurants,2,free,0
Vancouver,V6A 2Z1,49.2832626115,-123.098110155,restaurants,2,free,1
Vancouver,V6C 3L5,49.2872868,-123.1137298,restaurants,3,free,1
Vancouver,V5T 4T3,49.2623104,-123.095829,japanese,2,free,1
Vancouver,V6B 2L3,49.2801460008,-123.1099253281,cafes,3,free,1
Vancouver,V6E 3P1,49.28529,-123.121315,specialty food,1,no,1
Richmond,V6X 1C3,49.1785598123,-123.1352793003,restaurants,1,no,0
Burnaby,V5H 4N2,49.2257241087,-123.0015292489,restaurants,1,free,0
Vancouver,V6Z 2E1,49.2809331,-123.123585,restaurants,2,free,0
New Westminster,V3L 3C2,49.212941,-122.921127,canadian (new),2,no,0
Vancouver,V6H 3N1,49.2445688,-123.1256825,food,1,free,0
Burnaby,V5G 3H5,49.2425291,-123.0040373331,noodles,2,free,0
Vancouver,V6B 1V8,49.2841553,-123.1143602,restaurants,2,free,0
Vancouver,V6J 5K9,49.2634070017,-123.1401560686,cafes,1,free,0
Vancouver,V6R 2H9,49.263638,-123.206997,sandwiches,2,no,0
Vancouver,V6Z 1L8,49.2778209,-123.1258019,food,1,free,0
Vancouver,V6A 3W9,49.2721641377,-123.0978167058,breakfast & brunch,1,free,0
Vancouver,V6C,49.2887674219,-123.1147521967,food,1,free,1
New Westminster,V3L 5H1,49.212361696,-122.9188728724,coffee & tea,1,free,1
Vancouver,V5V 3E3,49.251,-123.07699,seafood,2,free,1
Vancouver,V6A 1E9,49.2835428,-123.1038877,pubs,2,free,0
Vancouver,V5T 3G7,49.2569005,-123.1009365,italian,1,free,1
Vancouver,V6H 3S2,49.2727014,-123.1352146,restaurants,2,no,0
Vancouver,V5T 1W5,49.2629448961,-123.0985786234,japanese,2,no,0
New Westminster,V3L 0E3,49.2250086337,-122.8926249527,chicken wings,2,free,0
Vancouver,V5L 3X6,49.2722609,-123.0692191,food,2,free,0
Vancouver,V5L 3H7,49.2799024,-123.0769321,cafes,1,free,1
North Vancouver,V7H 2Y5,49.3164905,-122.9711234,sushi bars,2,no,0
Vancouver,V6G 1T2,49.2879495,-123.1404201,restaurants,2,free,0
Vancouver,V5N 4A9,49.2665657,-123.0695155,indian,2,free,0
Vancouver,V6M 2A5,49.23478898,-123.1614619153,nightlife,2,no,1
Vancouver,V6P 2Z2,49.208429,-123.1379116,bakeries,1,free,1
Richmond,V6X 2C2,49.1813728,-123.135898,asian fusion,1,no,1
Richmond,V7B 1M8,49.1932034,-123.1722103,burgers,2,no,0
Vancouver,V5K 5C5,49.2810043,-123.0453296,restaurants,1,free,0
Vancouver,V5Z 1A6,49.265607,-123.121984,restaurants,1,free,1
Vancouver,V6A 1E9,49.2835428,-123.1038877,bars,2,free,1
Vancouver,V5L 3W7,49.27607,-123.0692457,cafes,3,free,1
Vancouver,V6R 1B3,49.271887,-123.1904629,restaurants,3,no,1
Burnaby,V5H 4V8,49.2303729,-123.0038913,restaurants,2,free,0
Coquitlam,V3E 1K9,49.2779855,-122.8112574,burgers,1,free,0
Surrey,V3T 2W1,49.1865473886,-122.8475425962,noodles,2,free,0
North Vancouver,V7L 0B9,49.3100799,-123.0794176,seafood,2,free,0
Vancouver,V5Y 1E2,49.2671356,-123.1131742,food,2,free,0
Vancouver,V6E 1M5,49.2798428,-123.1297261,nightlife,2,free,1
North Vancouver,V7M 2E8,49.31241,-123.077821,coffee & tea,1,free,1
Burnaby,V5H 2A9,49.2290734,-123.0048795,restaurants,1,no,0
Vancouver,V6J 1W9,49.2638921,-123.1417027,bars,2,free,0
Vancouver,V6B 1G1,49.2859448,-123.1122271,restaurants,2,free,0
Richmond,V7A 5J5,49.132159,-123.099182,breakfast & brunch,2,free,0
Vancouver,V5Z 1G1,49.2630952,-123.1182667,japanese,1,no,0
Vancouver,V5N 4C2,49.2615211277,-123.0696023628,vegetarian,2,free,1
Vancouver,V6Z 1Y9,49.2798451,-123.1276537,restaurants,1,no,0
Vancouver,V6C 2X4,49.2858315,-123.1153183,bars,2,free,1
Vancouver,V6E 1T7,49.2755892,-123.1347834,asian fusion,4,free,0
Vancouver,V5Y,49.2632265,-123.1082126,italian,2,no,0
Burnaby,V3J 1P1,49.253645,-122.892575,vietnamese,2,no,0
Vancouver,V6K 2H5,49.264334,-123.176389,food,1,free,1
Vancouver,V5Y 1M8,49.2640032,-123.1060439,food,1,no,0
Vancouver,V5T 2C2,49.2610262,-123.1018121,restaurants,2,no,0
Vancouver,V5V 3C2,49.2558079,-123.0875334,indian,2,free,1
Vancouver,V6C 1W6,49.2838845,-123.1160381,restaurants,2,free,0
Vancouver,V5W 2Z8,49.2299962,-123.0908133,restaurants,2,no,0
North Vancouver,V7M 2K1,49.3271549,-123.0724659,japanese,2,free,0
Vancouver,V6B 1E5,49.2837285,-123.1092042,coffee & tea,1,free,1
Richmond,V5V 3N9,49.1780536,-123.1358342,dim sum,2,free,0
Vancouver,V5T 1J7,49.2656087,-123.1001643,bars,2,free,0
Vancouver,V6H 3S2,49.2724508746,-123.1358542414,bakeries,1,no,1
Vancouver,V5X 3L6,49.2113019,-123.1018701,restaurants,2,free,0
Richmond,V6X 3Z9,49.1856566095,-123.1292033941,korean,2,free,0
Vancouver,V5P 2V9,49.2256683,-123.0778129,food delivery services,1,no,0
Vancouver,V5N 3L8,49.2496779,-123.0762965,burgers,2,free,1
Vancouver,V5Z 2W4,49.2560017,-123.1148994187,restaurants,2,free,0
Vancouver,V6C 3N9,49.2864696,-123.1156543,specialty food,2,free,0
Vancouver,V6B 1A1,49.2837374,-123.1052117,restaurants,2,free,0
Vancouver,V5K 4X7,49.2691209091,-123.0446771128,chinese,2,no,0
Vancouver,V6J 1M7,49.2683195,-123.1500798775,mexican,2,no,0
Vancouver,V6B 2S2,49.2750638734,-123.1214511395,american (new),2,free,0
Vancouver,V5T 3G7,49.2558434896,-123.1014758657,japanese,2,no,1
Port Moody,V3H 2C5,49.2763181901,-122.8439638328,chinese,2,no,0
Vancouver,V6E 1X4,49.280445,-123.1315288,bakeries,1,free,1
Vancouver,V6A 2T9,49.279825,-123.0993261,chinese,1,free,0
Richmond,V6X 4B5,49.187253,-123.131515,asian fusion,2,no,0
New Westminster,V3M 5X2,49.1919884,-122.9487798,indian,1,free,0
Burnaby,V5A 1S6,49.2787975076,-122.919394571,mexican,1,free,0
Vancouver,V5X 3T3,49.225211,-123.0903776,sushi bars,2,free,0
North Vancouver,V7L 3V9,49.3126325,-123.057373,breakfast & brunch,1,free,1
Vancouver,V6K 1R2,49.2682406,-123.1687859,food,2,free,1
Coquitlam,V3J 3X5,49.261465,-122.888345,canadian (new),2,no,0
Burnaby,V5E 2H7,49.2812457,-123.018888,italian,2,no,1
Vancouver,V6G 1C7,49.290236,-123.133811,japanese,2,no,1
Vancouver,V6M 4J7,49.2340907,-123.14012,chinese,2,no,0
Vancouver,V6E 1B2,49.2850272,-123.1260593,food delivery services,2,free,1
Vancouver,V6E 2P4,49.2882192,-123.1222259,restaurants,2,free,0
Richmond,V6X 3V9,49.1872314,-123.124219,chinese,2,no,0
Burnaby,V5E 1E9,49.2196153529,-122.956237793,sushi bars,1,no,0
Delta,V4K 1W3,49.0895115,-123.0790725,restaurants,2,no,0
Vancouver,V5T 1V9,49.2627411,-123.1021062,noodles,2,free,0
Vancouver,V6J 1M9,49.2678849,-123.1506642,food,2,no,0
Vancouver,V5T 1X4,49.2626471,-123.0922336,restaurants,1,free,1
Vancouver,V6Z 2H2,49.2794811,-123.1240303,cafes,1,no,0
Richmond,V6Y 2B7,49.1667685464,-123.1377336503,burgers,2,free,0
Vancouver,V5V 3P9,49.2474396,-123.1009578,bars,2,free,0
Vancouver,V6B 5C6,49.2862522533,-123.1276925445,restaurants,2,no,0
Burnaby,V5H 2G2,49.2229357,-122.9841561,canadian (new),2,free,0
Richmond,V6Y 1K4,49.1550891102,-123.124449403,restaurants,2,free,0
Vancouver,V6Z 3G8,49.2757061,-123.1151383,seafood,2,no,1
Vancouver,V6J 5B8,49.2708126,-123.1470188,restaurants,2,no,0
Vancouver,V6B 1G4,49.2818496,-123.1057864,sandwiches,1,free,1
Vancouver,V6E 1N4,49.282129304,-123.1335425557,restaurants,2,no,0
Burnaby,V3N 1B4,49.2224351,-122.9437792,restaurants,2,free,1
Burnaby,V5C 2K2,49.2805558,-123.0043694,sandwiches,2,free,0
Vancouver,V5P 2R6,49.2105806,-123.0727278,seafood,2,no,0
Coquitlam,V3E 3J7,49.296477162,-122.8035345808,restaurants,2,free,1
Surrey,V3R 8X8,49.1857462,-122.8004847,taiwanese,2,no,0
Surrey,V3W 3M9,49.136391,-122.889167,fast food,2,no,0
Vancouver,V6K 1B5,49.2723428244,-123.1553483754,bars,2,free,0
Vancouver,V6B 1B2,49.284416,-123.107274,nightlife,2,free,0
Vancouver,V6Z,49.2777222,-123.1278294,italian,2,free,1
Vancouver,V5T 3J1,49.2634848517,-123.0997788906,sandwiches,2,free,1
Richmond,V6Y 0C2,49.1685173061,-123.1369059473,bakeries,1,no,1
Vancouver,V5V 3P2,49.2507804,-123.1012704,food,2,no,1
Burnaby,V5C 2H9,49.2812152,-123.0154676,bars,2,free,1
Burnaby,V5J 1B8,49.2219361,-122.9992794,sandwiches,2,free,1
Vancouver,V6Z 1L3,49.280407,-123.1219174,nightlife,2,free,0
Surrey,V3R 4G6,49.1870862,-122.8012553,restaurants,2,free,0
Richmond,V6X 1A5,49.1253783949,-123.1922577691,restaurants,2,no,0
Vancouver,V6B 4P4,49.2788904,-123.1130896,canadian (new),2,free,0
Vancouver,V6E 2Y1,49.2873715,-123.1236493,restaurants,2,no,0
Vancouver,V5Y 3L1,49.2632037459,-123.110469593,coffee & tea,2,free,1
Vancouver,V6B 6C1,49.2800759,-123.1083327,restaurants,1,free,0
Richmond,V6X 3L7,49.1824293,-123.1342197,restaurants,2,no,0
Vancouver,V6E 2Y2,49.2852040237,-123.1228062802,desserts,3,free,0
Vancouver,V5Z 1E6,49.2633734327,-123.1171303272,nightlife,2,free,0
Richmond,V6X 3Z9,49.1856245798,-123.1304538958,chinese,2,no,0
Burnaby,V5H 1Z9,49.231211,-123.0071369,restaurants,2,free,0
Vancouver,V5Y 0B1,49.2715389,-123.106136,bars,2,free,0
Vancouver,V6C 2T6,49.2842310155,-123.1179980031,food,2,free,0
Vancouver,V5N 2T6,49.2426317,-123.0592661,vietnamese,1,no,1
Vancouver,V6J 3J2,49.2647857,-123.1459525153,restaurants,1,free,1
Vancouver,V6Z 1X6,49.2837764297,-123.1219757231,barbeque,2,no,0
Surrey,V3W 3N1,49.1399615,-122.8895311,restaurants,2,free,0
New Westminster,V3L 1A6,49.2050504,-122.9038903,mediterranean,2,free,1
Vancouver,V6P 2Z2,49.208429,-123.1379116,cafes,1,free,1
Port Coquitlam,V3C 6L6,49.242005,-122.760492,japanese,2,no,1
North Vancouver,V7M 2N7,49.3281022288,-123.072501724,restaurants,1,free,0
New Westminster,V3M 7A3,49.1863035,-122.9561838,nightlife,2,free,0
Vancouver,V6K 2H5,49.2643567,-123.1765489,asian fusion,2,no,0
Vancouver,V5Z 2W6,49.2555355,-123.1153982,sandwiches,2,free,0
Vancouver,V5R 5K3,49.2349448,-123.0371593,indian,2,free,1
Vancouver,V6B 6A2,49.2782446,-123.1165993,desserts,1,free,1
Vancouver,V6B 1G4,49.281901732,-123.1060412253,canadian (new),2,free,0
Burnaby,V5G 1H3,49.2551636,-123.0087893,restaurants,1,free,0
Port Coquitlam,V3C 2N4,49.2531751,-122.7667636,pubs,2,free,0
Surrey,V3R 1V9,49.1990817,-122.8133497,food,2,no,0
Delta,V4C 6S3,49.1759279,-122.8908113,restaurants,2,free,1
Burnaby,V5E 1C5,49.2188919,-122.9685771,restaurants,2,free,0
Richmond,V6V 2L3,49.1800047,-123.0696844,american (traditional),2,free,0
Richmond,V7B 0A6,49.1949175,-123.1760053,breakfast & brunch,3,free,0
Vancouver,V5T,49.2609143,-123.1008146,food,2,free,0
Vancouver,V5R 5L7,49.232045,-123.027391,restaurants,2,free,0
Vancouver,V6A 3W9,49.2721641377,-123.0978167058,bakeries,1,free,0
Vancouver,V5T 3G7,49.2558434896,-123.1014758657,asian fusion,2,no,1
Burnaby,V5C 5Y1,49.2654880978,-123.0051867664,pizza,1,no,0
Vancouver,V5K,49.2809742,-123.0240046,nightlife,2,free,0
Richmond,V6X 2X9,49.17576,-123.132214,fast food,1,free,1
Vancouver,V6M 2A5,49.23478898,-123.1614619153,mediterranean,2,no,1
West Vancouver,V7V 1H8,49.3284106,-123.1582144,cafes,2,free,1
Vancouver,V5N 3L8,49.2496779,-123.0762965,restaurants,2,free,1
New Westminster,V3M 1A1,49.2026375,-122.9078103,food,1,free,1
North Vancouver,V7J 2H5,49.3127301,-123.0282861,restaurants,2,free,0
Surrey,V3T 4H4,49.191405,-122.840415,restaurants,2,free,1
Vancouver,V6A 1X5,49.2793717,-123.0989354,restaurants,1,no,0
North Vancouver,V7J 0A1,49.3360771071,-123.0393403971,bars,2,free,0
North Vancouver,V7P 1S4,49.3235761,-123.1019458,burgers,3,free,1
Burnaby,V5C 2J5,49.2812679,-123.0106091,japanese,2,free,1
Richmond,V6X 3H1,49.1871042,-123.1061339,restaurants,2,free,1
Vancouver,V6A 2L8,49.2687885,-123.0845319,restaurants,1,no,1
Vancouver,V5S 1J9,49.2254720567,-123.0535350099,food,1,free,0
Burnaby,V3N 0C3,49.2236883,-122.9424146,restaurants,2,free,1
Vancouver,V6E 0B6,49.285328446,-123.1215585266,fast food,1,no,0
Vancouver,V5T 1C8,49.2679671,-123.1017065,middle eastern,2,no,1
Surrey,V3R 3P3,49.1660817,-122.8002491,restaurants,2,free,0
Vancouver,V6B 1K6,49.2827625063,-123.1096461011,middle eastern,2,no,1
Vancouver,V6G 1C9,49.2906701,-123.1339159,specialty food,2,no,1
Burnaby,V5G 4K4,49.2554967,-122.9968709,restaurants,1,no,0
Burnaby,V5C 2K4,49.2808687,-123.001084,bakeries,1,free,0
Vancouver,V6M 4J7,49.2340910614,-123.1401199847,japanese,2,no,1
Vancouver,V6H 3G1,49.2659984,-123.1387561,breakfast & brunch,2,no,1
Vancouver,V6B 2Y5,49.2750998,-123.1232894,italian,2,free,1
Burnaby,V5E 0A6,49.2199018142,-122.9703659298,chinese,2,no,0
Vancouver,V6E 4R5,49.2878816,-123.1204418,restaurants,2,free,0
Vancouver,V6B 1H6,49.2829108,-123.1099049,cafes,1,free,1
Vancouver,V6K 1P2,49.2686636,-123.1584485,food,2,no,0
Vancouver,V5X 3J4,49.2188,-123.101596,vegetarian,1,no,0
North Vancouver,V7M 2J5,49.324014129,-123.0725296,restaurants,2,no,1
Vancouver,V6B 3K4,49.2824997,-123.1144563,restaurants,2,free,0
Vancouver,V6A 2Z8,49.2791942589,-123.0972858036,food,2,free,1
Surrey,V3V 1W3,49.1767357,-122.8879772,pubs,1,free,0
Vancouver,V6K 2G6,49.2642882,-123.1697737,bakeries,1,no,0
Vancouver,V6B 2W2,49.2791466,-123.1177575,noodles,2,no,0
Vancouver,V5N 4A7,49.2673995,-123.0695441,restaurants,1,no,0
Vancouver,V6B 3L9,49.2793335643,-123.120303154,nightlife,2,free,0
Vancouver,V6E 1N1,49.2814845,-123.1329239,canadian (new),1,free,0
Coquitlam,V3B 0B7,49.2811241071,-122.7959434191,korean,1,free,0
Richmond,V6X 2C7,49.1757599214,-123.1317481399,vietnamese,1,free,0
Vancouver,V5N 4B2,49.2660471,-123.0694337,vegetarian,2,no,0
Vancouver,V6C 1T1,49.2852266,-123.1144931,cafes,2,free,1
Vancouver,V6B 5P9,49.2759437,-123.1208539,canadian (new),2,free,0
Richmond,V7E 1S6,49.1335377284,-123.1817046586,food,1,free,0
Richmond,V7B 0A4,49.1951863,-123.1788712,sushi bars,2,no,0
Vancouver,V6C 1X6,49.2845308,-123.115082,burgers,1,no,0
Vancouver,V5V 3P9,49.2474396,-123.1009578,burgers,2,free,0
Richmond,V6X 3Y2,49.1698185,-123.1330779,chinese,1,free,1
Richmond,V6Y 2B6,49.1660053,-123.1385914,fast food,2,no,0
Coquitlam,V3J 3X4,49.2621642,-122.8899458,pizza,2,free,1
Vancouver,V5N 4B2,49.2660471,-123.0694337,food,2,no,0
Vancouver,V6K 1R1,49.268245,-123.167802,coffee & tea,1,free,1
Vancouver,V5K 0A1,49.2641002,-123.1142554,fast food,1,no,0
Richmond,V6V 1J4,49.1922019,-123.0911431,burgers,2,no,0
Vancouver,V6B 3K4,49.2836444091,-123.1147222607,restaurants,1,no,0
Coquitlam,V3J 1S5,49.249515,-122.8658428,italian,2,free,0
Richmond,V7B 1Y7,49.1972558564,-123.1743979454,nightlife,2,free,1
North Vancouver,V7J 2A1,49.334995,-123.041904,breakfast & brunch,2,free,0
Richmond,V6V 1X7,49.190947,-123.073984,coffee & tea,2,free,0
Richmond,V6X 2C2,49.1827583313,-123.1342544556,restaurants,1,free,0
Port Moody,V3H 0E1,49.2791039661,-122.8283901109,food delivery services,2,no,0
Vancouver,V6B,49.2802009,-123.1182521,sandwiches,1,no,1
Vancouver,V6K 1B5,49.2723428244,-123.1553483754,breakfast & brunch,2,free,0
New Westminster,V3M 1A9,49.2021776,-122.9091427,breakfast & brunch,2,no,1
North Vancouver,V7M 2K1,49.3271549,-123.0724659,restaurants,2,free,0
Vancouver,V5X 1B3,49.2246171,-123.0907992,noodles,2,free,0
Port Coquitlam,V3B 6P2,49.272187,-122.789928,food,2,free,0
Coquitlam,V3E 1K9,49.2779855,-122.8112574,fast food,1,free,0
Vancouver,V6B 1N3,49.283376,-123.116445,canadian (new),3,free,0
Burnaby,V5A 1S6,49.2787975076,-122.919394571,restaurants,1,free,0
Vancouver,V6E 4R5,49.2878816,-123.1204418,nightlife,2,free,0
New Westminster,V3M 1A2,49.2022362,-122.9086185,cafes,2,free,1
Vancouver,V5X 0C4,49.209369,-123.116791,restaurants,2,free,0
Vancouver,V6B 2B7,49.2805271,-123.1187971,korean,2,free,0
Vancouver,V6A 3W9,49.2721641377,-123.0978167058,restaurants,1,free,0
Vancouver,V5Y 1N9,49.2636949,-123.1144896,restaurants,1,free,1
Richmond,V6X 0A4,49.1841117,-123.1335429,fast food,1,free,0
Vancouver,V6J 1M4,49.2682861,-123.146425,japanese,2,free,0
Burnaby,V5B 2Z8,49.2637673,-122.9837805,bars,2,no,0
Burnaby,V5H 4T2,49.2271865,-122.9949401,chinese,2,no,0
Richmond,V7C 4N1,49.1742090734,-123.1489970371,restaurants,3,no,0
Vancouver,V6B 2Y5,49.2750998,-123.1232894,food,2,free,1
Vancouver,V5V 4G1,49.2472163,-123.090345,restaurants,2,free,1
New Westminster,V3M 6V4,49.2026978,-122.9108987,bars,1,no,1
Port Coquitlam,V3B 6P2,49.2721478554,-122.78901554,indian,2,free,1
Vancouver,V6Z 1L5,49.2788224,-123.1232033,restaurants,1,no,0
Vancouver,V6A 1X6,49.2795906,-123.0978562,restaurants,2,no,1
Vancouver,V6B 1B2,49.2842679,-123.1091169,salad,2,no,0
Burnaby,V5H 2G4,49.223196,-122.981518,food,2,free,0
Richmond,V6X 2E3,49.1710212,-123.1368523,japanese,2,free,0
Burnaby,V3N 4N4,49.244853781,-122.8928135435,cafes,1,free,1
Vancouver,V5T 5L1,49.232843,-123.034814,restaurants,1,free,1
Vancouver,V5K 2A8,49.2813471028,-123.0274413899,pizza,2,no,1
Vancouver,V5W 3A4,49.2268592,-123.0903511,restaurants,1,no,0
Richmond,V6X 1C3,49.1786353,-123.1283987,breakfast & brunch,2,no,0
North Vancouver,V7J 1S1,49.3340606,-123.041627,bakeries,1,no,0
North Vancouver,V7L 2N3,49.3212052,-123.0716537,breakfast & brunch,1,free,1
North Vancouver,V7R 2N8,49.338249,-123.10336,restaurants,2,no,1
Vancouver,V6G 1W5,49.286402,-123.1403028,seafood,2,free,0
Richmond,V6X 1C3,49.1665898,-123.133569,restaurants,2,free,0
Burnaby,V5J 0A2,49.200717,-122.981084,fast food,1,free,0
Vancouver,V5L 1V6,49.2813655,-123.0573113,japanese,2,free,0
Vancouver,V6A 1T3,49.2803095,-123.1011943,dim sum,1,no,0
Vancouver,V5N 2T6,49.2423843,-123.0590191,restaurants,1,no,0
Vancouver,V6B 2B7,49.2803151507,-123.1179336471,japanese,2,free,0
Vancouver,V5V 3E1,49.2516103,-123.0796002,chinese,1,free,1
Surrey,V3R 3X6,49.1982139,-122.8119072,vietnamese,1,no,1
Vancouver,V6B 6N8,49.280751838,-123.1068341178,cafes,2,free,1
Richmond,V6X 4E8,49.1809314,-123.1346307,restaurants,1,free,0
Richmond,V6X 2X9,49.1756887,-123.1346637,pizza,1,free,0
Delta,V4C 2L7,49.1556929,-122.9136424,restaurants,2,free,1
Vancouver,V5N 4A9,49.2665657,-123.0695155,restaurants,2,free,0
Vancouver,V6B 2B7,49.2806237171,-123.1185959418,salad,2,free,1
Surrey,V3T,49.1912767445,-122.8373811248,seafood,2,free,0
Vancouver,V6B 2T9,49.2752659,-123.1208155,restaurants,3,free,1
Vancouver,V5Z 1E6,49.2633734327,-123.1171303272,food delivery services,2,free,0
Vancouver,V5Z 1A6,49.2657109,-123.1223239,specialty food,2,free,1
Richmond,V7A 4E7,49.1320426608,-123.0915458466,sandwiches,1,free,1
Bowen Island,V0N 1G2,49.3799524,-123.3499608,food,2,free,1
Vancouver,V5R 5K4,49.2336264998,-123.0363325775,chinese,2,free,1
Burnaby,V5B 1R7,49.280519,-122.977678,sushi bars,2,no,0
Vancouver,V6B 2G5,49.2766291,-123.125616,sushi bars,1,no,0
Burnaby,V5C 6C6,49.2603736,-123.005558,burgers,1,free,0
Vancouver,V6Z 1Y9,49.2798451,-123.1276537,cafes,1,no,1
Port Moody,V3H 3R5,49.2914452692,-122.8816187382,breakfast & brunch,1,free,1
Vancouver,V5Y 3Z5,49.264087,-123.1138643,seafood,2,no,1
New Westminster,V3L 3C5,49.2150337,-122.9230429,american (traditional),1,no,1
Vancouver,V6C 0B9,49.2880938,-123.1165232,sushi bars,3,free,1
Vancouver,V5L 3X8,49.2717096,-123.0697506,food,2,no,1
Coquitlam,V3B,49.2823913,-122.7958868,japanese,2,free,1
Richmond,V6X 3M7,49.1778682044,-123.1255408376,dim sum,2,free,0
Richmond,V6X 3Z9,49.185696493,-123.1293864548,restaurants,2,free,0
Vancouver,V6H 3G1,49.2662176,-123.1395648,asian fusion,3,no,0
Coquitlam,V3K 6P9,49.233707,-122.856296,restaurants,1,no,0
Vancouver,V5L 3X8,49.2715434,-123.0697684,food,2,no,0
West Vancouver,V7V 1J5,49.3288212,-123.1610731,sushi bars,2,free,0
Richmond,V6X 3A9,49.1775900007,-123.1335939288,burgers,1,free,0
Richmond,V6X 1J8,49.1855833,-123.1295344,restaurants,2,free,0
Vancouver,V5Z,49.2338561,-123.1187596,sandwiches,2,free,1
West Vancouver,V7V 1J6,49.3284407,-123.1628836,restaurants,2,no,0
Vancouver,V5X 3G9,49.2254629,-123.1012332,food,2,free,0
Vancouver,V5P 3W2,49.2331545277,-123.0657614126,food,1,free,0
Vancouver,V6Z 2R6,49.273931,-123.122739,food,1,no,0
West Vancouver,V7T 1B8,49.3283713,-123.1562442,restaurants,2,free,1
New Westminster,V3M 6B9,49.200022,-122.91173,canadian (new),2,free,0
Vancouver,V5P 3V3,49.2376066,-123.0651502,vietnamese,2,no,1
Vancouver,V6C 0B2,49.287471,-123.116865,restaurants,1,free,0
Vancouver,V6Z 1X6,49.2878887,-123.1162042,restaurants,3,no,1
Vancouver,V5S 1J9,49.2254720567,-123.0535350099,coffee & tea,1,free,0
West Vancouver,V7V 1J5,49.3288212,-123.1610731,japanese,2,free,0
Delta,V4K 0A7,49.0805954445,-123.0091922781,american (traditional),2,free,0
Vancouver,V5R 5K4,49.2336264998,-123.0363325775,restaurants,2,free,1
Lions Bay,V0N 2E0,49.4596238,-123.2360317,bars,1,free,1
Richmond,V6X,49.1824293,-123.1342197,restaurants,2,free,0
Surrey,V3R 8X8,49.1860231,-122.800806,mediterranean,2,free,1
Burnaby,V5B 1S2,49.279993442,-122.9697731134,canadian (new),2,free,0
Vancouver,V6E 1N1,49.2814845,-123.1329239,nightlife,1,free,0
Richmond,V7E 6K7,49.123822759,-123.1839228104,nightlife,2,free,0
Vancouver,V6H 3R9,49.2727209,-123.1355203,sandwiches,1,no,1
Vancouver,V5P 3V9,49.2346282,-123.0656954,vietnamese,1,free,1
Vancouver,V6B 1A5,49.2833175987,-123.1049609434,burgers,2,free,1
Coquitlam,V3E 2Y6,49.3004890916,-122.8201430821,pizza,2,paid,1
Richmond,V6X 2B2,49.1931892,-123.1297556,restaurants,2,no,0
Vancouver,V6B 0R3,49.2753742,-123.1128477,restaurants,2,no,0
Vancouver,V5M 1C4,49.2686838,-123.0562864,dim sum,2,no,0
Burnaby,V3J 1M9,49.251423,-122.902052,canadian (new),2,free,0
Vancouver,V5N 4A5,49.2683744,-123.0696119,food,2,free,0
Burnaby,V5C 2H9,49.2809265,-123.01569,breakfast & brunch,2,free,1
Richmond,V6Y 2B6,49.1668313,-123.1377469,canadian (new),2,free,0
Vancouver,V6E 4T7,49.2879913,-123.1237392,restaurants,1,no,0
Vancouver,V6Z 1W7,49.2767838,-123.1309466,food,1,free,1
Vancouver,V6Z 2X7,49.274203,-123.1199808,vegetarian,2,no,0
Vancouver,V6G 2M8,49.288146,-123.140288,mediterranean,1,no,0
West Vancouver,V7W 2B8,49.3739142235,-123.2744347414,seafood,2,no,0
Vancouver,V5N 4B1,49.2665809,-123.0698983,restaurants,1,no,0
Vancouver,V6B 4P4,49.2790041,-123.1131403,canadian (new),2,no,0
Vancouver,V5Z 2V9,49.2579297,-123.1146171,restaurants,2,no,1
Vancouver,V5Z 4C2,49.2637363,-123.1180045,restaurants,2,no,0
Vancouver,V6N 2G5,49.2421678,-123.1704104,coffee & tea,2,no,0
Vancouver,V6B 0H3,49.2796555873,-123.1170175725,food,1,free,0
Port Moody,V3H 0B1,49.2766549,-122.8310594,restaurants,1,no,0
Vancouver,V6J 1Y1,49.2635479353,-123.1451335079,chinese,2,free,0
Vancouver,V6C 1P7,49.2833926005,-123.1191056519,food,3,free,0
Vancouver,V6Z 1T9,49.2823626,-123.1228112,bars,3,no,1
Vancouver,V5X 3G9,49.225127,-123.101472,middle eastern,2,free,0
Surrey,V3T 5C5,49.1878144,-122.8459101,restaurants,2,free,0
Port Moody,V3H 2B2,49.2764108,-122.857791,pizza,2,no,0
Coquitlam,V3K 4X8,49.2327282,-122.850155,food,2,free,1
Richmond,V6X 3P8,49.1959936891,-123.1283622025,restaurants,2,free,0
Vancouver,V6A 1G7,49.2831841,-123.0935172,cafes,2,free,1
Vancouver,V6E 1M5,49.2802396,-123.1307065,sandwiches,1,free,1
Vancouver,V6M 1Y8,49.2344534,-123.1544022,restaurants,1,no,0
Vancouver,V5W 3A6,49.2262258,-123.0905627,sushi bars,1,no,0
Bowen Island,V0N 1G2,49.3802461,-123.3452992,restaurants,1,no,1
Burnaby,V5C 2J3,49.280853,-123.012718,japanese,2,no,0
Burnaby,V5G 3H5,49.242639,-123.004127,sushi bars,2,free,1
Coquitlam,V3B 0G5,49.2825699,-122.7969556,specialty food,1,free,1
Vancouver,V6B 2L2,49.2814279,-123.1077261,pubs,2,no,0
Vancouver,V6P 5A1,49.2080572419,-123.1399957993,food,2,free,1
Burnaby,V5C 3Y6,49.2666569,-123.0113794,american (new),2,free,0
North Vancouver,V7P 1T2,49.324052972,-123.108411245,restaurants,2,free,0
Vancouver,V5Z 1E9,49.2631116,-123.1165845,coffee & tea,2,free,0
Vancouver,V5M 4H4,49.2584746,-123.0306817,american (new),2,free,0
Vancouver,V6B 5J3,49.2809146279,-123.1189419496,mediterranean,1,free,0
Surrey,V3W 3N1,49.1399615,-122.8895311,nightlife,2,free,0
Vancouver,V5M 2A6,49.2659225,-123.0243296,burgers,1,free,0
N Vancouver,V7M 1H1,49.3192272,-123.0905578,canadian (new),2,no,0
North Vancouver,V7M 1A2,49.3115723,-123.0802953,pizza,1,free,0
Burnaby,V5C 3Y6,49.2670038,-123.0091757,sushi bars,2,no,0
Delta,V4K 1W3,49.0895115,-123.0790725,sushi bars,2,no,1
Vancouver,V5N 1V9,49.2624865,-123.0701321,food,1,no,0
Richmond,V6X 4C7,49.1717692,-123.1405505,canadian (new),2,paid,0
Vancouver,V6E 0A3,49.287494,-123.1235689,bars,2,free,1
New Westminster,V3L 3C5,49.2150337,-122.9230429,food delivery services,1,no,0
Port Moody,V3H 5N1,49.2792315,-122.8292317,vegetarian,2,no,0
Vancouver,V6C 0B2,49.287471,-123.116865,cafes,1,free,0
Burnaby,V5M 3Z3,49.264104,-123.022804,restaurants,2,free,0
North Vancouver,V7P 1M6,49.3229212636,-123.0992513495,restaurants,2,no,1
Surrey,V3R 1M7,49.1913499,-122.8083641,food,2,no,0
Vancouver,V6B 2P2,49.2786079,-123.1141059,specialty food,2,no,1
New Westminster,V3L 3X6,49.2306827,-122.8929216,sushi bars,1,free,0
Burnaby,V5A 4Y6,49.2777745,-122.911564,fast food,1,no,0
Vancouver,V5M 3M4,49.2596365,-123.0434793,restaurants,2,no,0
North Vancouver,V7M 2J7,49.324877,-123.0720477,chicken wings,2,free,0
North Vancouver,V7M 2K4,49.3274235,-123.0725559,fast food,1,free,0
Vancouver,V6C 2G3,49.2846711,-123.1193051,nightlife,4,free,1
Vancouver,V6P 4Z7,49.209577,-123.1400906,pubs,2,no,0
Vancouver,V5V 3P9,49.2466008453,-123.100948167,restaurants,2,free,0
Burnaby,V5C 2J1,49.2811988,-123.0149601,specialty food,2,no,0
Vancouver,V6E 1W2,49.2839786648,-123.1255679786,restaurants,2,no,0
Vancouver,V6C 2G8,49.2875834,-123.1167499,sandwiches,2,free,0
Vancouver,V6C 1S4,49.2866619,-123.1126898,food,1,free,0
Burnaby,V5H 2B1,49.2291538307,-123.0048598722,restaurants,1,no,0
Vancouver,V5L 3X4,49.2735354,-123.0692475,italian,2,free,0
Vancouver,V5Z 2X8,49.2499562,-123.1150368,asian fusion,2,no,0
Burnaby,V5A 4M8,49.265138,-122.943048,canadian (new),2,free,1
Vancouver,V6Z 1B7,49.2787221,-123.1289473,fast food,1,free,0
Vancouver,V5T 2R6,49.257273,-123.089984,food,1,free,1
West Vancouver,V7T 2W4,49.325051,-123.136179,fast food,1,no,0
Coquitlam,V3B 8A9,49.2799756,-122.7927041,nightlife,2,free,0
Richmond,V7E 1T6,49.1245685,-123.1815968,japanese,2,free,0
Richmond,V6X 1Z7,49.1967128,-123.0952077,food,1,free,1
Coquitlam,V3B 0G5,49.2825699,-122.7969556,restaurants,1,free,0
Vancouver,V5T 3M1,49.262973222,-123.0971876973,restaurants,2,no,0
Surrey,V3T 2W6,49.1891775,-122.8464026,restaurants,1,free,0
Vancouver,V5P 2V9,49.2256683,-123.0778129,fast food,1,no,0
Vancouver,V6P,49.2116601,-123.1407641,restaurants,2,no,1
Port Coquitlam,V3B 3N5,49.272717,-122.7556873,food,1,free,1
Vancouver,V6B 1B2,49.2838557,-123.1064112,food,2,no,0
Vancouver,V6C 2E8,49.2851773,-123.1180985,american (new),2,free,0
Vancouver,V5V 3M7,49.2550314423,-123.1008822022,specialty food,2,no,1
Coquitlam,V3B 0B9,49.2799101496,-122.7993638619,food,2,no,0
Vancouver,V6G 1W5,49.2869497395,-123.141087286,restaurants,2,free,0
Vancouver,V6B 5P9,49.2759437,-123.1208539,restaurants,2,free,0
Richmond,V6Y 2C1,49.164187,-123.1346083,breakfast & brunch,2,no,0
Vancouver,V6J,49.27261,-123.1487543,bars,2,free,1
Vancouver,V6R 2H9,49.2637932,-123.2067658,restaurants,2,free,0
Vancouver,V5R 4G7,49.2388431,-123.0317455,coffee & tea,1,free,0
Vancouver,V6J 3Y5,49.2608602699,-123.1532750362,restaurants,2,free,0
Vancouver,V6B 2W9,49.276463016,-123.1212045934,bakeries,2,free,0
Vancouver,V5W 3A4,49.2268592,-123.0903511,vietnamese,1,no,0
Vancouver,V6B 1B2,49.2841134476,-123.108428796,burgers,2,free,1
Vancouver,V5L 3X6,49.2730136,-123.0695684,coffee & tea,1,free,0
Surrey,V3V 4B5,49.1698432,-122.889848,specialty food,2,no,0
Vancouver,V6B 0R3,49.2752915608,-123.1135937346,japanese,2,no,0
Coquitlam,V3B 4S4,49.2774881,-122.7930624,asian fusion,2,free,0
Vancouver,V6B 1A4,49.2833019455,-123.1060552597,american (new),2,no,0
Coquitlam,V3K 3P3,49.2487943,-122.8639442,italian,2,no,1
Vancouver,V5X 2T4,49.2106277678,-123.0922826749,mediterranean,2,no,0
Vancouver,V6G 2L7,49.2912053,-123.1362486,nightlife,2,free,1
Vancouver,V5N 4B1,49.2660774,-123.0697092,restaurants,2,free,0
Vancouver,V6B 1G4,49.281901732,-123.1060412253,breakfast & brunch,2,free,0
Burnaby,V5E 0A6,49.2195414589,-122.9566285194,asian fusion,2,free,0
Coquitlam,V3K 3P3,49.2487642368,-122.8631833657,cafes,1,free,1
Vancouver,V6K,49.2637935896,-123.1542200159,japanese,2,no,1
Vancouver,V6J 5N2,49.2742938898,-123.1536698341,seafood,2,free,0
Vancouver,V5T 3E4,49.2624998,-123.100769,restaurants,2,free,1
Richmond,V7A 4E8,49.1313308,-123.0928217,nightlife,3,no,0
Richmond,V6X 3L4,49.1778982312,-123.1306346878,korean,2,free,0
Coquitlam,V3K 3P3,49.2487312,-122.8631742,coffee & tea,1,no,1
Vancouver,V5R 4G8,49.2378644,-123.0325937,restaurants,1,free,0
Coquitlam,V3B 5R5,49.277038,-122.799438,food,1,no,0
Vancouver,V5K 3W8,49.2814925,-123.0498771,restaurants,2,free,1
Vancouver,V5L 1V2,49.2809215,-123.0610371,food,2,no,1
Vancouver,V6Z 2H1,49.2800601,-123.1252654,bakeries,2,free,0
Vancouver,V6H 3R9,49.2727014,-123.1352146,food,2,no,0
Vancouver,V6E 1C1,49.286265,-123.1279143,restaurants,1,no,1
Vancouver,V6B 1G8,49.2820793,-123.1076588,restaurants,3,free,0
Richmond,V6X 3L4,49.177791,-123.1293525,restaurants,2,no,0
Vancouver,V5T 2R6,49.2573026533,-123.0903615826,food,1,free,1
Richmond,V5V 3N9,49.1780536,-123.1358342,chinese,2,free,0
Burnaby,V5J 1C4,49.2218507521,-122.9946551267,noodles,2,no,0
Richmond,V6Y 2B6,49.166016,-123.138592,fast food,1,no,0
Vancouver,V5W 2Z5,49.232398262,-123.0903096986,restaurants,1,no,0
Richmond,V6X 2C2,49.1807,-123.133958,dim sum,2,no,0
Vancouver,V6B 1L1,49.2835904,-123.1115798,bakeries,1,free,0
Burnaby,V5E 3R7,49.22507,-122.9423701,food,2,free,0
Richmond,V6X 1C3,49.1784702726,-123.1307530403,cafes,1,free,0
Richmond,V6X 0A8,49.1912511,-123.1286736,breakfast & brunch,1,free,0
West Vancouver,V7W 2V1,49.3740543,-123.2723469,coffee & tea,2,free,0
Richmond,V7B 0B7,49.197903,-123.140842,coffee & tea,1,free,0
Vancouver,V6E 4A6,49.2867472,-123.1227744,food,1,free,0
Vancouver,V6B 6L9,49.2798335098,-123.1171406628,restaurants,1,free,0
Burnaby,V5B 1R7,49.280519,-122.977678,japanese,2,no,0
Vancouver,V5Z 1C6,49.264022,-123.1152825,coffee & tea,1,free,1
Ladner,V4K 1W6,49.090542,-123.07251,food,2,free,0
Vancouver,V5Z 1K1,49.2638386,-123.1222888,restaurants,1,no,0
Richmond,V6X 3Z9,49.1856566095,-123.1292033941,barbeque,2,free,0
Vancouver,V6A 2T4,49.2809495,-123.0993214,food,1,free,0
Coquitlam,V3E 1K9,49.2783159,-122.8145051,breakfast & brunch,2,free,1
Vancouver,V6G 1C9,49.2906798162,-123.1338321324,burgers,1,free,0
Vancouver,V5R 5G9,49.2399914862,-123.0547445623,fast food,2,free,1
Vancouver,V5Z 3J2,49.2629559,-123.120137,coffee & tea,1,free,0
Vancouver,V6A 1P7,49.281101,-123.0951597,vietnamese,1,free,1
Vancouver,V6T 1Z2,49.2659754,-123.2499061,restaurants,1,free,0
Burnaby,V5C 2J1,49.2811988,-123.0149601,restaurants,2,no,0
Port Moody,V3H 0B1,49.2766549,-122.8310594,food,1,no,0
Vancouver,V5N 4G1,49.2615819,-123.0695128,pizza,1,free,0
North Vancouver,V7M 2G9,49.3175782,-123.0731416,restaurants,1,free,0
Vancouver,V6C 2E7,49.2854132,-123.1172916,restaurants,1,free,0
Coquitlam,V3J 1N7,49.2500582025,-122.8924229495,burgers,1,free,0
Burnaby,V3J 7T9,49.2540374057,-122.8942786185,japanese,2,free,0
Burnaby,V5H,49.2290085,-123.0050498,chinese,1,no,0
West Vancouver,V7T 2Y1,49.325616,-123.140536,food,2,free,0
Vancouver,V6M 3X3,49.2306249,-123.1558819,pizza,2,free,0
North Vancouver,V7G 2C1,49.32669,-122.950849,restaurants,2,free,0
Vancouver,V6B 2G5,49.2767858,-123.1259462,restaurants,1,no,0
Richmond,V7E 3M2,49.1247087,-123.1824099,sandwiches,2,no,1
Burnaby,V5C 2K4,49.2808887,-123.0015689,taiwanese,1,no,1
Vancouver,V5K 1Z1,49.2809917992,-123.055773129,food,1,no,1
Vancouver,V6H 1G5,49.263875,-123.134264,sushi bars,2,no,1
Vancouver,V6T 1Z1,49.2675858744,-123.2503912804,vegetarian,1,free,1
Burnaby,V5E 1E4,49.2187480161,-122.9618256916,restaurants,2,free,0
Vancouver,V5T 3G5,49.2576348,-123.1008393,restaurants,2,no,1
Vancouver,V6Z 2B7,49.2775691519,-123.1310182124,food,2,free,1
New Westminster,V3L 3A5,49.208524,-122.914146,restaurants,2,free,0
Vancouver,V5V 4A3,49.2456344,-123.0941734,food,2,free,1
Richmond,V6X 4B5,49.187253,-123.131515,restaurants,2,no,0
Vancouver,V5N 1W2,49.2627265,-123.0694771,fast food,1,no,0
Vancouver,V5V 3E3,49.2506850857,-123.0769561373,vegetarian,2,free,1
Port Moody,V3H 2B3,49.2765163,-122.8552292,restaurants,2,no,0
Vancouver,V5L 2N1,49.2744339,-123.0691883,vegetarian,2,free,1
Richmond,V6X 2C2,49.1804032,-123.1359652,chinese,2,free,0
Vancouver,V6H 1E6,49.2631256,-123.1270799,food,1,no,0
Vancouver,V6Z 3E2,49.2744548874,-123.1315791607,sandwiches,2,free,1
Richmond,V6X 1A5,49.163311,-123.13637,restaurants,2,no,0
Vancouver,V6E 3P1,49.28529,-123.121315,delis,1,no,1
Vancouver,V6C 1A8,49.285458999,-123.118732,american (new),2,free,0
New Westminster,V3M 3L6,49.2118382076,-122.9210391641,pubs,2,free,0
Coquitlam,V3K 6V9,49.233612,-122.8534921,restaurants,2,no,0
New Westminster,V3M 7A3,49.1863035,-122.9561838,japanese,2,free,0
Vancouver,V5V 3R5,49.2434312,-123.1011702,restaurants,2,no,0
Port Moody,V3H 2M2,49.278671,-122.869639,restaurants,1,free,0
Vancouver,V6B 1B2,49.284416,-123.107274,pubs,2,free,0
Vancouver,V5Z,49.260803,-123.123994,cafes,1,free,1
New Westminster,V3M 0G3,49.2014142339,-122.9129553614,canadian (new),2,free,0
Burnaby,V3J 1M9,49.251423,-122.902052,restaurants,2,free,0
Coquitlam,V3B,49.2782528,-122.8066983,restaurants,2,no,0
Richmond,V6X 2E3,49.1710212,-123.1368523,dim sum,2,free,0
Burnaby,V3N 4J5,49.2432776889,-122.8931222918,korean,2,no,0
Burnaby,V5A 4Y6,49.2777745,-122.911564,mexican,1,no,0
Vancouver,V6P 5A1,49.2080572419,-123.1399957993,coffee & tea,2,free,1
Burnaby,V5H 4N2,49.2257241087,-123.0015292489,cafes,1,free,0
Vancouver,V6K 2H3,49.2640026,-123.1753383,nightlife,2,free,0
Vancouver,V5Z 1E9,49.263147,-123.116143,noodles,2,free,0
Vancouver,V5T 3E6,49.2617292,-123.1007848,canadian (new),2,free,1
Vancouver,V6B 2K8,49.2830791,-123.1065521,restaurants,2,free,1
Vancouver,V6B 2W2,49.279129,-123.1171854,salad,1,free,1
Vancouver,V5V 3P1,49.2505379542,-123.1011797288,japanese,2,no,1
Vancouver,V6B 5P6,49.2759433,-123.1216372,food,3,free,1
Vancouver,V6E 3Y4,49.2858604,-123.1274591,restaurants,2,free,0
Vancouver,V6B 2L3,49.2801460008,-123.1099253281,nightlife,3,free,1
Vancouver,V6J 1W6,49.2638715,-123.1404594,sandwiches,1,no,0
Port Moody,V3H 5N1,49.2792315,-122.8292317,salad,2,no,0
Vancouver,V6E 0A7,49.2869515,-123.1221841,pizza,2,no,0
Port Coquitlam,V3B 5Y9,49.273705,-122.7885834,breakfast & brunch,1,no,0
Vancouver,V6M 1Y8,49.2342436,-123.15406,chicken wings,2,no,0
New Westminster,V3M 4K4,49.21166,-122.9352064,restaurants,2,no,0
Surrey,V3W 3M9,49.1363708,-122.8922328,vegetarian,2,free,1
Vancouver,V6E 2E9,49.2877422653,-123.1175574836,food,2,no,1
Vancouver,V6E 1B2,49.2850272,-123.1260593,restaurants,2,free,1
Richmond,V6X 1C3,49.1788646,-123.133503,sushi bars,2,free,0
Vancouver,V6B 1E5,49.2842375,-123.1099282,restaurants,2,free,1
Vancouver,V6B 6N8,49.280751838,-123.1068341178,salad,2,free,1
Delta,V4K 1V9,49.089978,-123.0842889,restaurants,1,no,0
Richmond,V6X 0M6,49.1777306122,-123.1212959151,vietnamese,2,free,0
Port Coquitlam,V3B 6P2,49.272187,-122.789928,cafes,2,free,0
Burnaby,V5C 0A4,49.26429,-123.012849,sushi bars,2,no,1
Burnaby,V3N 2S9,49.230736295,-122.9063618076,restaurants,2,no,0
Burnaby,V5E 0A6,49.218667695,-122.9554113115,breakfast & brunch,2,free,0
Vancouver,V6T 1Z4,49.2603054,-123.250801,restaurants,2,free,0
Vancouver,V5K 2A6,49.2808895,-123.0305558,restaurants,1,free,0
Richmond,V6X 1C3,49.1665898,-123.133569,food,2,free,0
Vancouver,V6K 2G5,49.26457,-123.1670453,food,3,no,0
Coquitlam,V3B 0G5,49.2825699,-122.7969556,cafes,1,free,0
New Westminster,V3L 3B1,49.210823807,-122.917073781,breakfast & brunch,2,no,0
Vancouver,V6H 3N1,49.2443788,-123.1241934,fast food,1,free,0
Vancouver,V6B 6A1,49.2786512,-123.115353,vietnamese,1,free,0
Burnaby,V5H 1Z9,49.231211,-123.0071369,japanese,2,free,0
Vancouver,V6K 4W7,49.2579641,-123.1682215,nightlife,2,free,0
Richmond,V6X 1C3,49.1785598123,-123.1352793003,chinese,1,no,0
Vancouver,V6Z 2R6,49.273931,-123.122739,salad,1,no,0
Vancouver,V5T 0C1,49.2595687748,-123.1008859501,japanese,2,no,0
Vancouver,V6E 4A6,49.2867472,-123.1227744,restaurants,1,free,0
Vancouver,V5V,49.2513423,-123.101333,restaurants,2,no,1
Vancouver,V6J 5K9,49.2634387,-123.1395482,bars,2,free,0
Vancouver,V6S 2B9,49.2572246,-123.1853607,italian,2,no,1
Vancouver,V6K 2E5,49.2636455299,-123.1579183829,sandwiches,2,free,1
Richmond,V7A 4E7,49.132282,-123.0914683,fast food,1,no,0
Surrey,V3W 2M1,49.1343815,-122.8867142,restaurants,1,no,0
Vancouver,V6G 2M8,49.288146,-123.140288,middle eastern,1,no,0
Vancouver,V6B 1Y1,49.282815517,-123.1154144883,chinese,2,free,0
Vancouver,V6M 1Z6,49.2348484,-123.1565687,restaurants,2,no,1
Vancouver,V6B 6C1,49.2790893911,-123.1077780077,sandwiches,1,free,0
Vancouver,V5N 3L8,49.2496779,-123.0762965,breakfast & brunch,2,free,1
Burnaby,V5C 2J6,49.28095,-123.009199,japanese,2,no,1
Burnaby,V5E 0A6,49.2195414589,-122.9566285194,food,2,free,1
Vancouver,V6B 1B2,49.2845918,-123.1090792,restaurants,2,free,0
Vancouver,V5P 1J8,49.2329786,-123.0760497,restaurants,2,free,0
Vancouver,V5X 2R9,49.2094013829,-123.1166540623,restaurants,2,free,0
Vancouver,V6E 1V8,49.2846269,-123.124273,italian,2,free,0
New Westminster,V3L 3C6,49.215385,-122.9229144,restaurants,1,free,1
North Vancouver,V7J 0A1,49.3360771071,-123.0393403971,nightlife,2,free,0
Burnaby,V5C 2L1,49.2812270753,-122.9943909193,restaurants,1,free,0
Vancouver,V6C 0C3,49.2886612504,-123.1152282751,restaurants,2,free,0
Vancouver,V5R 5K6,49.2336372,-123.0342988,restaurants,2,no,0
Vancouver,V6C 3N9,49.2864696,-123.1156543,cafes,2,free,0
Richmond,V6X 4J7,49.1841117,-123.1335429,restaurants,2,free,0
Richmond,V6X 3Z9,49.1849827887,-123.1301142112,restaurants,2,no,0
Burnaby,V5C 3Z2,49.2667185,-123.0047428,korean,2,free,0
North Vancouver,V7H 0B5,49.3056861,-123.0178194,restaurants,2,free,0
Vancouver,V6A 1P7,49.281101,-123.0951597,restaurants,1,free,1
Burnaby,V5H 4L7,49.2267071,-123.0039352,restaurants,2,free,0
Surrey,V3T 1W9,49.1912587,-122.84118,fast food,2,free,1
Vancouver,V6B 1B6,49.2841708,-123.1090542,bars,2,no,0
Burnaby,V5C,49.2815438,-123.0216822,coffee & tea,1,free,1
Vancouver,V5W 2R2,49.2403617,-123.1017399,restaurants,1,no,1
Vancouver,V6B 2N4,49.282825,-123.11028,restaurants,2,free,1
Richmond,V6X 1C3,49.1785842092,-123.1314429451,dim sum,2,free,1
Burnaby,V3J 1N4,49.2515572,-122.8967141,restaurants,2,free,0
Vancouver,V5K 1Z8,49.2812747,-123.0489068,vietnamese,1,no,1
Vancouver,V6B 1G8,49.2820793,-123.1076588,nightlife,3,free,0
Burnaby,V3J 1P1,49.253645,-122.892575,noodles,2,no,0
Vancouver,V5P 2V9,49.2256683,-123.0778129,restaurants,1,no,0
Vancouver,V6J 1W9,49.2638921,-123.1417027,restaurants,2,free,0
Richmond,V6X 3Z9,49.1854909157,-123.129109648,asian fusion,2,free,0
Vancouver,V6E 1C2,49.2863131,-123.12742,bars,2,free,0
Burnaby,V5C 2J7,49.2812746974,-123.0065041241,sandwiches,2,free,0
Vancouver,V6E 1V8,49.2846269,-123.124273,restaurants,2,free,0
Surrey,V3R 4G6,49.1870862,-122.8012553,burgers,2,free,0
Vancouver,V5V 3R9,49.2412498,-123.1016585,restaurants,2,no,0
Burnaby,V5J 3H6,49.199958,-122.9800869,coffee & tea,1,free,0
Vancouver,V6Z 3G4,49.2814273326,-123.1237540472,restaurants,2,free,0
Vancouver,V5T 3K6,49.2567896,-123.0892261,sandwiches,1,free,1
Richmond,V7B 1Y7,49.1973667118,-123.1753950571,sandwiches,2,no,0
North Vancouver,V7G 1L2,49.3268742454,-122.9493626042,restaurants,2,no,0
Vancouver,V6Z 1S2,49.2829785794,-123.1214985321,pizza,2,free,0
Vancouver,V6T 1Z1,49.2675858744,-123.2503912804,restaurants,1,free,1
Vancouver,V7B 1Y7,49.1966948,-123.183701,coffee & tea,1,free,0
Vancouver,V6E 1Y4,49.2857242812,-123.1271553452,desserts,1,free,1
Bowen Island,V0N 1G0,49.3794084,-123.3353143,nightlife,2,free,1
Vancouver,V6A 1S4,49.2814936637,-123.0777958231,restaurants,2,no,0
Vancouver,V5V 3R3,49.2448272,-123.1010932,restaurants,2,free,0
Vancouver,V6B 0E7,49.2784494056,-123.1149580154,coffee & tea,1,free,0
Richmond,V7E 4R7,49.1236847206,-123.1835806577,food,2,no,0
Richmond,V7E 3L8,49.12508,-123.18223,vietnamese,1,free,0
Vancouver,V5L 3H7,49.2799024,-123.0769321,restaurants,1,free,1
Burnaby,V5C 6R5,49.266806,-123.006959,american (new),2,free,0
New Westminster,V3M 4K3,49.211196,-122.9354697,food,2,no,0
Vancouver,V6B 3L9,49.2793994,-123.1204331,restaurants,3,free,0
Vancouver,V5P 2W9,49.2182794994,-123.077447,coffee & tea,1,free,0
Vancouver,V6A 1T3,49.2801505,-123.1009936,restaurants,2,no,1
Vancouver,V6M 1Y8,49.2344086533,-123.1548166439,restaurants,2,free,0
Vancouver,V6Z 1T9,49.2823626,-123.1228112,nightlife,3,no,1
Vancouver,V6E 1C2,49.2870226,-123.1283048,food,1,free,0
Burnaby,V5H 2G3,49.2236549,-122.9838496,chinese,2,free,0
Coquitlam,V3K 6Y2,49.228421277,-122.8482719528,delis,1,free,0
Vancouver,V6E 4E6,49.2872573,-123.1247192,food,1,free,0
Coquitlam,V3C 3L3,49.2677931743,-122.7911370993,mexican,2,free,0
Vancouver,V6R 1B3,49.271887,-123.1904629,american (traditional),3,no,1
West Vancouver,V7V 1A6,49.3278575,-123.1583304,middle eastern,2,free,0
Coquitlam,V3B 6S2,49.2751050561,-122.7909665356,restaurants,2,no,0
Richmond,V6X 3Z5,49.1839829623,-123.0945835734,japanese,2,no,0
Vancouver,V5V 4C3,49.2541021,-123.0903035,seafood,2,no,0
Surrey,V3R 3G8,49.188732,-122.8008064,fast food,1,free,0
Vancouver,V6G 1W5,49.286402,-123.1403028,breakfast & brunch,2,free,0
Vancouver,V6C 2V6,49.2852619,-123.1164446,coffee & tea,2,no,0
Vancouver,V6B 2L2,49.2814279,-123.1077261,food,2,no,0
Vancouver,V5L 3K6,49.2738565,-123.0775108,coffee & tea,1,free,0
Vancouver,V6E 1B2,49.2850272,-123.126053,bars,2,free,1
Bowen Island,V0N 1G2,49.3795289,-123.3354819,restaurants,2,no,1
Burnaby,V5C 2J1,49.2811964,-123.0158655,restaurants,1,no,1
North Vancouver,V7M 2K4,49.3279866,-123.0724282,indian,2,free,1
Surrey,V3T 2W1,49.1864648,-122.848401,dim sum,2,free,0
Vancouver,V6B 6A3,49.2802519808,-123.1103474647,fast food,2,no,0
Burnaby,V5H 2G3,49.2232339,-122.9826629,korean,2,no,0
West Vancouver,V7W 3C7,49.35129,-123.253876,delis,2,free,1
Vancouver,V6S 2G2,49.2473027041,-123.185608613,japanese,2,free,1
Vancouver,V7Y 1H4,49.2828884,-123.1182066,chinese,2,paid,0
Richmond,V6X 1C3,49.1781340826,-123.1274949912,restaurants,2,no,0
Burnaby,V5C 3Z2,49.266893,-123.004262,restaurants,2,free,0
Vancouver,V6G 2L9,49.2906302,-123.1370603,restaurants,2,free,0
Vancouver,V6B 0E7,49.2784494056,-123.1149580154,cafes,1,free,0
New Westminster,V3M 1A9,49.2021776,-122.9091427,sandwiches,2,no,1
Burnaby,V5H,49.2273604987,-123.0000868419,restaurants,2,no,0
Vancouver,V5W 2Z5,49.2317618,-123.0904211,restaurants,1,free,1
Richmond,V6X 3X2,49.186279327,-123.1331967235,restaurants,1,no,0
Vancouver,V6K 4W7,49.2579641,-123.1682215,chinese,2,free,0
Vancouver,V5M 3E4,49.256488,-123.0495414,food,3,free,0
Vancouver,V6E 4T7,49.2879913,-123.1237392,japanese,1,no,0
West Vancouver,V7V 1H8,49.3283853,-123.1572678,bakeries,2,free,1
Vancouver,V5Z 2W5,49.255692,-123.1149243,cafes,1,free,1
Delta,V4E 1C8,49.1191207832,-122.891309297,canadian (new),2,free,0
Vancouver,V6B 1S9,49.2815573,-123.1108428,restaurants,1,paid,0
Vancouver,V5P 3V1,49.2379826,-123.0658151,chinese,1,free,0
Richmond,V6X 3K4,49.1913937,-123.1144173,bars,2,free,0
Richmond,V6X 2K5,49.178367,-123.120998,fast food,2,no,0
Vancouver,V6Z 1W7,49.2767838,-123.1309466,coffee & tea,1,free,1
Burnaby,V5H 4L8,49.2263830678,-123.0038341483,food,1,free,1
Port Coquitlam,V3C 4X3,49.2605757711,-122.7802816138,vietnamese,1,no,1
Vancouver,V6K 2H2,49.264385,-123.1741645,restaurants,1,free,0
North Vancouver,V7J 3S8,49.3094859,-123.0426323,burgers,2,free,0
Vancouver,V6A 2C4,49.2773401,-123.0869244,coffee & tea,1,free,1
Vancouver,V6E 1B2,49.2850272,-123.1260593,nightlife,2,free,1
Richmond,V6X 1C3,49.1787958,-123.1314609,seafood,3,free,0
Vancouver,V6J 1Y2,49.2639819514,-123.1448292732,breakfast & brunch,2,no,1
Burnaby,V5E 1C5,49.2193525649,-122.9706721008,restaurants,2,free,0
Surrey,V3W 2M1,49.1364302,-122.8890865,nightlife,2,free,0
Vancouver,V5R 4G8,49.2380723,-123.0323805,food,1,free,0
Vancouver,V6B 2G5,49.2767858,-123.1259462,japanese,1,no,0
Vancouver,V6M 1Z2,49.2344772441,-123.1561887637,vietnamese,2,no,0
Burnaby,V5H 4P1,49.2262887,-122.9961663,restaurants,1,free,0
Vancouver,V6B 1V8,49.2841553,-123.1143602,asian fusion,2,free,0
New Westminster,V3M 6B9,49.200022,-122.91173,breakfast & brunch,2,free,0
Burnaby,V5G 1C7,49.25671373,-123.00705105,restaurants,2,free,0
Vancouver,V5L 3X4,49.2735354,-123.0692475,breakfast & brunch,2,free,0
New Westminster,V3M 7A3,49.1863035,-122.9561838,bars,2,free,0
Surrey,V3R 1J8,49.1952464,-122.8015024,american (traditional),2,no,0
Vancouver,V5R 5H2,49.2393614,-123.0531503,seafood,2,free,1
Vancouver,V6G 3E7,49.2914561358,-123.1275758415,restaurants,3,no,1
Vancouver,V6P 4Z4,49.2110420844,-123.1401792069,seafood,3,no,0
Vancouver,V6E 1N1,49.2805803,-123.1319161,restaurants,2,free,1
Vancouver,V6B 1L6,49.2841432,-123.1126064,american (new),2,free,1
Vancouver,V5X 0C4,49.2094428732,-123.1164346177,bars,2,free,0
North Vancouver,V7L 2P7,49.321793,-123.071199,sandwiches,2,free,1
Burnaby,V5H 4P1,49.2255337381,-122.996864373,restaurants,1,no,0
New Westminster,V3M 6V4,49.2026978,-122.9108987,vietnamese,1,no,1
Vancouver,V6E 1B5,49.2849376,-123.1247791,food,2,no,1
Vancouver,V6E 1N1,49.2806316,-123.1321013,mediterranean,2,no,0
Vancouver,V6B 5T4,49.276155,-123.1211291,food,3,free,1
Vancouver,V6B 1Y4,49.2825233,-123.1145022,restaurants,1,free,1
Vancouver,V6B 2J2,49.283339,-123.1044428,restaurants,2,free,1
Vancouver,V6E 3M1,49.2878843,-123.1236191,mediterranean,1,free,1
Richmond,V6X 2T9,49.1834396,-123.0922447,vietnamese,2,no,0
Richmond,V6X 4A7,49.187553,-123.1301075,asian fusion,2,free,0
Vancouver,V6B 2B2,49.2792594,-123.116875,japanese,1,no,0
Vancouver,V6B 3G7,49.274238,-123.1270952,restaurants,2,no,1
Burnaby,V5J 5J3,49.200617,-122.990237,bars,2,free,0
Vancouver,V5P 2V9,49.2257184,-123.0778229,pizza,2,no,1
Vancouver,V5V 4B9,49.2556805043,-123.0896840718,food,2,no,0
Richmond,V6X 1A3,49.1709306,-123.1416697,bars,2,free,0
Vancouver,V5V 3P2,49.2507804,-123.1012704,restaurants,2,no,1
Vancouver,V5V 3M7,49.255567,-123.101019,restaurants,2,free,0
West Vancouver,V7W 2B9,49.373887,-123.2745802,pizza,1,free,1
Vancouver,V6E 0A7,49.2869515,-123.1221841,food,2,no,0
Vancouver,V6E 0B6,49.2857786,-123.1221398,food,2,no,0
Vancouver,V5Z 2M9,49.2491609,-123.1274393,food,2,free,0
Delta,V4C 6P6,49.1478459067,-122.8906193193,restaurants,2,no,1
Vancouver,V6C 2T7,49.2849225,-123.1157032,restaurants,1,free,0
Vancouver,V6E 2P4,49.28799,-123.1214006,restaurants,2,free,0
Vancouver,V5N 4A5,49.2681048,-123.0696176,restaurants,1,free,0
Vancouver,V5N 5E6,49.2618062,-123.0568336,restaurants,1,no,0
Vancouver,V5P 3X8,49.2248084,-123.0659377,restaurants,1,no,0
Vancouver,V6C 1P7,49.2833926005,-123.1191056519,canadian (new),3,free,0
Surrey,V3W 3J7,49.1632566075,-122.8751838864,fast food,1,free,0
Vancouver,V6A 1T6,49.280523,-123.100982,restaurants,2,free,1
Vancouver,V6A 2B2,49.2777428,-123.0981522,restaurants,2,free,1
Port Coquitlam,V3C 6K5,49.2662329561,-122.7769331719,american (new),2,free,0
Vancouver,V6G 1Z4,49.2997083,-123.1339011,food,2,free,0
Vancouver,V6R,49.2636161,-123.208092,restaurants,2,free,0
Vancouver,V6A 2C4,49.2773401,-123.0869244,food,1,free,1
Richmond,V6X 3P8,49.1962827,-123.1267608,american (new),2,free,0
Vancouver,V6T,49.2666763368,-123.2427117587,food,1,no,0
Vancouver,V5V 3M7,49.255567,-123.101019,japanese,2,free,0
Richmond,V7E 2Z1,49.1295851,-123.1859599,specialty food,2,no,0
Vancouver,V6E 0A3,49.287494,-123.1235689,nightlife,2,free,1
Vancouver,V5P 3X5,49.2253032,-123.0657698,restaurants,2,free,0
Vancouver,V7S 2Y6,49.3447023869,-123.1743697761,restaurants,3,no,1
Burnaby,V5J 0A2,49.2020089718,-122.9817295074,food,2,free,0
Delta,V4K 1W4,49.091379984,-123.0788712531,restaurants,2,no,0
Vancouver,V6A 1X4,49.279257,-123.1002007,nightlife,2,no,0
Vancouver,V5V 3P9,49.2464485,-123.1010277,vegetarian,2,no,1
Burnaby,V3N 0C3,49.2236883,-122.9424146,coffee & tea,2,free,1
North Vancouver,V7L 1B3,49.3095258235,-123.0731797591,food,2,no,1
West Vancouver,V7T 2Z3,49.3258922,-123.1421237,canadian (new),2,free,1
Vancouver,V6A 1T6,49.280523,-123.100982,dim sum,2,free,0
Vancouver,V6C 2E8,49.2851773,-123.1180985,asian fusion,2,free,0
North Vancouver,V7G 1L2,49.3266973,-122.9498034,restaurants,2,no,0
Vancouver,V5L 1T9,49.2813178,-123.0625702,restaurants,2,no,0
Vancouver,V6B 2X6,49.2756162836,-123.1218977568,bars,3,free,1
Vancouver,V6A 1B2,49.2836149,-123.1040021,canadian (new),2,free,1
Vancouver,V5V 3C2,49.2558079,-123.0875334,restaurants,2,free,1
Richmond,V7B 1B4,49.1798514,-123.1523287,restaurants,1,free,0
Surrey,V3T 2W5,49.1902819,-122.8450144,salad,2,free,1
Vancouver,V6J 1M5,49.2678865,-123.1492145,vegetarian,1,no,1
Vancouver,V6B 1G1,49.2859448,-123.1122271,breakfast & brunch,1,free,0
Vancouver,V6P 2Z2,49.208429,-123.1379116,coffee & tea,1,free,1
North Vancouver,V7M 3K2,49.3103842,-123.0835736,breakfast & brunch,1,free,0
Vancouver,V6A 1X5,49.2793684,-123.0988074,food,1,no,0
Burnaby,V5E 0A6,49.2199018142,-122.9703659298,restaurants,2,no,0
Vancouver,V5V 4B9,49.2556805043,-123.0896840718,burgers,2,no,0
Vancouver,V6B 2J2,49.283339,-123.1044428,bars,2,free,1
Vancouver,V6E 1N4,49.282163,-123.133735,restaurants,2,free,1
Vancouver,V6G 1C7,49.290276,-123.13416,specialty food,2,free,0
Vancouver,V5X 3J4,49.2188,-123.101596,restaurants,1,no,0
Coquitlam,V3B 1C2,49.2783034,-122.8073134,restaurants,2,no,0
Vancouver,V6C 1T1,49.2852266,-123.1144931,sandwiches,2,free,1
Delta,V4C 7C4,49.1644308,-122.8910429,indian,2,free,0
Vancouver,V6B 0K9,49.2786036346,-123.0994251319,cafes,1,free,1
Burnaby,V5H 4P1,49.2255337381,-122.996864373,fast food,1,no,0
Vancouver,V5V 4E4,49.2494546,-123.0898053,restaurants,2,no,1
North Vancouver,V7M 2J1,49.3214868,-123.0721325,sushi bars,2,no,1
Vancouver,V6A 1E7,49.2831651,-123.1039397,sushi bars,2,no,0
Vancouver,V5T 3G7,49.2558434896,-123.1014758657,restaurants,2,no,0
Vancouver,V6B 6A2,49.2782446,-123.1165993,restaurants,1,free,1
Richmond,V6X 4E8,49.183207,-123.1365723,chinese,2,no,0
Vancouver,V5P 3X5,49.225727,-123.066243,cafes,2,free,0
Coquitlam,V3J 1N7,49.2500582025,-122.8924229495,food,1,free,0
Richmond,V6X 1T5,49.192231,-123.092415,restaurants,2,free,0
Surrey,V3R 7B9,49.1901568303,-122.8051346197,restaurants,2,free,0
Vancouver,V6R 4N6,49.2678978,-123.1857435,restaurants,2,no,1
Vancouver,V6R 2G4,49.2633607,-123.1872036,sushi bars,2,free,0
Vancouver,V6A 2T9,49.279825,-123.0993261,coffee & tea,1,free,0
New Westminster,V3L 5H3,49.2133359,-122.9197737,restaurants,2,no,1
Richmond,V6X 3Z9,49.185119,-123.129476,japanese,2,no,0
Richmond,V7B 1W4,49.1772983188,-123.1682430322,restaurants,2,no,0
Vancouver,V5Y 1R4,49.2633418,-123.1141032,japanese,2,free,1
Vancouver,V5Z 1E6,49.2634909,-123.1170326,restaurants,1,free,0
Richmond,V6X 2C2,49.1813728,-123.135898,chinese,1,no,0
Port Coquitlam,V3C 2A9,49.2621515,-122.7788596,restaurants,2,no,0
Richmond,V7E,49.1239572709,-123.1843547984,burgers,1,no,0
Vancouver,V6G 3E7,49.2914561358,-123.1275758415,canadian (new),3,no,1
North Vancouver,V7M 2H9,49.3218005,-123.07262,restaurants,2,free,0
North Vancouver,V7L 2P9,49.3220662,-123.0716201,middle eastern,2,free,1
Richmond,V6X 2E3,49.1710212,-123.1368523,asian fusion,2,free,0
Richmond,V6X 4J7,49.1841117,-123.1335429,japanese,1,free,0
Richmond,V6X 3Z9,49.1851796,-123.1291287,restaurants,2,free,0
Vancouver,V5P 3W2,49.2331545277,-123.0657614126,coffee & tea,1,free,0
Richmond,V7B 1M8,49.195828,-123.184645,fast food,1,no,0
Vancouver,V6A 2Z9,49.284789,-123.066125,desserts,1,no,0
Vancouver,V6K 2G1,49.263817942,-123.1632873319,restaurants,2,free,0
Vancouver,V6T 1Z4,49.2618961556,-123.2532548913,food,2,free,0
Surrey,V3R 1L9,49.1911297,-122.8210026,fast food,1,free,0
Surrey,V3V 4B4,49.1639982,-122.8896466,restaurants,2,free,0
Vancouver,V5T,49.2609143,-123.1008146,sandwiches,2,free,0
Surrey,V3R 7V4,49.1866842,-122.8017068,restaurants,2,free,0
Burnaby,V5A 2S8,49.2582307071,-122.9554634945,specialty food,2,free,0
Richmond,V6X 4B3,49.1781063932,-123.1273601521,restaurants,2,free,0
Coquitlam,V3B 8A9,49.2798956,-122.7928573,cafes,1,free,1
Burnaby,V5A 4Y6,49.2777745,-122.911564,restaurants,1,no,0
North Vancouver,V7P 1S4,49.3232339,-123.1010235,restaurants,2,no,1
Vancouver,V6B 1E5,49.2842375,-123.1099282,italian,2,free,1
Vancouver,V6B 6C1,49.2800759,-123.1083327,cafes,1,free,1
Vancouver,V6H 1G1,49.2636964,-123.1297159,bars,4,no,0
Burnaby,V5H 2E9,49.2245068,-122.9874547,restaurants,2,no,0
New Westminster,V3L 3X5,49.2301628,-122.8924283,restaurants,2,no,1
Vancouver,V6G 1C7,49.289492,-123.132021,korean,2,no,0
Port Moody,V3H 5C9,49.2826617221,-122.8269646599,pubs,2,free,0
Vancouver,V5N 4B1,49.2660774,-123.0697092,breakfast & brunch,2,free,0
West Vancouver,V7V 1L3,49.3344237,-123.1802382,restaurants,2,free,0
Vancouver,V6M 1Z1,49.2344246,-123.1573071,coffee & tea,2,no,0
Surrey,V3V 6A8,49.1768589,-122.868506,pizza,2,no,1
Burnaby,V3N 3M9,49.220418564,-122.9300495531,seafood,2,no,0
Vancouver,V6G 2V4,49.2924789,-123.1293348,restaurants,2,free,0
Vancouver,V6Z 2V4,49.2736042,-123.1207822,italian,2,no,0
Richmond,V7E,49.1239572709,-123.1843547984,coffee & tea,1,no,0
Vancouver,V6B,49.2819007,-123.1179129,food,1,free,0
Vancouver,V6J 1M7,49.2679643637,-123.1486456498,restaurants,1,free,0
Vancouver,V6R 1P2,49.2687759,-123.1838257,canadian (new),2,free,0
Vancouver,V6Z 1A1,49.2816206,-123.120526,restaurants,1,free,0
Richmond,V6X 1J6,49.182917,-123.091874,fast food,1,no,1
Vancouver,V6B 1Y7,49.2832140987,-123.1154617577,restaurants,1,no,1
Vancouver,V6M 2A7,49.234479,-123.1618424,chinese,2,no,0
Richmond,V6Y 2C4,49.1642474,-123.136378,food,1,free,0
Vancouver,V6R 2B2,49.2641035,-123.1780584,coffee & tea,1,free,0
Vancouver,V7X 8A8,49.2864205554,-123.1184095144,american (new),2,free,0
Vancouver,V6G 1Z4,49.2997083,-123.1339011,restaurants,2,free,0
Vancouver,V5V 3R1,49.2464617,-123.1014422,pizza,1,free,1
Vancouver,V6G 1W5,49.286402,-123.1403028,coffee & tea,2,free,0
Burnaby,V5H 4M1,49.2275171736,-122.9998991266,restaurants,1,free,0
West Vancouver,V7V 1J4,49.3281621534,-123.1619109937,japanese,1,no,1
Vancouver,V6A 2B2,49.2777428,-123.0981522,food,2,free,1
Vancouver,V6B 0J6,49.2796087,-123.108583,vietnamese,1,no,0
Vancouver,V5R 5K6,49.2340119,-123.0352551,restaurants,2,no,0
Vancouver,V6J 1W9,49.2639631,-123.1414827,desserts,2,free,0
North Vancouver,V7L 3V6,49.3122214,-123.0569888,restaurants,2,free,1
Vancouver,V5M 4P3,49.2691901817,-123.0454243804,restaurants,2,no,0
Vancouver,V6C 1P7,49.2834361,-123.1192058,sandwiches,2,free,0
Vancouver,V6A 1X8,49.2785699637,-123.0934103912,coffee & tea,2,free,1
Vancouver,V7Y 0A2,49.2822541577,-123.1196801569,restaurants,2,free,0
Vancouver,V6B 2L3,49.2805779,-123.1091912,specialty food,2,free,1
Vancouver,V5T,49.26213,-123.1007896,pizza,2,free,0
Richmond,V6X 3K1,49.172848,-123.136191,seafood,2,free,0
Vancouver,V6B 1V5,49.2837763,-123.1131484,korean,1,free,0
West Vancouver,V7N 3N9,49.3951214393,-123.2032477856,burgers,2,free,1
Vancouver,V6Z 1N9,49.2800358889,-123.1235202551,coffee & tea,2,free,0
North Vancouver,V7J 2H5,49.3127301,-123.0282861,breakfast & brunch,2,free,0
Surrey,V3R 7C1,49.1900837055,-122.8040269031,burgers,2,free,0
Delta,V4C 2L7,49.1556929,-122.9136424,japanese,2,free,1
Vancouver,V6T 1V6,49.2657347235,-123.2431533341,mexican,1,free,0
Vancouver,V6T 1Z4,49.2618141,-123.2552567,breakfast & brunch,2,free,0
Vancouver,V6K 2G7,49.2639679,-123.1695571,indian,2,no,1
North Vancouver,V7J 2A1,49.334995,-123.041904,american (new),2,free,0
Burnaby,V5H 2E9,49.2245326,-122.9880865,food,2,free,1
Vancouver,V6E 1B2,49.2853482,-123.1206773,restaurants,1,no,1
Vancouver,V6T 1Y3,49.2671271345,-123.2525628341,cafes,1,free,0
Vancouver,V6K 4W7,49.2579641,-123.1682215,restaurants,2,free,0
Vancouver,V6Z 1L4,49.2786348,-123.1242,restaurants,2,free,0
Vancouver,V6J 3H6,49.2666178,-123.1454221,restaurants,2,free,1
Richmond,V6V 2L3,49.1799062647,-123.0696415901,restaurants,2,no,0
Vancouver,V6H 3R9,49.2727014,-123.1352146,restaurants,2,no,0
Vancouver,V6B 1X4,49.282098,-123.113513,canadian (new),2,free,0
Vancouver,V5R 5L3,49.2324432,-123.0320058,restaurants,2,no,0
North Vancouver,V7M 1N9,49.3211477,-123.0740431,restaurants,2,no,0
Richmond,V6X 1R3,49.1876487732,-123.130897522,restaurants,1,free,0
Vancouver,V6T 1Z4,49.2618961556,-123.2532548913,coffee & tea,2,free,0
Vancouver,V5L 1V6,49.28202,-123.1208,restaurants,1,no,1
Vancouver,V6Z 1L4,49.2792602,-123.1232875,restaurants,1,no,0
West Vancouver,V7T 0A5,49.3261450417,-123.1362669339,burgers,2,free,0
Burnaby,V5C 2J4,49.2809006,-123.012598,food,2,no,1
Surrey,V3R 8X8,49.1857466,-122.8008252,cafes,2,free,0
Vancouver,V6K 2H2,49.2643261,-123.1756342,restaurants,1,no,1
Vancouver,V6B 2T5,49.2588426791,-123.1141662598,restaurants,2,free,0
New Westminster,V3M 4W8,49.2035205,-122.9497619,restaurants,1,free,0
Burnaby,V5G 3E3,49.2566367,-123.0069223,dim sum,2,free,0
Surrey,V3W 8J9,49.1499859,-122.8644111,restaurants,2,no,0
Richmond,V6K 1K8,49.1843522,-123.1052421,coffee & tea,1,free,0
Vancouver,V6B 1G1,49.2859448,-123.1122271,american (traditional),2,free,0
Vancouver,V5V 0B3,49.2531662,-123.0896209,japanese,2,free,1
Vancouver,V6C 0C3,49.2893215484,-123.1143217825,restaurants,2,free,0
Vancouver,V6R 1B3,49.2718708453,-123.1904844738,seafood,3,free,0
Surrey,V3V 4C1,49.176556,-122.8898423,middle eastern,2,no,0
Vancouver,V6B 5P6,49.2759433,-123.1216372,bars,3,free,1
Richmond,V6Y 4B4,49.169068,-123.134006,restaurants,2,free,0
Vancouver,V5P 3X5,49.2253032,-123.0657698,pizza,2,free,0
New Westminster,V3M 2B3,49.212222,-122.9219083,sushi bars,2,no,0
Vancouver,V5V 4E4,49.2498702,-123.0896868,restaurants,2,free,1
Ladner,V4K 1X6,49.089852,-123.0635130572,food,1,free,0
Richmond,V6X 3Z9,49.185119,-123.129476,chinese,2,no,0
Burnaby,V5H 2E8,49.2246177547,-122.9884275852,coffee & tea,1,free,0
Vancouver,V5K 1Z3,49.2810252,-123.0533381,food,2,free,0
Vancouver,V6E 4E6,49.2872573,-123.1247192,salad,1,free,0
Vancouver,V6B 5T4,49.2767766,-123.1201854,restaurants,2,no,0
Vancouver,V6R 2G4,49.2632336744,-123.1867123023,japanese,2,free,1
Vancouver,V6B 3J5,49.2832958,-123.1144053,salad,1,free,1
North Vancouver,V7L 0B1,49.3105260847,-123.0792653561,american (new),2,free,0
Richmond,V6V 1X7,49.190947,-123.073984,burgers,2,free,0
Vancouver,V6K 2G9,49.2639725,-123.1748967,asian fusion,2,free,0
North Vancouver,V7M 1N9,49.3211477,-123.0740431,american (traditional),2,no,0
Vancouver,V5V 3R3,49.2448272,-123.1010932,bars,2,free,0
Burnaby,V5C 6R5,49.266806,-123.006959,restaurants,2,free,0
Richmond,V6X 3Z9,49.185696493,-123.1293864548,cafes,2,free,0
Vancouver,V6A,49.2834553,-123.1028539,restaurants,2,free,1
North Vancouver,V7J 0A1,49.3359113567,-123.0390060032,restaurants,2,free,0
Coquitlam,V3B 2P7,49.2829911,-122.7936211,coffee & tea,2,free,1
Vancouver,V6Z 2Z4,49.2736116,-123.1183902,restaurants,2,free,0
Port Moody,V3H 5B7,49.2831594,-122.8257294,restaurants,2,free,0
Coquitlam,V3B 8A9,49.2798956,-122.7928573,restaurants,1,free,0
Vancouver,V6C 1V4,49.2846904,-123.1145505,nightlife,2,free,1
Vancouver,V6T,49.2665761,-123.2428402,restaurants,1,no,1
Vancouver,V5V 3N9,49.2507111,-123.1013352,bars,2,free,0
Burnaby,V5C 2H9,49.2809526,-123.015925,restaurants,2,no,1
Coquitlam,V3J 1N8,49.2512066,-122.8923224,restaurants,2,free,0
Vancouver,V6Z 1L2,49.2792922,-123.1226648,mexican,1,free,0
Vancouver,V6B 5J3,49.2810806,-123.1191094,burgers,2,no,0
Surrey,V3R 8X8,49.1857462,-122.8004847,restaurants,2,free,0
Richmond,V6X 1A4,49.1705889268,-123.1395,restaurants,2,no,0
Vancouver,V6T 1Z1,49.26592,-123.254532,bars,2,free,0
Richmond,V6X 0M6,49.1777306122,-123.1212959151,sandwiches,2,free,1
Vancouver,V6Z 1M1,49.2781493,-123.1252321,bars,2,free,1
Vancouver,V5V 3E4,49.2505555,-123.0773747,chinese,2,no,1
Vancouver,V5K 1Z3,49.2810252,-123.0533381,restaurants,2,free,1
Richmond,V6V 1R7,49.1740629,-123.0466711,american (new),3,no,0
Vancouver,V5Y 0E4,49.2706702,-123.1059184,coffee & tea,2,free,0
Port Coquitlam,V3C,49.2656194,-122.78677,restaurants,2,no,0
North Vancouver,V7M 2K4,49.3279866,-123.0724282,middle eastern,2,free,1
Vancouver,V6B 2G5,49.2766707231,-123.1257008615,mediterranean,1,free,1
Vancouver,V5Z 2W6,49.2558198,-123.1153698,breakfast & brunch,2,no,0
Vancouver,V6Z 1M4,49.276811,-123.1264256,american (new),2,free,0
Burnaby,V5H 4P1,49.22565121,-122.99700067,fast food,2,free,0
Vancouver,V5P 3V4,49.2372789,-123.0656188,chinese,2,free,0
Vancouver,V6T 1K6,49.2665761,-123.2428402,sushi bars,2,no,0
Vancouver,V5T 1B4,49.2694549333,-123.1077216363,restaurants,2,free,0
Vancouver,V6B 2J2,49.2828842,-123.1041375,pubs,2,free,1
Vancouver,V7B 1Y7,49.1966948,-123.183701,food,1,free,0
Vancouver,V5L 1V2,49.2810297,-123.060808,food,1,free,0
Vancouver,V5W 2Z5,49.232344,-123.0904793,indian,2,free,0
Port Moody,V3H 2C5,49.2762155,-122.8442982,specialty food,2,no,0
Burnaby,V5E 1E1,49.219623,-122.969275,fast food,1,free,0
Burnaby,V5J 1H1,49.2206873,-122.9765179,restaurants,1,free,0
Richmond,V6X 3V9,49.1875107171,-123.1239794567,noodles,1,no,1
Vancouver,V5P 1J8,49.2329786,-123.0760497,pubs,2,free,0
Vancouver,V6R,49.2636639749,-123.185155478,burgers,2,free,0
Vancouver,V6G 1C8,49.2901006,-123.1327107,food,2,free,0
Richmond,V7B 1B4,49.1798514,-123.1523287,coffee & tea,1,free,0
North Vancouver,V7P 1V7,49.325186,-123.123645,breakfast & brunch,2,no,0
Vancouver,V5W 2Z5,49.2318385,-123.0905611,food,2,free,0
Vancouver,V6B 2B2,49.278965668,-123.1162121147,bakeries,2,free,0
Richmond,V6Y 2C4,49.1644718,-123.1360762,american (traditional),2,free,0
Richmond,V6X 3H1,49.1871042,-123.1061339,coffee & tea,2,free,1
Surrey,V3T 5X3,49.188458,-122.848593,canadian (new),2,no,0
Surrey,V3R 5X4,49.191552,-122.813703,restaurants,2,no,0
North Vancouver,V7G 1V5,49.3267215843,-122.9502370918,american (traditional),1,free,1
Delta,V4K 0A7,49.0805954445,-123.0091922781,restaurants,2,free,0
Vancouver,V5L 3X6,49.2724944,-123.0692524,bars,2,no,0
Vancouver,V6K 2G9,49.2642872,-123.1717761,food,1,free,1
Vancouver,V6T 1Z1,49.2666322261,-123.2499224511,sandwiches,1,free,0
Richmond,V6V 0B4,49.1916606996,-123.0811257637,restaurants,2,free,0
Burnaby,V5H 4M1,49.2274845,-122.9998322,fast food,1,free,0
Vancouver,V6B 0R3,49.2752915608,-123.1135937346,chinese,2,no,0
New Westminster,V3L 1Y6,49.2159515407,-122.9233270029,restaurants,2,no,0
North Vancouver,V7J 2A3,49.336992,-123.039458,japanese,2,no,1
Vancouver,V6B 1C2,49.2776909588,-123.113555501,american (traditional),2,free,0
Vancouver,V6H 3G7,49.2629632,-123.1383187,sushi bars,2,free,0
Coquitlam,V3K 1C8,49.2374293,-122.8702543,nightlife,2,free,0
Richmond,V7E 3B6,49.1242757541,-123.1833131767,canadian (new),2,free,0
Burnaby,V5C 2K4,49.2808687,-123.001084,coffee & tea,1,free,0
Vancouver,V6R,49.2636639749,-123.185155478,breakfast & brunch,2,free,0
North Vancouver,V7M 1A2,49.3118436,-123.0803796,breakfast & brunch,1,free,0
Vancouver,V6P 4Z5,49.2126959119,-123.1404929059,taiwanese,1,free,1
Vancouver,V5L,49.2815181855,-123.0638408674,japanese,2,no,0
Surrey,V3T 5C5,49.1878144,-122.8459101,breakfast & brunch,2,free,0
Vancouver,V6G 1C8,49.2901006,-123.1327107,sandwiches,2,free,0
North Vancouver,V7M 2J8,49.3260567,-123.0724955,sushi bars,2,free,1
Surrey,V3V 4B4,49.165126,-122.8897187,restaurants,2,no,1
Vancouver,V6E 2E9,49.2877422653,-123.1175574836,restaurants,2,no,1
Richmond,V6Y 2B6,49.1673708,-123.1389593,fast food,1,free,0
Coquitlam,V3B 6J6,49.277854,-122.795143,american (traditional),1,no,0
New Westminster,V3M 6V4,49.2029257,-122.9108691,restaurants,1,free,1
Richmond,V6X 2X9,49.1755327,-123.1324264,sushi bars,2,no,0
Burnaby,V5H 4V8,49.2303729,-123.0038913,taiwanese,2,free,0
New Westminster,V3L 3C5,49.2150337,-122.9230429,chicken wings,1,no,0
Vancouver,V5T 1G5,49.267041,-123.0997387,sandwiches,1,free,1
North Vancouver,V7G 1L1,49.326692,-122.9504397,pizza,2,free,0
Burnaby,V5E 4N3,49.2174071,-122.9651852,asian fusion,2,no,0
Burnaby,V5E 1E1,49.2197146066,-122.9700555017,specialty food,1,no,0
Vancouver,V6C 1J8,49.285638,-123.11634,nightlife,2,free,1
Vancouver,V5L 1V4,49.281317,-123.060882,vietnamese,2,free,1
Richmond,V7A 1N6,49.133102,-123.094091,fast food,1,free,0
Vancouver,V5R 5K6,49.2336608,-123.034465,japanese,2,free,1
Port Moody,V3H 5C9,49.2826617221,-122.8269646599,american (new),2,free,0
New Westminster,V3M 3L6,49.2118382076,-122.9210391641,sandwiches,2,free,0
Richmond,V6X 0M5,49.178845274,-123.121483326,seafood,2,free,0
Burnaby,V5H 2G1,49.2248408,-122.9884673,indian,2,free,1
Vancouver,V5R 5H2,49.2393614,-123.0531503,chinese,2,free,1
Burnaby,V5H,49.2290085,-123.0050498,restaurants,1,no,0
Vancouver,V6E 2B1,49.2873158,-123.1284195,japanese,2,free,0
Vancouver,V5L 3W8,49.276151,-123.0697065,mediterranean,1,no,0
Vancouver,V6M 2A5,49.2346862,-123.1615423,specialty food,2,free,1
Surrey,V3W 2M1,49.1364302,-122.8890865,japanese,2,free,0
Burnaby,V5C 3Y6,49.2670038,-123.0091757,restaurants,2,no,0
New Westminster,V3M 4K3,49.211196,-122.9354697,pizza,2,no,0
Vancouver,V5R 4G6,49.2398062,-123.0299092,sushi bars,2,free,0
Burnaby,V5E 3R7,49.2232971191,-122.9431762695,sushi bars,2,no,0
Vancouver,V6B 2L3,49.2805061,-123.1091426,restaurants,2,free,1
Burnaby,V5H 2A9,49.2290085,-123.0050498,barbeque,1,no,0
North Vancouver,V7P 1T2,49.324876,-123.109655,restaurants,2,free,0
Vancouver,V6B 5P9,49.2764711,-123.1195878,restaurants,2,no,0
Vancouver,V5N 1W1,49.2621642815,-123.0708577268,specialty food,2,no,0
Richmond,V6X 3K1,49.172848,-123.136191,dim sum,2,free,0
Coquitlam,V3K 1C9,49.237304,-122.869362,restaurants,2,no,0
Vancouver,V6Z 3G8,49.2757061,-123.1151383,japanese,2,no,1
North Vancouver,V7R 4K3,49.3556004,-123.1059532,restaurants,2,free,1
Vancouver,V6Z 1X9,49.2827851243,-123.1231677532,bars,2,free,1
Vancouver,V6H 2L1,49.2572642,-123.1270022,breakfast & brunch,2,free,0
North Vancouver,V7M 2E8,49.31241,-123.077821,breakfast & brunch,1,free,1
Vancouver,V6R 1N8,49.2684317,-123.1821449,restaurants,2,free,1
North Vancouver,V7M 2E7,49.3121695,-123.078662,japanese,2,no,1
Vancouver,V6M 3X1,49.2310505336,-123.155708313,taiwanese,2,no,0
Richmond,V6V 2R3,49.1876919,-123.0810562,japanese,2,no,1
Vancouver,V5V 3P6,49.2484971,-123.1014653,american (new),2,free,0
New Westminster,V3M 4J9,49.209306,-122.933099,japanese,2,no,1
Vancouver,V6H 1G5,49.2632429,-123.1297449,american (new),2,free,0
Vancouver,V6K 2E4,49.2640409,-123.1567891,burgers,2,free,0
Vancouver,V5L 3J8,49.2765541,-123.0768797,japanese,1,no,1
North Vancouver,V7G 1S3,49.3164706618,-122.9533378672,american (traditional),2,no,0
Vancouver,V6G 1C8,49.2908176,-123.1343912,restaurants,2,free,0
Vancouver,V5Z 1E9,49.2631116,-123.1165845,breakfast & brunch,2,free,0
West Vancouver,V7T 1B8,49.3283713,-123.1562442,chinese,2,free,0
Vancouver,V5K 5C5,49.2810043,-123.0453296,vietnamese,1,free,0
Vancouver,V6A 1P7,49.281485,-123.0948316,nightlife,2,free,1
New Westminster,V3L 1V3,49.2130606,-122.9199506,restaurants,1,no,1
Vancouver,V5L 1J2,49.2850084,-123.064968,american (traditional),1,no,0
Vancouver,V6J 1Z3,49.2640234,-123.1484033,indian,2,paid,0
Vancouver,V6B 2Z4,49.2837704,-123.1120424,specialty food,2,free,1
Richmond,V5V 3N9,49.1780536,-123.1358342,seafood,2,free,0
Vancouver,V5V 3R2,49.2458467,-123.1014995,sushi bars,2,no,0
Surrey,V3T 1V8,49.1906649,-122.8481137,restaurants,3,free,1
North Vancouver,V7M 1T3,49.3228495,-123.0746116,mediterranean,2,free,0
Richmond,V7B 1M8,49.1932034,-123.1722103,sandwiches,2,no,0
Vancouver,V6M 1Z6,49.2348484,-123.1565687,food,2,no,1
Vancouver,V6B 2Z4,49.2837704,-123.1120424,restaurants,2,free,1
Port Moody,V3H 2C5,49.2763181901,-122.8439638328,asian fusion,2,no,0
Surrey,V3R 7V4,49.1856917065,-122.8016178395,chicken wings,2,free,0
Vancouver,V6B 2K8,49.2837849,-123.1066087,seafood,2,free,1
Vancouver,V5Z 2E2,49.248391,-123.125497,restaurants,2,no,0
Richmond,V7B 1B4,49.1798514,-123.1523287,burgers,1,free,0
Vancouver,V6Z 1K7,49.2810768,-123.1202897,nightlife,1,free,0
Coquitlam,V3B 8A6,49.2798956,-122.7928573,restaurants,2,free,0
Vancouver,V6B 2P2,49.2786079,-123.1141059,food,2,no,1
Richmond,V6X 1S3,49.1922921571,-123.1161964642,restaurants,1,free,0
Vancouver,V5W 3A3,49.2276101985,-123.0905393791,chinese,1,no,0
North Vancouver,V7H 2Y4,49.3166374,-122.9692883,italian,2,free,1
Burnaby,V5B 1S3,49.2802391,-122.9656132,japanese,1,no,0
Richmond,V7E 3A7,49.1253576,-123.1816229,seafood,3,free,1
Vancouver,V6C 2L1,49.285555,-123.121625,sushi bars,2,free,1
Vancouver,V5T 3K6,49.2567896,-123.0892261,restaurants,1,free,1
Vancouver,V6C 0C3,49.2898455296,-123.1168572355,restaurants,2,free,0
Vancouver,V5K 1Z8,49.2812747,-123.0489068,restaurants,1,no,1
Richmond,V7B 0B7,49.1967507119,-123.1401739116,italian,2,free,0
Vancouver,V6E 4G1,49.2877928912,-123.1217961386,sandwiches,1,free,1
Richmond,V6Y 2B6,49.1668313,-123.1377469,nightlife,2,free,0
New Westminster,V3L 3C2,49.212941,-122.921127,restaurants,2,no,0
Burnaby,V5C 3Z2,49.267235949,-123.0057932809,restaurants,2,no,0
Vancouver,V6B 3K3,49.2828825,-123.1159646,seafood,4,free,1
Vancouver,V6B 5Z6,49.27490755,-123.1218991318,sushi bars,2,free,0
Vancouver,V6M 2A3,49.2347554,-123.158236,fast food,1,free,0
Vancouver,V5Z 1E6,49.2633734327,-123.1171303272,american (new),2,free,0
Vancouver,V6Z 1M5,49.2769058,-123.1268211,bars,2,free,0
Surrey,V3W 4E2,49.1329264,-122.8672672,pizza,1,no,0
Burnaby,V5J 4K1,49.215395,-122.9882258,american (traditional),1,no,0
Vancouver,V6B 0H3,49.2797675122,-123.1176316738,nightlife,2,no,0
Vancouver,V6B 1V5,49.2837763,-123.1131484,food,1,free,0
Burnaby,V5G 2G4,49.223115,-122.982139,restaurants,2,free,0
Vancouver,V5Z 1E9,49.263147,-123.116143,food,2,free,0
Vancouver,V6Z 2V4,49.2736042,-123.1207822,cafes,2,no,0
Burnaby,V5E 3R7,49.22507,-122.9423701,restaurants,2,free,0
Vancouver,V5Y 1R4,49.2633418,-123.1141032,breakfast & brunch,2,free,1
Vancouver,V5M 0C4,49.2595264758,-123.0433099036,restaurants,2,free,0
Vancouver,V5M 1Y9,49.2622132,-123.0447988,sushi bars,1,no,0
Vancouver,V5V 3P6,49.2484971,-123.1014653,nightlife,2,free,0
Richmond,V6Y 2B6,49.167158,-123.139158,food,1,free,0
Vancouver,V5Y 1G9,49.2672672,-123.111211,pizza,2,free,0
Vancouver,V6B 4P4,49.2790041,-123.1131403,restaurants,2,no,0
Richmond,V7E 4R7,49.123902738,-123.1835593171,japanese,2,no,0
Burnaby,V5H 2A9,49.2290734,-123.0048795,coffee & tea,1,free,0
Burnaby,V5A,49.2583292,-122.9553929,pizza,1,free,1
Vancouver,V5N 2T6,49.2423843,-123.0590191,vietnamese,1,no,1
West Vancouver,V7V 1K4,49.330856,-123.172252,seafood,3,free,0
Vancouver,V6A 1T7,49.2801877,-123.0980396,specialty food,2,no,1
Vancouver,V6J 1W9,49.2639631,-123.1414827,american (traditional),2,free,0
Richmond,V7E 4R7,49.1235114156,-123.182171508,restaurants,2,no,0
Vancouver,V6S 2C3,49.2561253691,-123.1855694354,breakfast & brunch,1,free,0
Vancouver,V6J 1X6,49.2634105,-123.1416899,japanese,2,free,1
North Vancouver,V7L 0B9,49.3100799,-123.0794176,canadian (new),2,free,0
Bowen Island,V0N 1G0,49.3794393,-123.3349558,breakfast & brunch,2,free,1
Richmond,V7C 5W5,49.170952267,-123.1825460461,restaurants,2,no,0
Delta,V4E 3G3,49.119871,-122.8924641,delis,2,free,0
New Westminster,V3L 5H1,49.212361696,-122.9188728724,fast food,1,free,0
Surrey,V3W 3N2,49.1471534,-122.8902732,bars,3,free,0
New Westminster,V3M 0G3,49.2014705082,-122.9134231938,canadian (new),2,free,0
Surrey,V3T 2W5,49.1902819,-122.8450144,japanese,2,free,1
Vancouver,V6J 3Y4,49.2621202082,-123.1532904304,american (new),2,free,0
Delta,V4K 1V9,49.089978,-123.0842889,noodles,1,no,0
Burnaby,V5C 2K6,49.281264,-122.999967,burgers,1,free,0
Vancouver,V5N 4N8,49.2452050051,-123.0657412457,vietnamese,1,free,0
Vancouver,V5X 0C4,49.209369,-123.116791,breakfast & brunch,2,free,0
Vancouver,V6A 2T9,49.279825,-123.0993261,food,1,free,1
Vancouver,V6B 1K6,49.2827625063,-123.1096461011,restaurants,2,no,1
Burnaby,V5C 2J1,49.2811988,-123.0149601,food,2,no,0
Surrey,V3R 7V4,49.1858626,-122.8032426,sushi bars,2,no,1
Richmond,V6X 4B4,49.1871956,-123.1301739,cafes,2,free,0
Vancouver,V5N 1W2,49.2627265,-123.0694771,restaurants,1,no,0
Burnaby,V3J 1M2,49.2532773,-122.8984007,asian fusion,2,free,0
Vancouver,V5X 2R9,49.2094013829,-123.1166540623,food,2,free,0
Burnaby,V5H 2G1,49.2237644469,-122.9886223827,desserts,1,free,1
Vancouver,V5K,49.2809742,-123.0240046,pubs,2,free,0
Burnaby,V5M 3Z3,49.264104,-123.022804,american (traditional),2,free,0
Richmond,V6Y 1K4,49.155465,-123.124845,canadian (new),2,no,0
Richmond,V6X 2C4,49.1796475115,-123.1392015801,coffee & tea,2,free,1
Vancouver,V5X 3G9,49.2254629,-123.1012332,restaurants,2,free,0
Richmond,V6X 2E1,49.1717302002,-123.1360582919,food,2,free,0
New Westminster,V3L 3W8,49.2266509,-122.8930154,sushi bars,1,free,0
West Vancouver,V7T 0A5,49.326811,-123.138093,bars,2,free,0
Surrey,V3R 9P4,49.1844070276,-122.8033497421,sandwiches,2,free,0
Burnaby,V5C 0B8,49.2643086658,-123.0106365878,restaurants,2,no,1
Burnaby,V5H 1Y5,49.232991,-123.019224,mediterranean,2,no,0
Vancouver,V6E 0A3,49.287494,-123.1235689,restaurants,2,free,1
Burnaby,V5H 2A9,49.2290085,-123.0050498,chinese,1,no,0
Vancouver,V6B 5B6,49.2759228407,-123.1245237819,vegetarian,2,no,1
Vancouver,V6Z 1M1,49.2777369,-123.1253188,middle eastern,1,free,1
Vancouver,V5N 4A5,49.2681048,-123.0696176,food,1,free,0
Vancouver,V6J 1M4,49.2682628,-123.1465315,pizza,2,free,0
Vancouver,V5Z 2V9,49.2586971,-123.1149428,specialty food,2,free,0
Vancouver,V5Z 1S7,49.256928,-123.1215673,sushi bars,2,no,1
Richmond,V6X 0M6,49.1784646,-123.1210569,restaurants,1,free,0
Vancouver,V6G 2V4,49.2924789,-123.1293348,bars,2,free,0
Vancouver,V6A 2V4,49.2787595571,-123.0995633645,vietnamese,1,no,1
Richmond,V7E 2K5,49.1340694,-123.1691498,pubs,2,free,0
West Vancouver,V7T 1B7,49.327946,-123.15549,restaurants,2,no,0
Vancouver,V5V 3R1,49.2475265,-123.1014138,restaurants,3,no,1
Vancouver,V6B 3G7,49.2741636,-123.1273471,desserts,2,free,0
Vancouver,V6E 1N1,49.2810568,-123.1327804,restaurants,2,free,0
Burnaby,V3N 1B9,49.2247515,-122.940411,sandwiches,2,free,0
Vancouver,V6C 2R7,49.2853096,-123.1207679,american (new),3,free,0
Vancouver,V6Z 2V4,49.2736042,-123.1207822,restaurants,2,no,0
New Westminster,V3L 3B4,49.2120856,-122.9191831,vietnamese,2,no,0
Vancouver,V6P 3E7,49.2040721,-123.1349289,restaurants,1,free,0
North Vancouver,V7J 1E2,49.3053025743,-123.031780043,burgers,1,free,0
Vancouver,V5T 1R8,49.2638067058,-123.1016845221,bars,2,free,0
Vancouver,V5P 3V8,49.2355353,-123.0652908,food,2,no,1
Vancouver,V6G 1C7,49.2896692,-123.1331898,korean,2,no,0
North Vancouver,V7M 2E5,49.3116786,-123.0791056,restaurants,2,no,1
Bowen Island,V0N 1G2,49.3795289,-123.3354819,nightlife,2,no,1
New Westminster,V3L 3B5,49.2124240809,-122.9191684523,restaurants,2,free,0
Richmond,V6V 2N5,49.1917527,-123.0843156,restaurants,1,no,1
North Vancouver,V7G 2C1,49.32669,-122.950849,sushi bars,2,free,0
Vancouver,V6R,49.2636161,-123.208092,specialty food,2,free,0
Vancouver,V6K 3E6,49.2711495,-123.1551892,breakfast & brunch,2,free,1
Vancouver,V5Z 1G8,49.2634754435,-123.120027557,restaurants,2,free,0
Vancouver,V5T 3G7,49.2558434896,-123.1014758657,sushi bars,2,no,0
Ladner,V4K 1W6,49.090542,-123.07251,nightlife,2,free,0
North Vancouver,V7M 2E7,49.3126597,-123.0781619,burgers,2,free,0
Vancouver,V6H 1G5,49.263875,-123.134264,restaurants,2,no,1
North Vancouver,V7J 2A1,49.334995,-123.041904,restaurants,2,free,0
Vancouver,V6A 1G7,49.2833009,-123.0949245,canadian (new),3,no,1
Vancouver,V5L 3X9,49.2715348,-123.069451,coffee & tea,1,no,0
Vancouver,V6B 2C9,49.280165,-123.1209196,pizza,1,no,1
Burnaby,V5E 2H7,49.2812457,-123.018888,food,2,no,0
Vancouver,V6B 1G8,49.2818751,-123.1074435,cafes,2,free,1
Coquitlam,V3B 2P7,49.2829911,-122.7936211,sandwiches,2,free,1
Vancouver,V6K 2H5,49.264334,-123.176389,fast food,1,free,1
Vancouver,V5W 2V4,49.2261634,-123.1013709,indian,1,no,0
Vancouver,V6B 2B7,49.2803610181,-123.1186111772,middle eastern,2,no,0
Vancouver,V5N 4A4,49.2691136,-123.0698262,delis,1,no,1
Vancouver,V5Y 2B1,49.2542909,-123.114925,restaurants,2,free,0
Vancouver,V6B 1E5,49.2837285,-123.1092042,sandwiches,1,free,1
Vancouver,V5W 2Z5,49.2325792,-123.0901219,restaurants,1,no,0
Burnaby,V5C 1R3,49.2812542,-123.0147065,chicken wings,2,no,0
Vancouver,V5R 5L1,49.2333605,-123.0348768,noodles,2,no,0
Vancouver,V6R 2J1,49.2636417,-123.2101416,vietnamese,1,no,0
Vancouver,V6C 1P7,49.2833926005,-123.1191056519,nightlife,3,free,0
North Vancouver,V7L 2N3,49.3212052,-123.0716537,bakeries,1,free,1
New Westminster,V3L 3X5,49.2301628,-122.8924283,japanese,2,no,1
New Westminster,V3M 0G3,49.2014705082,-122.9134231938,restaurants,2,free,0
Vancouver,V5R 5K4,49.2344772006,-123.0361121631,chinese,2,free,1
West Vancouver,V7V 1H8,49.3283902,-123.158343,restaurants,2,no,0
Vancouver,V6K 1V9,49.2639585,-123.1677051,fast food,1,free,0
Vancouver,V6B 5P6,49.275522,-123.121794,restaurants,4,free,1
Vancouver,V5L 1V6,49.2813655,-123.0573113,restaurants,2,free,0
Richmond,V6X 3X2,49.1862473,-123.1333378,chinese,1,free,0
Vancouver,V5Y 0E4,49.2706702,-123.1059184,pizza,2,free,0
Vancouver,V6A 0B4,49.2777861723,-123.0989182961,asian fusion,2,free,1
Vancouver,V6Z 1T9,49.2820063077,-123.1230249256,restaurants,1,free,1
Vancouver,V6J 1X6,49.2634926,-123.1419998,japanese,1,no,0
Vancouver,V5N 4C1,49.261673,-123.070049,restaurants,1,free,0
Vancouver,V5Z 2V7,49.2590241,-123.1153551,vegetarian,2,no,1
Vancouver,V5T 1G5,49.267041,-123.0997387,breakfast & brunch,1,free,1
Vancouver,V6H 3N1,49.2443788,-123.1241934,sandwiches,1,free,0
Vancouver,V6C 3B5,49.2877251,-123.1139605,restaurants,3,free,1
North Vancouver,V7P 2S3,49.3223922,-123.1081187,specialty food,2,no,0
Surrey,V3R 7C1,49.1886537546,-122.8021314765,pizza,2,free,0
Burnaby,V5J 0A3,49.1978443485,-122.9772431251,restaurants,2,free,0
Vancouver,V6C 3L5,49.2872868,-123.1137298,nightlife,3,free,1
New Westminster,V3L 3C2,49.2125498,-122.9226755,sushi bars,1,free,0
Vancouver,V5X 2R1,49.2118921,-123.1091875,burgers,1,free,0
Vancouver,V6Z 2S2,49.2778637,-123.1276568,fast food,2,no,0
Burnaby,V5E 0A6,49.2195414589,-122.9566285194,restaurants,2,free,1
Vancouver,V6T 1K6,49.2664426626,-123.2434953641,pizza,1,no,0
Richmond,V7A 1N6,49.133073,-123.09557,pizza,2,free,0
North Vancouver,V7P 1T6,49.3235482,-123.1144188,vietnamese,1,no,0
Vancouver,V6B 1C8,49.2827731,-123.1048033,restaurants,2,no,0
Vancouver,V5L 1H8,49.2848444,-123.0659332,middle eastern,2,free,1
Vancouver,V6B 4N6,49.2846966,-123.1119349,canadian (new),4,no,0
Vancouver,V5T 1G5,49.267041,-123.0997387,restaurants,1,free,1
Burnaby,V5C 1R3,49.2812542,-123.0147065,barbeque,2,no,0
North Vancouver,V7P 1T2,49.324876,-123.109655,chinese,2,free,0
Richmond,V6X 4E2,49.1834678,-123.1251173,dim sum,2,no,0
Vancouver,V6K 1P8,49.2683300474,-123.164868392,desserts,2,free,1
Richmond,V6X 2V1,49.1842679432,-123.0914044215,pizza,2,no,0
Vancouver,V6Z 1M4,49.276811,-123.1264256,restaurants,2,free,0
Vancouver,V5V 3R2,49.2452367584,-123.1015564501,restaurants,1,free,0
North Vancouver,V7L 0B1,49.3105260847,-123.0792653561,restaurants,2,free,0
Vancouver,V5Z 2V9,49.2586971,-123.1149428,seafood,2,free,0
Vancouver,V5L 3W7,49.27607,-123.0692457,desserts,3,free,1
Richmond,V6X 3A5,49.1780536,-123.1358342,taiwanese,2,free,0
Richmond,V5V 3N9,49.1780536,-123.1358342,specialty food,2,free,0
Vancouver,V6K 1P2,49.2686636,-123.1584485,restaurants,2,no,0
Port Moody,V3H 0B1,49.2766549,-122.8310594,japanese,1,no,0
Vancouver,V6E 1A3,49.2845587688,-123.1228691903,nightlife,3,free,0
Vancouver,V5Z,49.2338561,-123.1187596,canadian (new),2,free,1
Vancouver,V6B 2B7,49.2802668,-123.1184049,restaurants,1,no,1
Vancouver,V6E 3V5,49.2849406,-123.1247733,nightlife,3,free,1
Surrey,V3T,49.1891318847,-122.847710832,restaurants,2,free,0
Vancouver,V5M 4Y2,49.269001,-123.04449,korean,1,free,1
Vancouver,V6A 2W5,49.2703659251,-123.1009791443,middle eastern,2,free,0
Richmond,V6X 1C3,49.1789476669,-123.1336707117,chinese,2,free,0
New Westminster,V3L 3X4,49.2296123,-122.8930169,pizza,2,free,0
Vancouver,V6C 1A1,49.2843731,-123.1164403,vietnamese,1,no,0
Vancouver,V5W 2Z8,49.2299962,-123.0908133,dim sum,2,no,0
Vancouver,V5W 3A4,49.2264257532,-123.0905699733,desserts,2,free,0
Vancouver,V6B 2T5,49.2588426791,-123.1141662598,seafood,2,free,0
Vancouver,V6C,49.2887674219,-123.1147521967,restaurants,1,free,1
Vancouver,V6B 0R3,49.2753742,-123.1128477,breakfast & brunch,2,free,0
Vancouver,V6B 1A4,49.2833019455,-123.1060552597,food,2,no,1
Vancouver,V5L 3X8,49.2715434,-123.0697684,nightlife,2,no,0
Richmond,V6X 4J7,49.1841117,-123.1335429,chicken wings,1,free,0
Vancouver,V6K 2G9,49.2643393,-123.1735884,restaurants,2,free,1
North Vancouver,V7M 1T4,49.3232908,-123.0740091,middle eastern,2,no,0
Vancouver,V5M 2A1,49.2620355325,-123.0332064629,japanese,2,no,0
Vancouver,V5N 1V9,49.2624865,-123.0701321,breakfast & brunch,1,no,0
Vancouver,V5T 3E6,49.2617292,-123.1007848,pubs,2,free,1
Vancouver,V6K 2G6,49.2643203,-123.1690683,desserts,1,no,1
Vancouver,V5Z 2X8,49.2499562,-123.1150368,taiwanese,2,no,0
Vancouver,V6G 2N1,49.2877737,-123.1412635,restaurants,1,no,0
North Vancouver,V7M 3K7,49.3103418799,-123.0820697558,pizza,1,free,1
Vancouver,V6Z 1M4,49.2770096,-123.1261846,food,2,free,0
Vancouver,V6B 5P9,49.2759437,-123.1208539,nightlife,2,free,0
Richmond,V6X 2E1,49.1717302002,-123.1360582919,burgers,2,free,0
Burnaby,V5H 2A1,49.2314984,-123.0049983,breakfast & brunch,1,no,0
Vancouver,V5V 3P6,49.2484971,-123.1014653,restaurants,2,free,0
Vancouver,V6G,49.2917365,-123.1353449,pizza,2,no,1
Burnaby,V5C 2J6,49.28095,-123.009199,restaurants,2,no,1
Vancouver,V5S 1J9,49.2256543,-123.0543547,chinese,2,no,0
Port Coquitlam,V3B 5Y9,49.273705,-122.7885834,restaurants,1,no,1
Vancouver,V5V 3R2,49.2458467,-123.1014995,restaurants,2,no,0
Vancouver,V6K 2G9,49.2639725,-123.1748967,barbeque,2,free,0
Richmond,V6X 3P8,49.1962827,-123.1267608,canadian (new),2,free,0
Vancouver,V6C 3B2,49.28628,-123.1173056,restaurants,2,free,0
Vancouver,V6G 2M1,49.2893285,-123.138305,pizza,2,free,0
Surrey,V3R 0J8,49.1839142193,-122.8021354922,american (traditional),2,free,1
Vancouver,V5L 3X9,49.2715348,-123.069451,breakfast & brunch,1,no,0
Vancouver,V5Y 1M8,49.2640032,-123.1060439,restaurants,1,no,0
Vancouver,V6P 4A8,49.2109326,-123.1305183,sushi bars,2,free,0
Vancouver,V5L 1S4,49.281366065,-123.0743124551,italian,2,free,0
Burnaby,V3N 3M3,49.2231570511,-122.9326033619,indian,2,no,1
Vancouver,V6G 1W5,49.286402,-123.1403028,cafes,2,free,0
Vancouver,V6Z 1X9,49.2825685,-123.1236112,italian,3,free,0
West Vancouver,V7V 1A6,49.3278575,-123.1583304,indian,2,free,1
New Westminster,V3M 0G3,49.200992,-122.913094,chinese,2,no,0
Vancouver,V6M 1Y8,49.2343601354,-123.1533913129,restaurants,2,no,0
Vancouver,V5R 5K6,49.2330548744,-123.0328938918,restaurants,1,free,0
Vancouver,V6B 6N7,49.279251,-123.1074646,pizza,1,free,0
Vancouver,V5V 3C4,49.2542716,-123.0851632,chinese,1,free,1
Vancouver,V6J 1E8,49.2712685403,-123.1394933804,specialty food,2,no,1
Vancouver,V6R 1B3,49.2718708453,-123.1904844738,restaurants,3,free,0
Vancouver,V5L 1V6,49.2812842,-123.0575022,mexican,2,no,1
Richmond,V6Y 3X9,49.1547547,-123.1239279,breakfast & brunch,2,free,0
Vancouver,V5T 1X4,49.2626471,-123.0922336,coffee & tea,1,free,1
Vancouver,V6K 1P2,49.2684244908,-123.1594542098,coffee & tea,1,free,0
Vancouver,V6A 3A3,49.2839643,-123.0952825,restaurants,2,free,1
Vancouver,V6E,49.2860544973,-123.1229372446,coffee & tea,2,free,1
North Vancouver,V7P 1V7,49.325186,-123.123645,restaurants,2,no,0
North Vancouver,V7P 1T3,49.3236203557,-123.1080351295,fast food,1,free,0
Burnaby,V5C 6R4,49.267748,-123.0064526,restaurants,1,free,1
Surrey,V3T,49.188902,-122.845745,restaurants,2,free,0
Vancouver,V6B 5P6,49.2756323,-123.1221582,pubs,2,free,0
Vancouver,V6J,49.27261,-123.1487543,restaurants,2,free,1
Vancouver,V5L 1J5,49.2851083,-123.0621632,restaurants,2,no,0
Coquitlam,V3K 1C9,49.2369491,-122.8704003,restaurants,2,no,0
Vancouver,V6Z 2R6,49.2740296427,-123.1223389506,restaurants,1,no,0
Vancouver,V5Z 3J2,49.2629559,-123.120137,food,1,free,1
Vancouver,V5Y 1P5,49.2633013,-123.110666,american (traditional),2,no,0
Burnaby,V5H 2A9,49.2288444663,-123.004785855,chinese,1,no,0
Vancouver,V6Z 1X9,49.2822067,-123.1238037,restaurants,2,no,1
North Vancouver,V7M 2K4,49.327938,-123.0724522,restaurants,1,no,0
Vancouver,V6B 2B7,49.2805271,-123.1187971,fast food,2,free,0
Burnaby,V5C,49.2815438,-123.0216822,burgers,1,free,1
Surrey,V3R 7C1,49.1902404,-122.8034613,restaurants,1,no,1
Richmond,V6X 1E4,49.1796164847,-123.1347892578,desserts,1,free,0
North Vancouver,V7M 3K7,49.3107068,-123.0817305,vietnamese,2,free,0
Vancouver,V5Z 2V9,49.2585274,-123.1148739,pizza,2,no,1
Vancouver,V6E 1A5,49.2860922,-123.1252197,burgers,1,free,0
Burnaby,V5C 2J3,49.2812730276,-123.0120237248,restaurants,1,free,0
Surrey,V3T 1V8,49.1906649,-122.8481137,bars,3,free,1
Vancouver,V5T 1R8,49.2638067058,-123.1016845221,american (new),2,free,0
Richmond,V7E 3M3,49.1241798712,-123.1828900526,food,1,free,0
Vancouver,V6M 3X1,49.2359557748,-123.1556402112,chinese,2,free,0
Vancouver,V5M 2E1,49.2583980029,-123.0450159115,pizza,1,free,1
Vancouver,V5Z 4M3,49.263479,-123.124468,nightlife,2,free,0
Vancouver,V6Z 1L3,49.279807,-123.1225381,restaurants,2,free,0
Vancouver,V6K 1R1,49.2683459,-123.1670621,vegetarian,2,no,0
Richmond,V6X 2K5,49.178367,-123.120998,burgers,2,no,0
Vancouver,V6Z 1K3,49.2814438,-123.1194748,coffee & tea,2,free,0
Richmond,V7A 4E7,49.1320426608,-123.0915458466,vietnamese,1,free,1
Vancouver,V6G 1Z4,49.3012529987,-123.1570792571,seafood,3,no,1
Richmond,V7B 1X8,49.1975162638,-123.1783060986,nightlife,2,free,0
Vancouver,V6Z 2R6,49.2738651438,-123.1230095029,restaurants,1,free,1
Port Coquitlam,V3C 6K5,49.2662329561,-122.7769331719,bars,2,free,0
Burnaby,V5E 1E9,49.2196153529,-122.956237793,japanese,1,no,0
Vancouver,V5V 3M9,49.2544611,-123.1012989,chicken wings,1,free,0
Richmond,V6X 0M5,49.178065,-123.121761,fast food,2,free,1
Vancouver,V6G,49.2863974,-123.1404263,sushi bars,1,no,0
Vancouver,V6Z 1L3,49.280407,-123.1219174,bars,2,free,0
Surrey,V3T 1N6,49.1876049437,-122.843991369,restaurants,2,no,0
Port Coquitlam,V3C 3L8,49.2708304,-122.7900109,japanese,1,no,1
North Vancouver,V7M 2E7,49.3126597,-123.0781619,pizza,2,free,0
Burnaby,V5H 2B3,49.229129,-123.000997,japanese,2,no,0
Vancouver,V6J 1M7,49.2682575,-123.1488595,vietnamese,2,no,1
Port Moody,V3H 5B9,49.2824262,-122.8264644,restaurants,2,free,0
Richmond,V6X 1E4,49.1796164847,-123.1347892578,food,1,free,0
Vancouver,V6H 2L1,49.2572642,-123.1270022,food,2,free,0
New Westminster,V3L 3B2,49.2104161029,-122.9171323639,chinese,2,free,0
Vancouver,V6E 1Y4,49.2857242812,-123.1271553452,bakeries,1,free,1
Vancouver,V6E 1V3,49.2867409016,-123.1427178087,nightlife,3,free,0
Vancouver,V6B 2L2,49.2814279,-123.1077261,nightlife,2,no,0
North Vancouver,V7L 2N3,49.3212052,-123.0716537,desserts,1,free,1
Vancouver,V6E 1W2,49.2839786648,-123.1255679786,japanese,2,no,0
Vancouver,V5Y 1B8,49.2694599,-123.1072668,restaurants,2,free,0
Vancouver,V6E 1B2,49.2850272,-123.1260593,american (new),2,free,0
Vancouver,V6Z 1K7,49.2805623867,-123.1214173472,restaurants,1,free,0
Burnaby,V5B 1S6,49.2804942619,-122.9638283447,pizza,2,free,0
Vancouver,V5T 3K5,49.2574913,-123.0909344,italian,3,free,1
Burnaby,V5H 4L8,49.2263830678,-123.0038341483,restaurants,1,free,0
Richmond,V7B 0A4,49.1959446,-123.1775716,cafes,2,free,0
New Westminster,V3L 3C5,49.214855,-122.922433,cafes,1,no,1
Vancouver,V6J 5K9,49.2634070017,-123.1401560686,restaurants,1,free,0
Vancouver,V5V 3P6,49.2484971,-123.1014653,bars,2,free,0
Vancouver,V5V 3R1,49.2468401,-123.101427,restaurants,1,free,1
Vancouver,V6M 1Y8,49.2344086533,-123.1548166439,food,2,free,0
Vancouver,V6R 3C4,49.2578401,-123.1859551,japanese,2,no,1
Vancouver,V6G 1Z4,49.3012529987,-123.1570792571,food,3,no,1
New Westminster,V3L 2B9,49.22306,-122.9122023,burgers,1,free,0
Vancouver,V6C 2V6,49.2852619,-123.1164446,restaurants,2,no,0
Vancouver,V6A 2V8,49.276677,-123.100086,pizza,2,free,1
Vancouver,V6K 1P2,49.2686636,-123.1584485,sandwiches,2,no,0
Vancouver,V6B 0E1,49.2793435,-123.107433,asian fusion,1,free,0
Coquitlam,V3E 2Z4,49.2986583,-122.7872987,japanese,2,free,1
Vancouver,V5Z 1A6,49.265607,-123.121984,chinese,1,free,1
Richmond,V6X 4B3,49.1781063932,-123.1273601521,chinese,2,free,1
Richmond,V6X 1A4,49.170762,-123.139704,chinese,2,no,0
North Vancouver,V7J 2H5,49.3127301,-123.0282861,american (traditional),2,free,0
Delta,V4G 1J7,49.1482662265,-122.9426910268,restaurants,1,free,0
Vancouver,V6M 2P7,49.227018,-123.1288733,vietnamese,1,free,0
Vancouver,V5V 3E3,49.251,-123.07699,indian,2,free,1
Burnaby,V5H 2B3,49.2292289295,-123.0014383793,restaurants,2,no,0
Burnaby,V5E 1G5,49.2186411,-122.9545003,fast food,1,free,0
Surrey,V3R 1M7,49.1913499,-122.8083641,pizza,2,no,1
Vancouver,V6B 3J5,49.2832958,-123.1144053,bakeries,1,free,0
West Vancouver,V7V 1K4,49.330856,-123.172252,restaurants,3,free,0
Vancouver,V6B 2A8,49.2777057047,-123.1141484635,italian,2,free,0
Coquitlam,V3B 6J6,49.2749829,-122.7930439,cafes,2,free,0
Vancouver,V6G 2C8,49.2866689,-123.1341521,food,2,no,1
Burnaby,V5J 5J3,49.200617,-122.990237,nightlife,2,free,0
Vancouver,V6G 3G1,49.2916656936,-123.1283824472,bars,2,free,1
Delta,V4K 0A7,49.0805954445,-123.0091922781,breakfast & brunch,2,free,0
Vancouver,V5N 4B6,49.2643741,-123.0693441,middle eastern,2,free,1
Vancouver,V6G 2M7,49.2885848,-123.140174,japanese,2,no,0
Surrey,V3W 2M1,49.1343801,-122.8895531,restaurants,2,no,0
Richmond,V6X 3Z9,49.1849827887,-123.1301142112,nightlife,2,no,0
North Vancouver,V7L 3V9,49.3126325,-123.057373,restaurants,1,free,1
Vancouver,V5Y 4A8,49.2633568994,-123.1141551443,noodles,1,no,0
Vancouver,V5M 4H4,49.2584746,-123.0306817,restaurants,2,free,0
Burnaby,V5E 1C5,49.2188919,-122.9685771,food,2,free,0
Surrey,V3R 4E5,49.1657867,-122.8016515,chinese,1,no,1
Burnaby,V5J 0A2,49.2020089718,-122.9817295074,american (new),2,free,0
Vancouver,V6S 2C3,49.2559752144,-123.1849636221,restaurants,2,no,1
Vancouver,V5M 3H9,49.2683178,-123.0445229,japanese,2,free,0
Vancouver,V6J 5L8,49.2621953142,-123.1528177074,bakeries,1,no,1
Burnaby,V5H 4V2,49.2294464,-123.0044077,chinese,1,no,0
Vancouver,V6Z 1M1,49.278132,-123.1252148,nightlife,2,free,1
Burnaby,V5H 2G2,49.2229357,-122.9841561,restaurants,2,free,0
Burnaby,V5B 1S2,49.279993442,-122.9697731134,restaurants,2,free,0
North Vancouver,V7P 2S2,49.322767,-123.1074589,food delivery services,2,free,1
Vancouver,V6G 1C9,49.2911017,-123.1345502,vietnamese,1,free,1
Vancouver,V6A 1G7,49.2831841,-123.0935172,coffee & tea,2,free,1
Vancouver,V6B 1V5,49.283945,-123.113528,chinese,1,no,1
Vancouver,V6B 2M1,49.2781484,-123.1134165,italian,2,no,1
Port Coquitlam,V3B 4P4,49.2718479,-122.7856329,korean,2,free,1
Vancouver,V6G 3G1,49.2916656936,-123.1283824472,food,2,free,1
Vancouver,V6C 2R6,49.2884008,-123.1188819,japanese,1,no,1
Vancouver,V6H 1G1,49.2636964,-123.1297159,nightlife,4,no,0
Vancouver,V6C 1Z6,49.2827243549,-123.117055884,cafes,2,free,0
Vancouver,V6B 1E5,49.2837285,-123.1092042,restaurants,1,free,1
Vancouver,V5M 2A6,49.2659225,-123.0243296,coffee & tea,1,free,0
Vancouver,V6A 1R1,49.281009,-123.0897164,nightlife,2,free,0
New Westminster,V3M 6B9,49.200022,-122.91173,restaurants,2,free,0
Vancouver,V6K 1B5,49.2723428244,-123.1553483754,pubs,2,free,0
Vancouver,V5V 3R9,49.2411806,-123.1016703,sushi bars,2,free,1
Vancouver,V6E 1N1,49.2810568,-123.1327804,bars,2,free,0
Delta,V4E 3G3,49.120793003,-122.8909512124,japanese,2,no,1
Vancouver,V6A 1T6,49.2805781,-123.1008024,sandwiches,2,free,1
Vancouver,V6B 6L9,49.2798335098,-123.1171406628,fast food,1,free,0
Richmond,V7E 6N2,49.1247683,-123.1809733,chicken wings,1,free,0
Vancouver,V6B 3K4,49.2836444091,-123.1147222607,indian,1,no,0
Vancouver,V6B 2G6,49.2767544664,-123.1251996431,restaurants,2,free,0
Burnaby,V5H 2A9,49.2290734,-123.0048795,vietnamese,1,no,0
Steveston,V7E 3B6,49.1242322069,-123.1832477371,seafood,1,free,1
Burnaby,V5H 4L8,49.2263830678,-123.0038341483,salad,1,free,1
Richmond,V7A 5J3,49.1321,-123.094878,restaurants,2,free,1
Port Moody,V3H 5N1,49.2792315,-122.8292317,restaurants,2,no,0
Burnaby,V5C 2K6,49.2808387438,-123.0018921801,noodles,1,no,1
Surrey,V3T 2W4,49.1864424,-122.8443549,breakfast & brunch,2,free,0
Richmond,V7E 3A3,49.125208,-123.1834819,seafood,1,free,0
West Vancouver,V7V 1H8,49.3283853,-123.1572678,pizza,2,free,1
Vancouver,V5K 2A8,49.2813471028,-123.0274413899,restaurants,2,no,1
Vancouver,V6R 1B3,49.2718708453,-123.1904844738,breakfast & brunch,3,free,1
Vancouver,V5Z 3Z1,49.2691231,-123.118684,restaurants,2,free,0
North Vancouver,V7P 2V8,49.322759,-123.113124,barbeque,2,no,0
Vancouver,V5W 2Z9,49.2284157,-123.0908629,sandwiches,1,no,0
Vancouver,V6E 1N1,49.2807328931,-123.1322419823,noodles,1,no,0
Richmond,V6X 4K3,49.1907516909,-123.1332696402,canadian (new),3,free,1
Port Coquitlam,V3C 3B2,49.2612044,-122.7779403,restaurants,1,no,0
Richmond,V7E 3L8,49.124471125,-123.1840202782,restaurants,1,free,0
Richmond,V6X 3X2,49.1862473,-123.1333378,restaurants,1,no,0
North Vancouver,V7L 1B3,49.3095258235,-123.0731797591,breakfast & brunch,2,no,1
Vancouver,V7B 0A5,49.1943054,-123.1749191,restaurants,2,free,0
Port Coquitlam,V3C 3G4,49.2622788,-122.7814687,food,2,free,0
Richmond,V6X 1Z7,49.1967128,-123.0952077,food delivery services,1,free,1
Vancouver,V6R 2G4,49.2633607,-123.1872036,japanese,2,free,0
North Vancouver,V7H 1A6,49.3070211,-123.0173342,cafes,1,free,1
Richmond,V6Y 3Z8,49.163669,-123.134916,restaurants,2,no,0
Surrey,V3R 7V4,49.1865939262,-122.8019652472,restaurants,2,free,0
Vancouver,V6B 1B6,49.2841708,-123.1090542,italian,2,no,0
Vancouver,V6Z 2H1,49.2800601,-123.1252306,japanese,2,no,0
Coquitlam,V3B 7K1,49.28228,-122.8009556,chinese,2,free,0
Vancouver,V6A 2V4,49.2787627,-123.1003603,sandwiches,2,free,1
Richmond,V6X 2M9,49.187373,-123.110501,nightlife,3,free,0
Delta,V4C 6P7,49.1494962127,-122.89091374,nightlife,2,free,0
Delta,V4E 2A9,49.1315671,-122.891824,burgers,1,free,0
Vancouver,V6E 0C6,49.286864419,-123.1243925375,nightlife,4,no,1
Surrey,V3W 2M1,49.1344009,-122.8872066,food delivery services,1,no,0
Delta,V4K 4E2,49.1157814267,-123.0619847651,seafood,2,free,0
Vancouver,V6E 1N4,49.2820547307,-123.1334429224,fast food,1,free,1
Vancouver,V6K 3E5,49.271976,-123.155154,coffee & tea,2,free,1
Richmond,V6X 3Z8,49.1839882,-123.1266499,restaurants,1,free,1
Richmond,V6X 3Z9,49.185119,-123.129476,restaurants,2,no,0
Burnaby,V5H 2E9,49.2245068,-122.9874547,taiwanese,2,no,0
Vancouver,V5Z 2V7,49.2592641,-123.1152031,food,1,no,0
Vancouver,V7X 8A8,49.2864205554,-123.1184095144,american (traditional),2,free,0
Vancouver,V6C 2Y9,49.283923,-123.1183181,american (new),3,free,0
Burnaby,V5M 3Z3,49.264104,-123.022804,nightlife,2,free,0
Vancouver,V5N 4C1,49.2617421,-123.0699298,food,2,free,0
West Vancouver,V7W 3C7,49.35129,-123.253876,food,2,free,1
Richmond,V7B 1M8,49.1959791155,-123.1775758031,food,1,no,0
Port Coquitlam,V3C 3B2,49.26119,-122.778034,restaurants,1,no,0
Vancouver,V6S 0C8,49.2545285,-123.2360941,taiwanese,2,free,0
Vancouver,V5Z 1J5,49.263485,-123.1215336,burgers,1,no,0
Vancouver,V6B 4P4,49.2790041,-123.1131403,nightlife,2,no,0
Vancouver,V5V 3R9,49.2417993,-123.1018127,breakfast & brunch,2,free,0
Vancouver,V5N 2T2,49.2452244,-123.0641417,restaurants,1,free,0
Vancouver,V6Z 1X6,49.2843582,-123.1222877,sandwiches,3,free,0
North Vancouver,V7P 1T2,49.324052972,-123.108411245,desserts,2,free,0
Vancouver,V6E 1V3,49.2867409016,-123.1427178087,restaurants,3,free,0
Vancouver,V5L 1T3,49.2815811,-123.0661289,chinese,2,free,0
Vancouver,V5L 3X6,49.2726167,-123.0692175,specialty food,2,no,0
Vancouver,V6B,49.2829033862,-123.1151818865,food delivery services,1,free,1
Vancouver,V5S 1J9,49.2253486,-123.0535419,restaurants,1,free,0
Richmond,V7B 0A4,49.1951863,-123.1788712,restaurants,2,free,0
Burnaby,V3J 1S3,49.2472353959,-122.893124883,burgers,2,free,0
Vancouver,V6M 1Z1,49.234509,-123.158022,sushi bars,2,no,0
Richmond,V6X 1A5,49.1795863438,-123.1376001772,japanese,1,free,0
Vancouver,V6R 3C4,49.2578401,-123.1859551,restaurants,2,no,1
Vancouver,V5N 4B6,49.2643741,-123.0693441,mediterranean,2,free,1
Vancouver,V5N 4A6,49.267933,-123.0698876,fast food,1,no,0
Vancouver,V6Z 1K7,49.2805623867,-123.1214173472,burgers,1,free,0
Vancouver,V6B 2G5,49.2767546,-123.1259051,restaurants,1,free,0
Surrey,V3T 2W5,49.1887264,-122.8447734587,burgers,1,free,0
North Vancouver,V7P 1T3,49.323709,-123.1073251,restaurants,2,free,0
Burnaby,V5B 1S2,49.2800529992,-122.9665258693,seafood,2,no,1
Vancouver,V5P 3Y7,49.2208258,-123.0660325,restaurants,2,no,0
Vancouver,V5X 3L6,49.211421,-123.1017591,noodles,1,free,0
Vancouver,V5M 3T8,49.2574592,-123.0341578,vietnamese,1,no,1
Vancouver,V5N 4A4,49.2689141,-123.0700145,italian,2,free,0
Vancouver,V5V 3N9,49.2504277,-123.1006395,specialty food,2,free,0
Vancouver,V6T,49.2635076,-123.2555975,coffee & tea,2,free,0
Burnaby,V5G 1G4,49.2544359,-123.0200503,middle eastern,2,free,1
Vancouver,V6Z 1L2,49.2790221,-123.123334,nightlife,1,free,0
Burnaby,V5A 2H4,49.2478768181,-122.940112249,specialty food,1,no,1
New Westminster,V3M 5X2,49.1919697,-122.9488476,pizza,2,free,0
Burnaby,V5A 4Y7,49.2779042,-122.9119487,italian,1,no,0
Vancouver,V6Z 2R6,49.2737153,-123.1234768,restaurants,2,no,0
Vancouver,V5R 5A7,49.2384585,-123.032642,indian,1,no,0
Coquitlam,V3B 0G2,49.2825276,-122.7983416,restaurants,1,free,0
Vancouver,V5T 2R6,49.257273,-123.089984,restaurants,1,free,1
Coquitlam,V3J 1N7,49.2500582025,-122.8924229495,restaurants,1,free,0
Vancouver,V6B 1S9,49.2815573,-123.1108428,cafes,2,free,1
Surrey,V3R 9W9,49.1869915765,-122.8006520422,bars,2,free,0
Vancouver,V6A 1T3,49.2801505,-123.1009936,asian fusion,2,no,0
Vancouver,V6G,49.2912178,-123.1278739,breakfast & brunch,1,free,0
Vancouver,V5L 3W8,49.2759073,-123.0695552,italian,2,no,1
Vancouver,V6T 1K6,49.2673555621,-123.2499334926,breakfast & brunch,1,free,0
Surrey,V3V 4B9,49.1743233,-122.8894698,chinese,2,no,0
Burnaby,V5H 1Z8,49.2310706,-123.0087313,chinese,2,no,0
Vancouver,V6G 1W5,49.286402,-123.1403028,restaurants,2,free,0
Vancouver,V6A 1B8,49.2842019445,-123.1001915385,bars,2,free,1
Vancouver,V6H 3R7,49.2704673,-123.1337891,cafes,2,free,1
Surrey,V3W 1R1,49.151484,-122.865506,restaurants,1,free,1
Richmond,V6V 2L3,49.1800047,-123.0696844,italian,2,free,1
West Vancouver,V7T 2Z3,49.3256091466,-123.1418895721,food delivery services,2,no,0
Burnaby,V5C,49.2809265,-123.0156896,restaurants,1,no,1
North Vancouver,V7J 3S8,49.30827,-123.04139,food,2,no,0
Surrey,V3R 7C1,49.1887149794,-122.8023806422,nightlife,2,free,0
New Westminster,V3L 3X5,49.2308205,-122.8929591,food,2,free,1
Vancouver,V5R 5K6,49.2328713897,-123.0330413193,restaurants,3,free,1
New Westminster,V3L 2B8,49.222595,-122.914629,chicken wings,2,free,0
Vancouver,V5L 4T6,49.272606,-123.0561507,coffee & tea,1,no,1
Richmond,V6X 1C3,49.1785932013,-123.1279344979,cafes,2,free,1
Coquitlam,V3J 7C7,49.2498388,-122.8644568,pizza,2,free,1
Burnaby,V5C,49.2809265,-123.0156896,food,1,no,1
Vancouver,V6J 5L1,49.2823221457,-123.1346147395,breakfast & brunch,2,free,1
Vancouver,V6B 2B7,49.2805271,-123.1187971,restaurants,2,free,1
Vancouver,V6E 1B2,49.285261,-123.1261391,restaurants,3,free,1
Vancouver,V6G 1C9,49.2906798162,-123.1338321324,food,1,free,0
Vancouver,V5Z 2W5,49.2555333,-123.1147493,restaurants,2,no,0
Vancouver,V6J 1W6,49.2638715,-123.1404594,coffee & tea,1,free,0
Vancouver,V6H 3R9,49.272322,-123.1347076,restaurants,2,no,0
Vancouver,V5N 1W3,49.2619301,-123.0686894,sandwiches,2,no,0
Richmond,V7B 1K7,49.1937338837,-123.1806505099,fast food,2,free,0
Richmond,V6X 2C2,49.1809898887,-123.1350279642,food,2,free,1
Vancouver,V6H 2V2,49.263255,-123.136615,food delivery services,1,no,0
Burnaby,V5C,49.281274,-123.00194,pizza,2,free,0
Vancouver,V6H 3R5,49.2712624,-123.1357429,nightlife,3,free,0
Vancouver,V6G 3J2,49.2903006867,-123.1289233852,food,1,free,1
Vancouver,V5Z 3Y2,49.2634869,-123.1200891,bars,2,free,0
Richmond,V6X 1A5,49.1707776,-123.1463994,bars,3,free,0
Vancouver,V6A 1E9,49.2835428,-123.1038877,nightlife,2,free,0
New Westminster,V3L 3C5,49.214855,-122.922433,food,1,no,1
Richmond,V6X 0A4,49.183849,-123.133721,chinese,1,free,0
Vancouver,V6E 1N1,49.2814845,-123.1329239,restaurants,1,free,0
Vancouver,V6Z 1L4,49.2792602,-123.1232875,pizza,1,no,0
Vancouver,V6G 1P5,49.2884710355,-123.139231503,coffee & tea,2,free,0
Burnaby,V5G 2G4,49.223115,-122.982139,american (traditional),2,free,0
Burnaby,V5A 4R4,49.254281,-122.918005,sandwiches,2,no,0
Vancouver,V5L 1T9,49.2814297,-123.0633912,food,2,no,1
Coquitlam,V3E 1K9,49.2782526718,-122.8112363735,restaurants,2,free,1
New Westminster,V3M 6B9,49.2000834966,-122.9113744655,food delivery services,2,free,1
Richmond,V6X 3K4,49.1913937,-123.1144173,american (traditional),2,free,0
Vancouver,V5P 3Y8,49.2207308,-123.0658322,pizza,2,no,0
Vancouver,V6R 2H9,49.2636989,-123.2087306,restaurants,2,no,0
Vancouver,V6G 2M8,49.2883888,-123.139882,pizza,1,free,0
Vancouver,V6G,49.2917365,-123.1353449,restaurants,2,no,1
Vancouver,V6J 5N2,49.2742938898,-123.1536698341,restaurants,2,free,0
Vancouver,V5X 3T6,49.2239119,-123.0910513,indian,1,free,1
Vancouver,V6C 2E8,49.2851773,-123.1180985,restaurants,2,free,0
Vancouver,V6G 2M9,49.2876782,-123.1410182,mediterranean,1,no,0
Richmond,V6X 1L5,49.184294,-123.094726,burgers,1,free,0
Burnaby,V5B 1S2,49.2801577867,-122.9665958174,fast food,1,no,0
Vancouver,V6B 1V5,49.2838187,-123.1131301,fast food,1,free,0
Richmond,V6X 3V7,49.179908018,-123.1354522705,chinese,2,no,0
Vancouver,V6E 1N1,49.2810568,-123.1327804,canadian (new),2,free,0
Vancouver,V6B 1S5,49.2811968,-123.1080484,japanese,2,free,0
Vancouver,V5T 1C7,49.2683832324,-123.1016584085,sandwiches,1,no,1
Richmond,V7E 1G9,49.1443149,-123.1596755,pizza,1,paid,0
Vancouver,V6M 1Y8,49.2344127,-123.152959,noodles,2,free,0
North Vancouver,V7L 3G8,49.3121782,-123.0772003,restaurants,2,no,1
Richmond,V6X 2X9,49.175851,-123.132316,restaurants,1,free,0
Burnaby,V5C 2J6,49.280907,-123.0112248,cafes,1,free,0
New Westminster,V3L 1A9,49.2040957419,-122.9065599086,restaurants,2,no,0
Vancouver,V6G 2J6,49.2905691,-123.1333951,japanese,2,no,1
Vancouver,V5X 2P7,49.2118278,-123.0913871,food delivery services,2,no,1
Bowen Island,V0N 1G2,49.3795289,-123.3354819,italian,2,no,1
Vancouver,V7Y 0A2,49.2822541577,-123.1196801569,canadian (new),2,free,0
New Westminster,V3L 0E3,49.2250086337,-122.8926249527,american (new),2,free,0
New Westminster,V3M 1A2,49.2022362,-122.9086185,restaurants,2,free,1
Port Moody,V3H 5N1,49.2800681,-122.8288236,japanese,2,no,0
Vancouver,V6B 2B2,49.2793149,-123.1166865,mediterranean,1,no,0
Vancouver,V5T 1E8,49.2672748,-123.1032884,sandwiches,2,free,1
Vancouver,V6A 2Z9,49.2786667,-123.0987197,restaurants,2,free,0
Vancouver,V6E 1C1,49.286163,-123.127549,desserts,1,free,1
Vancouver,V6E 3Y4,49.2858604,-123.1274591,nightlife,2,free,0
Vancouver,V5M 1Y9,49.2622628992,-123.0448088845,noodles,2,free,1
Burnaby,V5B 1R4,49.2806944,-122.9817086,sushi bars,2,free,0
Burnaby,V3J 7T9,49.2540374057,-122.8942786185,restaurants,2,free,0
Burnaby,V5E 3R7,49.2232971191,-122.9431762695,japanese,2,no,0
Richmond,V6X 1S3,49.1922921571,-123.1161964642,food,1,free,0
Vancouver,V6C 3B2,49.28628,-123.1173056,canadian (new),2,free,0
Vancouver,V6M 3X1,49.2359557748,-123.1556402112,restaurants,2,free,0
Vancouver,V6E 1N1,49.2808497,-123.132393,restaurants,2,free,1
Vancouver,V6P 3E7,49.2040721,-123.1349289,breakfast & brunch,1,free,1
Vancouver,V6B 1L6,49.2845498,-123.1123772,vietnamese,1,free,0
Delta,V4C 6P7,49.1494962127,-122.89091374,bars,2,free,0
New Westminster,V3M 1E6,49.2022885,-122.912571,restaurants,1,free,1
Vancouver,V6R,49.2636161,-123.208092,food delivery services,2,free,0
Vancouver,V6A 4C1,49.272541,-123.0958166,food,2,free,1
Vancouver,V6E 3P2,49.2854715807,-123.121563511,fast food,1,free,0
Coquitlam,V3B 0G5,49.2825548,-122.7974259,restaurants,2,no,0
Surrey,V3R 7B9,49.1901568303,-122.8051346197,american (traditional),2,free,0
Burnaby,V5A 2S8,49.2582307071,-122.9554634945,food,2,free,0
North Vancouver,V7M 1E7,49.3139297,-123.079034,indian,2,free,1
Coquitlam,V3K 3V8,49.245133,-122.8921847,american (new),2,paid,0
New Westminster,V3L 3C3,49.2141317,-122.9218109,restaurants,2,no,0
New Westminster,V3L 1V3,49.2130606,-122.9199506,food,1,no,1
Vancouver,V6A 1X6,49.279338,-123.097946,korean,1,free,0
Surrey,V3T 2W6,49.1880318,-122.8455539,food,1,free,0
Vancouver,V6C,49.2870149,-123.1144564,mediterranean,2,no,1
Richmond,V7B 1M8,49.1959791155,-123.1775758031,breakfast & brunch,1,no,0
Vancouver,V5N 2T3,49.2445738,-123.0645772,restaurants,1,free,1
Burnaby,V3N 2S9,49.2307988637,-122.906421553,restaurants,1,no,1
West Vancouver,V7V 1J5,49.328816,-123.161191,nightlife,3,free,1
Vancouver,V6B 6J5,49.2747444489,-123.119038747,food,3,free,0
Vancouver,V6S 2G6,49.2487365233,-123.185229376,food delivery services,2,free,1
Vancouver,V6K 2H2,49.264347,-123.178896,restaurants,2,free,0
Richmond,V7E 2K5,49.1340694,-123.1691498,nightlife,2,free,0
Burnaby,V5E 1E9,49.2184656,-122.9564875,fast food,1,free,0
Vancouver,V6P 6L6,49.2047443,-123.1306627,breakfast & brunch,2,free,0
Surrey,V3T 2V4,49.1778418,-122.84516,restaurants,3,no,0
Vancouver,V6B 1A9,49.2764158,-123.1195458,canadian (new),3,free,0
Port Coquitlam,V3C 3G2,49.2618083415,-122.7817782052,fast food,1,free,1
Vancouver,V5M 2C9,49.2578961,-123.0459972,restaurants,2,no,0
Coquitlam,V3K 3P5,49.248609,-122.8618357,food,1,no,0
Richmond,V6X 3J3,49.170937,-123.139586,restaurants,2,free,1
New Westminster,V3L 2B8,49.222595,-122.914629,pizza,2,free,0
Vancouver,V5L 4R7,49.2814954375,-123.0562116417,sushi bars,2,no,0
Richmond,V6X 1K8,49.1836885,-123.1043022,bars,2,free,0
Vancouver,V6M 1Z6,49.2348484,-123.1565687,japanese,2,no,1
Surrey,V3W 2M1,49.1343801,-122.8895531,indian,2,no,0
Surrey,V3R 4G5,49.183557,-122.8015222,food,2,no,1
Burnaby,V5G 4X8,49.2552858923,-122.9942737895,restaurants,1,free,0
Burnaby,V5C 6R5,49.2669375,-123.0068911,coffee & tea,1,free,1
Vancouver,V5N 2T5,49.2427418933,-123.0604252809,vietnamese,1,free,1
Vancouver,V5R 5J3,49.2358932214,-123.0447306,restaurants,1,no,0
Vancouver,V6K 2E3,49.2637482974,-123.1568285581,food,1,free,0
Richmond,V6X 3K5,49.1723682,-123.1326865,restaurants,2,no,0
North Vancouver,V7P 2S2,49.322767,-123.1074589,nightlife,2,free,1
Surrey,V3T 4Y8,49.1899732,-122.8469059,chinese,1,no,0
Surrey,V3R 1V9,49.1990817,-122.8133497,specialty food,2,no,1
Burnaby,V5J 1C4,49.2218507521,-122.9946551267,restaurants,2,no,0
North Vancouver,V7P 3E5,49.32371,-123.1109959,restaurants,1,free,0
Vancouver,V6B 1N3,49.283376,-123.116445,nightlife,3,free,0
Vancouver,V5R 4G6,49.2398062,-123.0299092,japanese,2,free,0
Vancouver,V6K 1P2,49.2684244908,-123.1594542098,burgers,1,free,0
Richmond,V6X 3Z9,49.1849827887,-123.1301142112,bars,2,no,0
Burnaby,V5C 2K2,49.2805558,-123.0043694,restaurants,2,free,0
Richmond,V6X 2A4,49.1773391,-123.1388746,restaurants,3,free,1
Burnaby,V5C 1R3,49.2812542,-123.0147065,sandwiches,2,no,0
Vancouver,V6B 1C1,49.2752965096,-123.113096506,bars,3,free,0
Vancouver,V5L 3X4,49.273708,-123.069271,breakfast & brunch,2,free,0
Burnaby,V5E 1C5,49.2188919,-122.9685771,pizza,2,free,0
Vancouver,V6T 1Z3,49.2660058,-123.2464028,coffee & tea,2,free,0
Vancouver,V6Z 2R6,49.273931,-123.122739,chicken wings,1,no,0
Vancouver,V5T 2R7,49.2567896,-123.0892261,restaurants,1,free,1
Richmond,V6X 2K5,49.178367,-123.120998,restaurants,2,no,0
Vancouver,V6T 1X5,49.2649052161,-123.2279334767,canadian (new),2,no,0
Richmond,V6Y,49.168367,-123.139141,chinese,1,free,0
Vancouver,V6J 1G5,49.2704658,-123.1460774,restaurants,1,free,1
Vancouver,V5Z 1E6,49.263406,-123.1162947,restaurants,1,free,0
West Vancouver,V7V 1J5,49.328816,-123.161191,italian,3,free,1
Coquitlam,V3K 3N9,49.2493694,-122.8678328,korean,2,free,0
Vancouver,V5Z 1S7,49.2569247,-123.1212865,pizza,2,free,1
West Vancouver,V7T 0A5,49.326771,-123.13759,nightlife,2,free,0
Port Moody,V3H 5N1,49.2800681,-122.8288236,restaurants,2,no,0
Vancouver,V5V 3E4,49.2500737,-123.0764242,coffee & tea,2,free,0
Vancouver,V7X 8A8,49.2864205554,-123.1184095144,restaurants,2,free,0
Surrey,V3R 8X8,49.1857466,-122.8008252,food,2,free,0
Richmond,V6X 2V1,49.1842679432,-123.0914044215,restaurants,2,no,0
North Vancouver,V7H 2Y4,49.3176359,-122.9697966,food,2,free,1
Richmond,V6Y 2B6,49.1668313,-123.1377469,sushi bars,2,free,0
Vancouver,V5R 6C9,49.2372008,-123.0327046,desserts,2,free,1
Vancouver,V6Z,49.2777222,-123.1278294,salad,2,free,1
Richmond,V6X 2C2,49.1813728,-123.135898,noodles,1,no,0
Richmond,V6X 1A7,49.1707057,-123.1323409,barbeque,3,free,0
Vancouver,V6G 1C7,49.2897845,-123.1332582,restaurants,2,free,0
New Westminster,V3M 5B8,49.1904232,-122.9362717,restaurants,2,free,1
Vancouver,V6B 6N8,49.2808066,-123.1072713824,food,1,free,0
North Vancouver,V7M 2J7,49.3251341,-123.0719953,breakfast & brunch,2,free,0
Burnaby,V5H 1Z9,49.231211,-123.0071369,korean,2,free,0
Burnaby,V5A 1S6,49.2787975076,-122.919394571,food,1,free,0
Vancouver,V6J 1M4,49.2680701,-123.1475085,burgers,2,free,0
Vancouver,V5L 4T9,49.2701941,-123.0569066,chinese,1,no,1
Vancouver,V5P 2V9,49.2257184,-123.0778229,indian,2,no,1
Vancouver,V5T 3H9,49.2634464769,-123.1002470826,fast food,1,free,1
Coquitlam,V3E 1K9,49.2783159,-122.8145051,restaurants,2,free,1
Burnaby,V5A 4Y7,49.2779831396,-122.9117691144,food,2,no,1
Vancouver,V5L 3X6,49.2730136,-123.0695684,food,1,free,0
Surrey,V3W 3N3,49.1506087806,-122.8886958031,restaurants,2,free,0
Burnaby,V3J 1N4,49.2515572,-122.8967141,american (traditional),2,free,0
Burnaby,V5G 3H5,49.2425291,-123.0040373331,restaurants,2,free,0
Richmond,V6Y 2C6,49.1616329395,-123.1358909659,food,1,free,0
Burnaby,V5H 1P6,49.2314049409,-123.0056047378,taiwanese,2,free,0
Richmond,V6X 3M7,49.1779775,-123.125504,restaurants,2,free,0
Vancouver,V6J 1W6,49.2638869,-123.140205,food,1,free,0
Vancouver,V6E 2Y2,49.2852040237,-123.1228062802,coffee & tea,3,free,0
Vancouver,V6Z 2S5,49.2797478,-123.1267408,restaurants,2,no,0
Vancouver,V6J 1N3,49.2682200042,-123.151621297,restaurants,2,free,0
Vancouver,V6Z 2H1,49.2800601,-123.1252654,american (new),2,free,0
Port Coquitlam,V3C 1T6,49.2656819419,-122.786555551,restaurants,1,no,1
Burnaby,V5G 1H3,49.2551636,-123.0087893,cafes,1,free,0
Richmond,V7E 3A2,49.1259864,-123.1860233,restaurants,2,free,1
Richmond,V7B 1M8,49.1959791155,-123.1775758031,burgers,1,no,0
Vancouver,V6H 3R9,49.2727014,-123.1352146,food,1,no,1
Vancouver,V6B 1S9,49.2815573,-123.1108428,chinese,1,paid,0
Vancouver,V6P 4G2,49.2055267,-123.131172503,american (new),2,free,0
Richmond,V7C 4N1,49.1742090734,-123.1489970371,dim sum,3,no,0
Vancouver,V6B 6C1,49.2800759,-123.1083327,food,1,free,1
North Vancouver,V7M 2E5,49.3117351,-123.0790894,seafood,2,no,1
Vancouver,V6B 1V2,49.2831764,-123.1122509,sandwiches,2,free,1
New Westminster,V3M 4K3,49.2114526,-122.9357154,restaurants,2,no,1
Vancouver,V6A 1B8,49.2842019445,-123.1001915385,canadian (new),2,free,1
North Vancouver,V7M 3K7,49.3099559716,-123.0821187925,seafood,1,no,1
Delta,V4E 3G3,49.119871,-122.8924641,food,2,free,0
North Vancouver,V7M 2E4,49.3109167,-123.0799962,breakfast & brunch,2,no,1
Vancouver,V5K 2A8,49.2813471028,-123.0274413899,breakfast & brunch,2,no,1
Vancouver,V6H 3S2,49.2724508746,-123.1358542414,restaurants,1,no,1
Richmond,V6Y 4B4,49.169068,-123.134006,noodles,2,free,0
Vancouver,V5P 3V1,49.2379826,-123.0658151,breakfast & brunch,1,free,0
Vancouver,V6Z 1V3,49.2808844,-123.1246278,sushi bars,2,no,1
Richmond,V7A 1M5,49.1331066,-123.1232971,chinese,2,no,0
New Westminster,V3M 6V4,49.2029257,-122.9108691,breakfast & brunch,1,free,1
Vancouver,V6A 1P7,49.281485,-123.0948316,restaurants,2,free,1
Burnaby,V5G 1G6,49.2549263,-123.0195599,restaurants,2,free,0
Vancouver,V6Z 2H1,49.2800601,-123.1252306,restaurants,2,no,0
Vancouver,V6H 3R9,49.2727209,-123.1355203,delis,1,no,1
Vancouver,V6P 4Z5,49.2126959119,-123.1404929059,desserts,1,free,1
Delta,V4K E2,49.1117375,-123.0526096,mediterranean,2,free,1
Richmond,V6X 2C7,49.1757599214,-123.1317481399,restaurants,1,free,0
West Vancouver,V7W 3C7,49.35129,-123.253876,pizza,2,free,1
Vancouver,V6E,49.2847213,-123.1242343,sushi bars,2,free,0
Vancouver,V5P 3W6,49.2324182,-123.0652523,restaurants,2,free,0
Vancouver,V5T 0C1,49.2591330651,-123.100884781,coffee & tea,1,free,1
Vancouver,V5N 2T2,49.2452244,-123.0641417,food,1,free,0
Burnaby,V3N 4R7,49.243618,-122.8933,korean,2,free,0
Vancouver,V5Z 2W6,49.2554815577,-123.1153226271,sushi bars,2,free,0
Burnaby,V5H 4W2,49.2280567,-122.9973696,chinese,2,free,0
Vancouver,V6A 1G9,49.2828319,-123.0919338,restaurants,2,free,0
Vancouver,V5X 3G9,49.2254629,-123.1012332,coffee & tea,2,free,0
Burnaby,V5J,49.1986522193,-122.9800582399,vietnamese,1,no,0
Burnaby,V5C 6N4,49.2654094,-123.0196014,american (new),2,free,0
Vancouver,V6G 1C8,49.2914352,-123.1353494,food,1,free,1
North Vancouver,V7M 2K3,49.3266961,-123.0725536,restaurants,2,free,0
Vancouver,V6Z 2Y3,49.2733234,-123.119583,seafood,3,no,0
Richmond,V6X 1Z7,49.1967744,-123.0952077,restaurants,1,no,0
Delta,V4C 2P5,49.134648597,-122.8913768692,canadian (new),2,free,0
New Westminster,V3M 1C4,49.200446,-122.9176667,breakfast & brunch,2,free,0
New Westminster,V3M 5B8,49.1904232,-122.9362717,breakfast & brunch,2,free,1
Vancouver,V6P 4Z8,49.2120085,-123.1408187,restaurants,1,no,0
Surrey,V3R 7V4,49.1865939262,-122.8019652472,korean,2,free,0
Delta,V4C 2P5,49.134648597,-122.8913768692,breakfast & brunch,2,free,0
Burnaby,V5E 2H7,49.2812457,-123.018888,specialty food,2,no,1
Vancouver,V6Z 1W5,49.276991,-123.1301021,restaurants,3,no,1
Vancouver,V5L 3X6,49.2726167,-123.0692175,restaurants,2,no,0
Richmond,V6Y 2B7,49.1667685464,-123.1377336503,food,2,free,0
Surrey,V3T 1H9,49.1847851,-122.8441387,japanese,2,free,0
North Vancouver,V7J 3S8,49.3094859,-123.0426323,breakfast & brunch,2,free,0
Vancouver,V6A 1T3,49.280294,-123.1015,chinese,2,no,1
Vancouver,V6R 3R8,49.2642329148,-123.1847000368,restaurants,1,free,1
Vancouver,V5V 3E1,49.2511311,-123.0785381,restaurants,2,free,1
Richmond,V7B 1W4,49.1772983188,-123.1682430322,american (traditional),2,no,0
Vancouver,V5N 2T3,49.2443598,-123.0641388,restaurants,1,no,0
New Westminster,V3L 3B3,49.2114757572,-122.918422905,restaurants,1,no,0
Vancouver,V6E 1V8,49.2846269,-123.124273,bars,2,free,0
Burnaby,V5B 2Y1,49.2656111505,-122.9788360714,restaurants,2,free,1
Vancouver,V6M 2A3,49.2348041,-123.1591358,restaurants,2,free,1
Vancouver,V6E 1A5,49.2857595,-123.1250009,coffee & tea,1,free,0
Vancouver,V6G 2M8,49.288479,-123.1397769,noodles,2,free,1
North Vancouver,V7G 1K8,49.3270437,-122.9515709,cafes,2,free,1
Vancouver,V6T 1Z4,49.2618141,-123.2552567,american (new),2,free,0
Richmond,V6X 2C2,49.1827583313,-123.1342544556,vietnamese,1,free,0
Vancouver,V6A 3W9,49.2721641377,-123.0978167058,food,1,free,0
Vancouver,V5X 3H1,49.224847,-123.1018635,restaurants,2,free,0
Vancouver,V6G 1C8,49.289849,-123.132666,korean,2,free,0
Coquitlam,V3B 6J6,49.2749829,-122.7930439,restaurants,2,free,0
Vancouver,V5M 0C4,49.2595264758,-123.0433099036,vegetarian,2,free,0
Port Coquitlam,V3C 3G2,49.2618083415,-122.7817782052,restaurants,1,free,1
Vancouver,V6E,49.2860544973,-123.1229372446,cafes,2,free,1
Burnaby,V3J 1M2,49.2532773,-122.8984007,restaurants,2,free,1
North Vancouver,V3S 2W4,49.312671,-123.082117,pizza,2,free,0
Vancouver,V6J 5L1,49.26864,-123.2561281,canadian (new),2,free,0
North Vancouver,V7M 2J7,49.3251341,-123.0719953,restaurants,2,free,0
Vancouver,V6T 1Z1,49.2666322261,-123.2499224511,food,1,free,0
Port Coquitlam,V3C 3B5,49.261959,-122.7783008,cafes,1,free,0
Vancouver,V6E 1N1,49.2806316,-123.1321013,restaurants,2,no,0
Vancouver,V6B 2X6,49.2760871,-123.1218043,coffee & tea,1,free,0
North Vancouver,V7P 2M4,49.3231065042,-123.1019105084,restaurants,2,free,1
Vancouver,V6K 3V9,49.2682121,-123.1668536,restaurants,1,no,1
Vancouver,V5Z 2V9,49.2579297,-123.1146171,sushi bars,2,no,1
Burnaby,V5C 6N4,49.2654094,-123.0196014,nightlife,2,free,0
Burnaby,V3N 4R7,49.2445138997,-122.8946823674,restaurants,1,no,1
Surrey,V3T 4H4,49.191405,-122.840415,specialty food,2,free,1
Vancouver,V7Y 1K8,49.2802779,-123.1041903,mexican,1,no,0
Richmond,V6X 1C3,49.1786138765,-123.1286479963,pizza,1,no,1
Vancouver,V6C 1A3,49.2855968,-123.1150907,sandwiches,2,no,0
Port Coquitlam,V3C 6K5,49.2662329561,-122.7769331719,canadian (new),2,free,0
Richmond,V6X 3Z9,49.1856245798,-123.1304538958,dim sum,2,no,0
Richmond,V6Y 2C1,49.1630197,-123.1363709,restaurants,1,no,0
New Westminster,V3M 7A3,49.1863035,-122.9561838,pubs,2,free,0
Vancouver,V5L 4E2,49.2792444,-123.0654808,food,2,no,1
Vancouver,V6H 3R9,49.2727014,-123.1352146,pizza,1,no,1
Surrey,V3R 5X4,49.191552,-122.813703,dim sum,2,no,0
Richmond,V6Y 0C2,49.1685173061,-123.1369059473,chinese,1,no,1
Vancouver,V6B 0E7,49.2790124212,-123.1165810996,chinese,1,no,0
Surrey,V3T 2W5,49.1902819,-122.8450144,restaurants,2,free,1
North Vancouver,V7P 1M4,49.3219292,-123.1045816,restaurants,1,free,1
Vancouver,V6J 1M7,49.2682575,-123.1488595,asian fusion,2,no,1
Richmond,V6Y 2B8,49.1657233051,-123.1377390162,cafes,1,free,0
Coquitlam,V3E 1J7,49.2838747028,-122.810149566,restaurants,2,no,0
Vancouver,V6Z 1A1,49.2819092,-123.1208845,food,1,no,1
Surrey,V3W 3K2,49.162746,-122.866827,restaurants,1,no,1
Richmond,V6X 2C2,49.1804032,-123.1359652,dim sum,2,free,0
Vancouver,V5V 4G3,49.2463493556,-123.0899834633,cafes,1,free,1
North Vancouver,V7L 1C3,49.3113387,-123.0747985,sushi bars,2,free,1
Surrey,V3W 0R6,49.1435629,-122.8665239,restaurants,1,no,0
North Vancouver,V7J 3K2,49.3431653,-123.0187511,coffee & tea,1,free,1
Delta,V4E 3G3,49.1204259,-122.8906965,restaurants,1,no,0
Vancouver,V6C 2G2,49.2852611,-123.1187535,restaurants,2,no,0
Vancouver,V6J 1C9,49.2725982666,-123.1491928101,bars,2,free,0
Richmond,V6X 1R2,49.191785,-123.1096161,korean,2,no,0
West Vancouver,V7N 3N9,49.3951214393,-123.2032477856,food,2,free,1
North Vancouver,V7M 1A3,49.312055,-123.081012,restaurants,2,free,1
North Vancouver,V7G 1L1,49.326692,-122.9504397,restaurants,2,free,0
Vancouver,V6C 2W6,49.2837454,-123.1207825,bars,3,free,0
Vancouver,V5N 4A4,49.2691136,-123.0698262,food,1,no,1
Vancouver,V6B 1R2,49.2750725,-123.1227615,restaurants,2,free,0
North Vancouver,V7R 4J1,49.3427831728,-123.1143312202,food,2,free,1
Burnaby,V5B 1S3,49.2802273,-122.9655966,chinese,1,no,0
Vancouver,V6Z 2Z4,49.2736116,-123.1183902,desserts,2,free,0
Vancouver,V5N 4A7,49.2674084,-123.0695006,restaurants,1,free,1
Burnaby,V3N 4J5,49.2443248188,-122.8947572718,restaurants,2,no,0
Vancouver,V5Y 3L1,49.2632037459,-123.110469593,food,2,free,1
Vancouver,V6E 1M3,49.2794552,-123.1299886,restaurants,1,no,0
Vancouver,V5Z 1J5,49.263485,-123.1215336,restaurants,1,no,0
North Vancouver,V7M 3K7,49.3102265171,-123.0819049048,specialty food,2,free,0
Burnaby,V5H 4V2,49.2290734,-123.0048795,cafes,1,no,0
Coquitlam,V3K 6G3,49.236912146,-122.8528999949,sushi bars,2,no,0
Vancouver,V5W 3A1,49.228313,-123.0904919,middle eastern,1,no,0
Vancouver,V6C 2E8,49.2851773,-123.1180985,indian,2,free,0
Port Coquitlam,V3B 3N6,49.2727771477,-122.7566013853,japanese,1,no,1
North Vancouver,V7R 2X4,49.3374616,-123.102415,restaurants,2,no,1
Vancouver,V6T 1Z1,49.2662954015,-123.2496202761,pizza,1,free,0
Vancouver,V5V 3P6,49.2484971,-123.1014653,canadian (new),2,free,0
Richmond,V7B 1K6,49.1918847835,-123.1689492437,cafes,1,free,0
Surrey,V3W 3M5,49.119977,-122.8898406,mediterranean,2,no,0
Vancouver,V6J 5L8,49.2621953142,-123.1528177074,restaurants,1,no,1
Vancouver,V6E 3P2,49.2854715807,-123.121563511,food,1,free,0
Surrey,V3W 0R6,49.1435629,-122.8665239,fast food,1,no,0
Vancouver,V6B 1H7,49.2826255017,-123.1093368311,chicken wings,1,no,1
New Westminster,V3M,49.201121,-122.914047,cafes,1,free,1
Vancouver,V5Y 2A1,49.2554079,-123.1149547,noodles,2,no,0
Coquitlam,V3J,49.2471019412,-122.8906130096,restaurants,2,no,0
West Vancouver,V7T 2Z3,49.3261932,-123.1365266,restaurants,2,no,0
West Vancouver,V7T 0A5,49.3264502785,-123.139376289,restaurants,2,free,0
Vancouver,V6M 4J7,49.2340907,-123.14012,restaurants,2,free,1
Vancouver,V5L 3W9,49.2750233,-123.0692198,pizza,1,no,0
Vancouver,V6G 1C7,49.2896692,-123.1331898,chinese,2,no,0
Vancouver,V6E 1N2,49.2813044,-123.1322248,chicken wings,1,no,0
Vancouver,V6E 3Y4,49.2858604,-123.1274591,sushi bars,2,free,0
Vancouver,V5V 4E9,49.2478619,-123.0903443,restaurants,2,free,1
Vancouver,V6B 6L4,49.2800427278,-123.1084868116,italian,2,no,1
Burnaby,V5C 5C2,49.2668944348,-123.0059874058,burgers,2,free,0
New Westminster,V3L 3B3,49.2114757572,-122.918422905,bakeries,1,no,1
Vancouver,V5N 1L4,49.2661487,-123.0694056,food,1,free,1
Vancouver,V5X 3T4,49.224886,-123.091114,chinese,2,no,0
Richmond,V6X 3V9,49.1872714,-123.1241674,food,1,no,0
Vancouver,V5R 5H2,49.2393614,-123.0531503,restaurants,2,free,1
Vancouver,V5Z 2W8,49.2543709,-123.1149523,restaurants,2,free,0
Burnaby,V5G 3E3,49.2564946967,-123.0071976649,food,2,free,0
Coquitlam,V3K 3P5,49.2486594,-122.8587547,asian fusion,2,free,1
Richmond,V7E 3M3,49.1241798712,-123.1828900526,restaurants,1,free,0
West Vancouver,V7W 2B8,49.3739142235,-123.2744347414,canadian (new),2,no,0
Vancouver,V6M 2B4,49.233934,-123.1536898,restaurants,2,no,1
Burnaby,V5J 1P8,49.1980174,-122.9786494,restaurants,2,free,1
Port Coquitlam,V3C 3B2,49.26119,-122.778034,pizza,1,no,0
Vancouver,V5P 1J8,49.2329786,-123.0760497,american (traditional),2,free,0
Vancouver,V5R 5G9,49.2399914862,-123.0547445623,chicken wings,2,free,1
New Westminster,V3M 7A3,49.1863035,-122.9561838,restaurants,2,free,0
North Vancouver,V7M 2K4,49.3279205,-123.0724458,korean,2,no,0
Vancouver,V5V 3P6,49.2484971,-123.1014653,breakfast & brunch,2,free,0
Port Moody,V3H 2C8,49.27638893,-122.8352131733,fast food,1,free,0
Surrey,V3W 2M6,49.1332413001,-122.8736311197,restaurants,1,free,0
Vancouver,V5T 3G3,49.2589048,-123.100842,restaurants,2,no,0
Coquitlam,V3E 1K9,49.2783264,-122.8096052,bars,2,free,0
Vancouver,V6B 4N6,49.2846966,-123.1119349,american (traditional),4,no,0
Vancouver,V6K 2C8,49.2637073657,-123.1534552574,japanese,2,free,1
Vancouver,V6E 1N2,49.2815208194,-123.1326157705,food,1,free,0
Vancouver,V5V 4E4,49.2498702,-123.0896868,sushi bars,2,free,1
Vancouver,V6G 1E2,49.2911559687,-123.1354170713,restaurants,2,free,0
Vancouver,V6A 2P8,49.2635755359,-123.1333589133,sandwiches,2,no,0
Vancouver,V6C 1J8,49.285638,-123.11634,food,2,free,1
Vancouver,V6K 2G9,49.2643597,-123.1722978,restaurants,2,no,1
Burnaby,V5G,49.2495463,-123.0191575,delis,2,no,0
Port Moody,V3H 2B7,49.277144,-122.850474,restaurants,2,free,0
Vancouver,V5Z 2M9,49.2491609,-123.1274393,delis,2,free,0
Richmond,V6X 2C4,49.1817704,-123.1349831,chinese,1,no,0
North Vancouver,V7M 2E4,49.3108061,-123.0797624,mediterranean,2,free,1
Vancouver,V6G 2L7,49.2910804,-123.1364574,barbeque,2,free,1
Burnaby,V3J 1M9,49.251423,-122.902052,american (traditional),2,free,0
Vancouver,V6T,49.2635076,-123.2555975,food,2,free,0
Richmond,V7E 3A3,49.125208,-123.1834819,restaurants,1,free,0
Vancouver,V6E 1M5,49.2798428,-123.1297261,bars,2,free,1
Vancouver,V6G 1C9,49.2906701,-123.1339159,restaurants,2,no,1
Lions Bay,V0N 2E0,49.4596238,-123.2360317,cafes,1,free,1
Vancouver,V5P 1J8,49.2329786,-123.0760497,burgers,2,free,0
Vancouver,V5T 2R6,49.2573026533,-123.0903615826,cafes,1,free,1
Vancouver,V5L 3X4,49.2735354,-123.0692475,nightlife,2,free,0
Vancouver,V5M 2E1,49.2584949,-123.0451062,seafood,2,no,0
Richmond,V6X 2C2,49.183023,-123.135604,chinese,2,no,0
New Westminster,V3L 2B8,49.222595,-122.914629,restaurants,2,free,0
Vancouver,V6E 4A6,49.2867472,-123.1227744,salad,1,free,0
Vancouver,V5T,49.2609143,-123.1008146,bars,2,free,0
Vancouver,V6H 3R9,49.272141,-123.134944,seafood,2,no,0
West Vancouver,V7T 2Z3,49.3256091466,-123.1418895721,nightlife,2,no,0
Vancouver,V6T 1Z3,49.2660058,-123.2464028,restaurants,2,free,0
Vancouver,V5Z 3J2,49.263047,-123.117827,food,2,free,0
Richmond,V7B 1Y7,49.1972558564,-123.1743979454,bars,2,free,0
Richmond,V7B,49.1975921561,-123.1387691572,restaurants,2,free,0
Vancouver,V6Z 1M7,49.2758861319,-123.1277246251,nightlife,2,free,0
Richmond,V6X 2C2,49.1827583313,-123.1342544556,food,1,free,0
Vancouver,V5V 3P9,49.2474396,-123.1009578,pizza,2,free,0
Vancouver,V6H 4C1,49.2638726,-123.1342629,pizza,2,free,0
Vancouver,V6K 2G1,49.263817942,-123.1632873319,american (traditional),2,free,0
Vancouver,V6T,49.2635076,-123.2555975,italian,2,free,0
New Westminster,V3M 6V4,49.2026978,-122.9108987,restaurants,1,no,1
Vancouver,V6M 4H1,49.2391439,-123.1318942,food,2,free,0
Vancouver,V6P 3E7,49.2040721,-123.1349289,food,1,free,1
Burnaby,V5C 6R5,49.2669375,-123.0068911,food,1,free,1
Vancouver,V6Z 2A9,49.2797441,-123.1236718,restaurants,2,free,0
North Vancouver,V7J 3S8,49.30827,-123.04139,specialty food,2,no,0
Vancouver,V6M 4B8,49.2344941012,-123.1613949314,salad,2,free,0
Richmond,V6X 1R3,49.1876487732,-123.130897522,chinese,1,free,0
Vancouver,V6K 1P8,49.2684762,-123.1647896,restaurants,3,no,0
Burnaby,V5H 4J2,49.2264590993,-123.0004830847,restaurants,1,no,0
Vancouver,V6B 2J1,49.2831869855,-123.1044501409,restaurants,3,free,1
Vancouver,V6R 4L9,49.2756627699,-123.2015657581,american (traditional),2,no,0
Richmond,V6X 2C7,49.1757599214,-123.1317481399,sandwiches,1,free,0
Burnaby,V5G 1G4,49.2544359,-123.0200503,indian,2,free,1
Vancouver,V6R,49.2636639749,-123.185155478,restaurants,2,free,0
New Westminster,V3L,49.21228,-122.919118,restaurants,1,free,1
Surrey,V3T 4Y8,49.1899732,-122.8469059,restaurants,1,no,1
Coquitlam,V3B 6S2,49.274875,-122.792253,american (traditional),2,free,0
Coquitlam,V3K 3P5,49.248609,-122.8618357,sandwiches,1,no,0
New Westminster,V3L 2B9,49.22306,-122.9122023,fast food,1,free,0
Vancouver,V6E 1N1,49.2813704,-123.1329526,restaurants,1,no,0
Vancouver,V6B 2X6,49.2760871,-123.1218043,restaurants,1,free,0
Richmond,V6Y 2B6,49.166421,-123.136767,coffee & tea,1,free,0
Port Moody,V3H 5E3,49.2768498829,-122.8397249803,sushi bars,2,no,1
Vancouver,V5W 2Z9,49.2289761,-123.0909249,chinese,2,no,0
Vancouver,V6B 5K3,49.2846966,-123.1119349,restaurants,1,free,0
New Westminster,V3L 3B5,49.2124240809,-122.9191684523,mediterranean,2,free,0
Vancouver,V6B 3K4,49.282087,-123.1167528,chinese,1,free,0
Vancouver,V6R 1P1,49.2683828,-123.1853562,sushi bars,2,free,1
Burnaby,V5G,49.2495463,-123.0191575,restaurants,2,no,0
Vancouver,V6B 6N7,49.279251,-123.1074646,restaurants,1,free,0
Vancouver,V6A 2B2,49.27776,-123.0981399,cafes,1,free,1
West Vancouver,V7V 1J6,49.3285245,-123.1633005,breakfast & brunch,2,free,1
Richmond,V6Y 2N9,49.155147,-123.124699,seafood,2,free,0
Port Coquitlam,V3B 1T4,49.270839,-122.757176,chinese,2,free,1
Surrey,V3R 4E7,49.167507,-122.801142,restaurants,1,free,1
Burnaby,V5E 3B1,49.219113,-122.9546077,restaurants,2,no,0
Vancouver,V6B 2A8,49.2777057047,-123.1141484635,bars,2,free,0
Burnaby,V5E 1E2,49.2191248,-122.9670861,japanese,2,no,0
Greater Vancouver A,V6T 1Z3,49.2624183,-123.2450666,restaurants,1,free,0
Vancouver,V6C 1W6,49.2838845,-123.1160381,sushi bars,2,free,0
Richmond,V6X 1Z7,49.1967128,-123.0952077,middle eastern,1,free,1
Burnaby,V5C 0A4,49.26429,-123.012849,japanese,2,no,1
Coquitlam,V3B 6J6,49.279079285,-122.7942798986,chinese,2,free,0
Vancouver,V6Z 3G4,49.2814273326,-123.1237540472,canadian (new),2,free,0
Richmond,V6X 2A4,49.1773391,-123.1388746,asian fusion,3,free,1
North Vancouver,V7M 2H9,49.3214715,-123.0724193,restaurants,2,free,0
Vancouver,V6E 1Z8,49.2813107,-123.1335081,nightlife,3,free,1
Vancouver,V5W 3A6,49.2262258,-123.0905627,restaurants,1,no,0
North Vancouver,V7M 2J8,49.325998,-123.07245,vietnamese,1,no,0
Vancouver,V6A 1T8,49.2806451,-123.0981249,japanese,3,no,1
Vancouver,V5K 1Z8,49.281355,-123.0472672,noodles,1,free,1
Richmond,V7C 4N1,49.174168134,-123.1495717431,cafes,2,free,0
North Vancouver,V7M 2E8,49.3124673,-123.0777271,restaurants,2,no,0
Vancouver,V5V 3P2,49.2507804,-123.1012704,specialty food,2,no,1
Vancouver,V5Z 1S7,49.2569247,-123.1212865,restaurants,2,free,1
Surrey,V3R 9P4,49.1844070276,-122.8033497421,nightlife,2,free,0
Richmond,V7E 0A4,49.1236909419,-123.182399264,burgers,2,free,0
Coquitlam,V3B 2P5,49.2820323,-122.7992288,food,2,no,0
Vancouver,V5P 3W2,49.2331545277,-123.0657614126,fast food,1,free,0
Vancouver,V5V 3P7,49.2482504,-123.1008849,restaurants,2,no,1
Vancouver,V6Z 1E4,49.2819929954,-123.1190859014,sushi bars,2,free,0
Burnaby,V5C 3Y6,49.2665442,-123.0122817,sandwiches,1,free,0
Vancouver,V6M 1Y8,49.2342989,-123.1537569,cafes,2,free,0
Vancouver,V6A 1E7,49.2831349,-123.1030172,nightlife,2,no,1
Vancouver,V6Z 1M1,49.2777369,-123.1253188,mediterranean,1,free,1
Burnaby,V5J 0A3,49.1978443485,-122.9772431251,canadian (new),2,free,0
Richmond,V6X 4J7,49.1841117,-123.1335429,chinese,1,free,0
Vancouver,V5X 2P7,49.2118278,-123.0913871,middle eastern,2,no,1
Vancouver,V5L 3Y2,49.2703347939,-123.0698456237,middle eastern,1,no,0
Coquitlam,V3K 3S3,49.2429006464,-122.8892603517,bars,2,free,1
Vancouver,V6A 2W1,49.2758949998,-123.0996111822,japanese,2,no,0
Burnaby,V5H 4M1,49.227351,-123.000127,sushi bars,1,no,0
Vancouver,V6R 3R8,49.2642329148,-123.1847000368,sandwiches,1,free,1
Surrey,V3V 5Y5,49.175803,-122.801725,seafood,2,free,1
Vancouver,V5N 4A4,49.2689141,-123.0700145,food,2,free,0
Vancouver,V6R 2B4,49.2644072,-123.1807611,restaurants,2,free,0
Vancouver,V5V 3P7,49.2486433,-123.1007253,mediterranean,1,free,1
Surrey,V3W 3M9,49.139607,-122.890066,indian,2,no,0
Richmond,V6X 2B8,49.1868795451,-123.1356170482,seafood,2,free,0
Vancouver,V6J 3Y5,49.2608602699,-123.1532750362,delis,2,free,0
Surrey,V3W 3N3,49.1506087806,-122.8886958031,chinese,2,free,0
Vancouver,V5Z 2X9,49.2498660758,-123.1155605383,restaurants,3,no,1
Port Coquitlam,V3B 3N6,49.2727771477,-122.7566013853,restaurants,1,no,1
Vancouver,V6M 4J7,49.2340907,-123.14012,restaurants,2,no,0
Burnaby,V5C 2K6,49.2808387438,-123.0018921801,restaurants,1,no,1
Coquitlam,V3B 6S2,49.2751050561,-122.7909665356,chinese,2,no,0
Vancouver,V6Z 1L5,49.2791898,-123.1235881,nightlife,1,no,0
Vancouver,V6Z 2E1,49.2809331,-123.123585,canadian (new),2,free,0
Richmond,V6X 1K8,49.1836885,-123.1043022,restaurants,2,free,0
Richmond,V6X 1R4,49.1872714,-123.1241674,desserts,1,free,0
Vancouver,V5Y 1G9,49.2672672,-123.111211,food,2,free,0
Vancouver,V5Y 3Y6,49.263696,-123.110803,restaurants,1,no,0
North Vancouver,V7M 2E5,49.3117351,-123.0790894,restaurants,2,no,1
Vancouver,V7X 1L3,49.2864911,-123.1214363,american (traditional),2,free,1
Vancouver,V5T 4R2,49.256699,-123.101936,sushi bars,2,no,1
Vancouver,V5R 5K7,49.2343463247,-123.0352135908,chinese,2,free,0
Vancouver,V6B 1R2,49.2750725,-123.1227615,bars,2,free,0
North Vancouver,V7P 1M4,49.3219292,-123.1045816,cafes,1,free,1
Vancouver,V5V 3N9,49.2507111,-123.1013352,pubs,2,free,0
Richmond,V6X 1R4,49.1872714,-123.1241674,food,1,free,0
Vancouver,V6Z 2A9,49.2797441,-123.1236718,burgers,2,free,0
New Westminster,V3L 1Y6,49.2318223,-122.8942472,american (traditional),2,free,0
Vancouver,V6E 1M3,49.2802327493,-123.1312241405,american (traditional),2,free,0
Richmond,V6X 2S8,49.1925794,-123.0917645,restaurants,1,no,0
North Vancouver,V7M 1A2,49.3118436,-123.0803796,food,1,free,0
Vancouver,V6B,49.2866857,-123.1138779,restaurants,1,no,0
North Vancouver,V7R 4K9,49.3790102203,-123.0833663398,restaurants,3,free,0
New Westminster,V3M 1B6,49.201547,-122.911386,mediterranean,2,free,1
Vancouver,V6Z 1A8,49.2794519,-123.1236388,restaurants,1,no,0
Vancouver,V6B 1B2,49.2841134476,-123.108428796,pubs,2,free,1
New Westminster,V3M 3P1,49.2025754,-122.9135416,restaurants,1,free,1
New Westminster,V3M 1G9,49.2048053,-122.9102207,restaurants,1,free,0
Vancouver,V6G 2L5,49.2916373,-123.135091,restaurants,2,no,1
Vancouver,V5L 4T9,49.2701941,-123.0569066,vietnamese,1,no,1
Vancouver,V6P 5A1,49.2082536,-123.1401186,restaurants,1,no,0
Coquitlam,V3K 3V8,49.245133,-122.8921847,bars,2,paid,0
Port Coquitlam,V3C 2N4,49.2531751,-122.7667636,bars,2,free,0
Vancouver,V6H 3S2,49.2719608974,-123.1356028095,noodles,2,no,0
Burnaby,V5H 4V8,49.2303729,-123.0038913,chinese,2,free,0
New Westminster,V3M 6G1,49.1995806,-122.9128469,seafood,3,no,0
Vancouver,V5X 3G9,49.225127,-123.101472,indian,2,free,0
Vancouver,V6P 3E7,49.2040721,-123.1349289,sandwiches,1,free,0
Richmond,V7B 0A4,49.1951863,-123.1788712,sushi bars,2,free,0
Vancouver,V5P 3W2,49.233125,-123.065858,chinese,1,no,0
Burnaby,V5C 2J4,49.2809034,-123.0130086,restaurants,1,free,0
Vancouver,V6R 1B3,49.2718708453,-123.1904844738,food,3,free,1
Vancouver,V6K 4W7,49.2579641,-123.1682215,bars,2,free,0
North Vancouver,V7R 4J1,49.3427831728,-123.1143312202,restaurants,2,free,1
Vancouver,V6J 3B1,49.2693590493,-123.1406357963,mediterranean,2,no,1
Vancouver,V5P 2V9,49.2256683,-123.0778129,american (traditional),1,no,0
Vancouver,V6M 1Z8,49.2344862,-123.1593285,restaurants,2,no,0
Vancouver,V6E 4J6,49.2875508,-123.1210682,restaurants,2,free,0
Vancouver,V6E 3V5,49.2849406,-123.1247733,restaurants,3,free,1
Vancouver,V6B 0R3,49.2753742,-123.1128477,canadian (new),2,free,0
Surrey,V3V 6A8,49.1767549,-122.8667107,fast food,2,free,0
New Westminster,V3M 4J9,49.209306,-122.933099,restaurants,2,no,1
Vancouver,V6E 1V3,49.2867409016,-123.1427178087,cafes,3,free,0
Burnaby,V5B 1S3,49.2802391,-122.9656132,sushi bars,1,no,0
Vancouver,V5Y,49.2632265,-123.1082126,restaurants,2,no,0
Vancouver,V5Z 4J7,49.2635975,-123.1213494,chinese,2,free,0
Vancouver,V6E 1Y4,49.2857242812,-123.1271553452,coffee & tea,1,free,1
Vancouver,V5K 5C5,49.2809719,-123.0451099,restaurants,1,free,0
Vancouver,V6G 2C8,49.2866689,-123.1341521,restaurants,2,no,1
Vancouver,V6M 2A3,49.2347804,-123.1587608,taiwanese,1,free,0
Vancouver,V6B 4N6,49.2846966,-123.1119349,breakfast & brunch,4,no,0
Coquitlam,V3J 3X5,49.261465,-122.888345,american (new),2,no,0
Vancouver,V6H 3R9,49.2727209,-123.1355203,restaurants,1,no,1
Coquitlam,V3J 1N7,49.2493323318,-122.8923893601,sushi bars,2,no,0
Vancouver,V6J 1M4,49.2680468,-123.146414,sushi bars,2,no,0
North Vancouver,V7M 2E4,49.3106956,-123.0803348,restaurants,2,no,1
Burnaby,V5C 6N4,49.265400902,-123.0192298189,restaurants,2,no,0
Vancouver,V5L 3W9,49.2750233,-123.0692198,restaurants,1,no,0
Vancouver,V6C 1V4,49.2848880198,-123.11434357,food,2,free,0
Coquitlam,V3J 3X2,49.2437714,-122.8904822,seafood,2,free,0
Vancouver,V5L 3X4,49.2735354,-123.0692475,restaurants,2,free,0
Coquitlam,V3B 6S2,49.275911,-122.794345,vietnamese,1,free,0
Vancouver,V6C 1X6,49.2842264627,-123.1158038673,restaurants,1,no,0
North Vancouver,V7N 3J3,49.336323,-123.072327,burgers,2,free,0
Vancouver,V6B 6L9,49.2798043,-123.1170552,nightlife,2,free,1
New Westminster,V3L 5H1,49.212361696,-122.9188728724,restaurants,1,free,0
Richmond,V6X 1A6,49.1698185,-123.1330779,chinese,1,no,1
Burnaby,V5H,49.2264366247,-122.9981593155,restaurants,1,no,0
North Vancouver,V7L 0B2,49.310312383,-123.0800118527,nightlife,2,free,0
Vancouver,V6H 3R9,49.2727014,-123.1352146,food,1,no,1
Vancouver,V5V 3R9,49.2417397,-123.1016277,italian,3,free,1
Vancouver,V6J 1C8,49.272491,-123.1486612,specialty food,2,free,0
Vancouver,V6B 1G4,49.2820023,-123.1064116,restaurants,2,free,0
Vancouver,V5L 4R7,49.2814954375,-123.0562116417,seafood,2,no,0
Port Coquitlam,V3B 5Y9,49.2735958,-122.7887029,restaurants,1,no,1
Richmond,V7A 1W6,49.140059,-123.1378632,restaurants,2,no,0
Vancouver,V6J 1W9,49.2639631,-123.1414827,canadian (new),2,free,0
Burnaby,V5J 1H1,49.2213562,-122.976575,vietnamese,1,no,0
Burnaby,V5H 4M1,49.225904,-122.99696,coffee & tea,1,free,0
Surrey,V3R 1J8,49.1952464,-122.8015024,nightlife,2,no,0
New Westminster,V3M 3P1,49.2025754,-122.9135416,salad,1,free,1
Surrey,V3R 1V9,49.1989290069,-122.8143288195,restaurants,1,no,0
Vancouver,V5Z 2W6,49.2553899,-123.1154414,italian,3,no,1
Vancouver,V5M 2Y4,49.2504112,-123.041782,cafes,2,free,0
New Westminster,V3L 3B1,49.2097840906,-122.9163973305,seafood,2,free,0
Burnaby,V5H 3P4,49.2243728,-122.98879,japanese,2,free,0
Coquitlam,V3J 7C7,49.2498388,-122.8644568,restaurants,2,free,1
Vancouver,V6A 1X4,49.279257,-123.1002007,bars,2,no,0
Port Moody,V3H 2B1,49.2769591,-122.8577738,italian,2,no,1
Vancouver,V6E 1N3,49.2819914,-123.1338875,specialty food,2,no,1
Vancouver,V6G 1T2,49.2879426,-123.1404572,restaurants,2,no,0
Vancouver,V5W 3A3,49.2276101985,-123.0905393791,restaurants,1,no,0
West Vancouver,V7T 2Z3,49.3256091466,-123.1418895721,food,2,no,0
Vancouver,V6B 2B2,49.278965668,-123.1162121147,breakfast & brunch,2,free,0
Vancouver,V5M 1Y9,49.2623059898,-123.044646027,mexican,2,free,0
Vancouver,V6Z 1L2,49.2792922,-123.1226648,vegetarian,1,free,0
Vancouver,V6T 1K6,49.2673555621,-123.2499334926,burgers,1,free,0
Richmond,V6X 2C2,49.180390737,-123.1348324368,chinese,2,no,0
Vancouver,V5X 3J4,49.2187363,-123.10141,restaurants,2,no,0
Vancouver,V5L 1H8,49.2848444,-123.0659332,vegetarian,2,free,1
Richmond,V7A 1N6,49.1330400922,-123.0965287222,american (new),2,no,0
Burnaby,V5H 1Z5,49.2318304,-123.0084197,restaurants,2,no,0
Vancouver,V6H 3S2,49.2727014,-123.1352146,vietnamese,2,no,1
Richmond,V6X 3L7,49.1824293,-123.1342197,specialty food,1,no,1
Vancouver,V5Z 3J2,49.263047,-123.117827,canadian (new),2,free,0
Vancouver,V6J 5L1,49.26864,-123.2561281,seafood,2,free,0
Surrey,V3R 7V4,49.1858626,-122.8032426,restaurants,2,no,0
Vancouver,V6Z 2Z4,49.2736116,-123.1183902,italian,2,free,0
Vancouver,V6B 2E5,49.278908,-123.1221915,pizza,1,no,0
Vancouver,V6P 4Z9,49.2094569,-123.14108,food,2,free,0
Vancouver,V6B 1T3,49.2827746,-123.1116823,vegetarian,2,free,1
Coquitlam,V3B 7K1,49.2819779946,-122.8011398037,restaurants,1,free,1
North Vancouver,V7P 1T2,49.324876,-123.109655,asian fusion,2,free,0
Vancouver,V6Z 1L2,49.2800129,-123.1212798,nightlife,2,free,0
Vancouver,V6B 2R5,49.278444,-123.114329,restaurants,2,free,1
Burnaby,V5E 1E5,49.2181997,-122.9583941,specialty food,2,no,0
Vancouver,V6J 1C6,49.272701,-123.1473384,food,1,no,0
North Vancouver,V7M 2J7,49.3251341,-123.0719953,american (new),2,free,0
Vancouver,V5R 5A8,49.2383461,-123.0323181,restaurants,1,no,0
Burnaby,V5E 0A6,49.2195414589,-122.9566285194,cafes,2,free,1
North Vancouver,V7J 3K2,49.3431653,-123.0187511,restaurants,1,free,0
Vancouver,V6C 1A8,49.285458999,-123.118732,cafes,2,free,1
Vancouver,V5R 5H6,49.2370618,-123.0483267,restaurants,2,no,0
Vancouver,V5Z 3J2,49.2630104,-123.1200936,restaurants,2,no,0
Port Coquitlam,V3C 3B5,49.261959,-122.7783008,restaurants,1,free,0
Vancouver,V6B 1E5,49.2837285,-123.1092042,food,1,free,1
North Vancouver,V7M 2E7,49.3126597,-123.0781619,pubs,2,free,0
Vancouver,V6P 2Z2,49.208429,-123.1379116,restaurants,1,free,0
Vancouver,V6Z 1M4,49.2770096,-123.1261846,pubs,2,free,0
New Westminster,V3L 3B3,49.2114757572,-122.918422905,food,1,no,0
Richmond,V6X 1A4,49.1705877,-123.1395731,salad,2,no,0
Richmond,V6X 4K3,49.1907516909,-123.1332696402,breakfast & brunch,3,free,1
Vancouver,V6J 1M9,49.2679649502,-123.1511589412,food,2,free,1
Vancouver,V5R 5G9,49.2399914862,-123.0547445623,restaurants,2,free,1
Burnaby,V5H 2E2,49.2257663,-122.9925009,food,2,free,0
Vancouver,V6Z 2B7,49.2774299,-123.1312797,japanese,1,free,0
Vancouver,V6B 1C1,49.2752965096,-123.113096506,restaurants,3,free,0
Richmond,V6X 1A4,49.170762,-123.139704,restaurants,2,no,0
Richmond,V7E,49.1235552784,-123.1825051449,american (traditional),2,no,0
Surrey,V3V 4B5,49.1698432,-122.889848,restaurants,2,no,0
Vancouver,V6J 1W6,49.2638715,-123.1404594,restaurants,1,no,0
Vancouver,V5P 3W7,49.2318859,-123.0655468,vietnamese,2,no,0
Vancouver,V6J 1W6,49.2638715,-123.1404594,food,1,free,0
Vancouver,V5R 5K6,49.2341970386,-123.0355279939,seafood,2,no,0
Vancouver,V6B 0R3,49.2752915608,-123.1135937346,restaurants,2,no,0
Vancouver,V5P 3T8,49.2377204895,-123.0653991699,restaurants,2,no,1
Burnaby,V5E 1E2,49.2191248,-122.9670861,restaurants,2,no,0
Vancouver,V6Z 4K3,49.2801681,-123.1271342,canadian (new),3,free,0
Port Coquitlam,V3C 2N4,49.2531751,-122.7667636,breakfast & brunch,2,free,0
North Vancouver,V7J 2A1,49.334995,-123.041904,bars,2,free,0
Vancouver,V6C 3T4,49.2900302494,-123.1168956816,food,2,free,0
Delta,V4K 4E2,49.1157814267,-123.0619847651,restaurants,2,free,0
Richmond,V7E 3L8,49.124471125,-123.1840202782,food,1,free,1
Vancouver,V6E 4P6,49.2874766,-123.1238646,food,1,no,0
Vancouver,V5W 2Z5,49.2325792,-123.0901219,fast food,1,no,0
Vancouver,V5N 4A3,49.2689969,-123.0692568,food delivery services,2,free,0
Vancouver,V6M 4H1,49.2386894944,-123.1295154339,american (new),2,no,0
Vancouver,V6B 2K8,49.2834427,-123.1064141,restaurants,2,no,0
Vancouver,V6B 2A8,49.2777867,-123.1139866,italian,1,no,0
Vancouver,V6J 1M7,49.2682032,-123.1481767,vegetarian,2,free,0
Vancouver,V5L 3Y4,49.2700563,-123.0696152,bakeries,1,free,0
Surrey,V3R 4E7,49.167507,-122.801142,cafes,1,free,1
Vancouver,V5Z 1S7,49.256928,-123.1215673,japanese,2,no,1
Vancouver,V6T,49.2665761,-123.2428402,middle eastern,1,no,1
Vancouver,V6B,49.2829033862,-123.1151818865,food,1,free,1
Vancouver,V5S 1J9,49.2256543,-123.0543547,barbeque,2,no,0
Burnaby,V5E 1G5,49.2186411,-122.9545003,coffee & tea,1,free,0
Richmond,V7B 1W4,49.1772983188,-123.1682430322,pubs,2,no,0
Richmond,V7C 5S7,49.1697783,-123.1676235,food,2,free,0
Vancouver,V6T,49.2666763368,-123.2427117587,specialty food,1,no,0
Vancouver,V6B 4P4,49.2790041,-123.1131403,american (new),2,no,0
New Westminster,V3M 1C4,49.2004458,-122.9176667,restaurants,2,no,0
Richmond,V6X 3X2,49.1862473,-123.1333378,breakfast & brunch,1,free,0
Burnaby,V5E 1E1,49.2197146066,-122.9700555017,coffee & tea,1,no,0
Vancouver,V6K 2G1,49.263817942,-123.1632873319,breakfast & brunch,2,free,0
Burnaby,V3N 4N4,49.244853781,-122.8928135435,coffee & tea,1,free,1
Vancouver,V6J 1X6,49.2634926,-123.1419998,restaurants,1,no,0
Richmond,V6X 2C7,49.175846,-123.132369,cafes,1,free,0
Richmond,V6X 3Z8,49.1839882,-123.1266499,restaurants,1,no,1
Richmond,V6Y 1K3,49.154834,-123.124372,restaurants,2,free,0
North Vancouver,V7M 2J1,49.3214868,-123.0721325,restaurants,2,no,1
Delta,V4G 1J7,49.1482662265,-122.9426910268,canadian (new),1,free,0
Vancouver,V6B 5J3,49.2809146279,-123.1189419496,cafes,1,free,0
Vancouver,V6S 2C3,49.2561253691,-123.1855694354,restaurants,1,free,0
Burnaby,V5A 4H7,49.2643072601,-122.9145056098,pizza,2,free,1
Richmond,V6X 1A5,49.163311,-123.13637,chinese,2,no,0
Richmond,V7B 1B4,49.1798514,-123.1523287,food,1,free,0
Vancouver,V6P 4Z9,49.2094569,-123.14108,delis,2,free,1
North Vancouver,V7G 1K8,49.326842566,-122.9510566295,restaurants,1,free,1
Vancouver,V6T 1Z1,49.266735,-123.250031,chinese,1,free,0
Vancouver,V6E 1B5,49.2849376,-123.1247791,specialty food,2,no,1
Richmond,V6X 1A3,49.1709306,-123.1416697,restaurants,2,free,0
Vancouver,V6K 1R2,49.2682241464,-123.1690966116,coffee & tea,2,no,1
Richmond,V7E 6N2,49.1247683,-123.1809733,pizza,1,free,0
Vancouver,V6E 1C6,49.287509,-123.129063,japanese,2,no,0
Vancouver,V5R 5K6,49.2330548744,-123.0328938918,food,1,free,0
Vancouver,V5V 3P7,49.2486433,-123.1007253,restaurants,1,free,1
North Vancouver,V7M 1E7,49.3139297,-123.079034,restaurants,2,free,1
Vancouver,V5P 3V4,49.2372789,-123.0656188,restaurants,2,free,0
Vancouver,V6K 1V9,49.2639585,-123.1677051,food,1,free,0
Burnaby,V5E 1E9,49.2196153529,-122.956237793,food,1,no,0
North Vancouver,V7G 1K8,49.3270437,-122.9515709,food,2,free,1
Vancouver,V6B 2S2,49.2751066,-123.1220961,canadian (new),2,free,1
Vancouver,V6Z 1K3,49.2810691,-123.1196819,canadian (new),2,free,0
Burnaby,V5J 3G4,49.206867,-122.998848,cafes,2,free,1
Bowen Island,V0N 1G0,49.3794393,-123.3349558,cafes,2,free,1
Vancouver,V6C 3B6,49.2850063037,-123.1180497204,mexican,2,free,0
Port Moody,V3H 2C2,49.2763140404,-122.8442607067,taiwanese,1,free,1
Vancouver,V6H,49.2705997,-123.1365764,bars,3,free,0
Burnaby,V5H 2A9,49.228779,-123.004936,restaurants,1,no,1
Vancouver,V5P 3Y8,49.2209419,-123.0662599,restaurants,1,no,0
Vancouver,V5L 3J8,49.2765541,-123.0768797,restaurants,1,no,1
Richmond,V7B 1W2,49.199541,-123.181658,restaurants,1,free,0
Vancouver,V5T 1Y5,49.263659,-123.127041,restaurants,2,free,0
New Westminster,V3M 1K1,49.212382917,-122.9214978218,restaurants,2,free,0
Vancouver,V6Z 1M7,49.2758861319,-123.1277246251,restaurants,2,free,0
Vancouver,V6B 1G4,49.281901732,-123.1060412253,burgers,2,free,0
Richmond,V6X 1A5,49.1951863,-123.1788712,restaurants,1,free,0
Vancouver,V6A 1X6,49.2795906,-123.0978562,asian fusion,2,no,0
Burnaby,V5H 4P1,49.225637,-122.997639,vietnamese,1,no,0
Vancouver,V5R 4G6,49.2398062,-123.0299092,restaurants,2,free,0
Vancouver,V6B 5P9,49.2764711,-123.1195878,food,2,no,0
Vancouver,V6E 1C5,49.2875652374,-123.1296838447,breakfast & brunch,2,free,0
North Vancouver,V7M 2J9,49.325928,-123.0722575,sandwiches,1,free,0
Vancouver,V6B 5P9,49.2763492,-123.1197528,nightlife,2,free,0
Vancouver,V6M,49.2347705,-123.159587,cafes,2,free,1
Vancouver,V6H 1H4,49.2632491,-123.1365386,chinese,2,no,0
Vancouver,V6Z 2H1,49.2800601,-123.1252306,asian fusion,2,no,1
Vancouver,V5S 1J9,49.225388,-123.053545,vietnamese,2,free,1
Port Moody,V3H 2B1,49.2772012,-122.8575859,food,2,free,0
Burnaby,V5H 2E2,49.2257663,-122.9925009,restaurants,2,free,0
Burnaby,V3N 1B9,49.2247515,-122.940411,american (traditional),2,free,0
New Westminster,V3L 3C5,49.214855,-122.922433,canadian (new),1,no,1
Vancouver,V6T 1Z4,49.2603054,-123.250801,vegetarian,2,free,0
Vancouver,V5P 3T6,49.239075,-123.0649638176,fast food,1,no,0
North Vancouver,V7N 3J3,49.336323,-123.072327,pubs,2,free,0
Richmond,V6Y,49.1632972,-123.1360573,salad,1,free,1
Burnaby,V5H 1Y5,49.232991,-123.019224,food,2,no,0
North Vancouver,V7L 0B2,49.310312383,-123.0800118527,food,2,free,0
Vancouver,V6E 1C1,49.286265,-123.1279143,japanese,1,no,1
West Vancouver,V7W 2H1,49.3745397,-123.274588,restaurants,2,free,0
Vancouver,V6Z 2X7,49.274203,-123.1199808,restaurants,2,no,0
Ladner,V4K 1X6,49.089852,-123.0635130572,restaurants,1,free,0
Richmond,V7B 0A4,49.1951863,-123.1788712,restaurants,2,free,0
North Vancouver,V7M 2E8,49.31241,-123.077821,restaurants,1,free,1
New Westminster,V3L 3C3,49.2141317,-122.9218109,breakfast & brunch,2,no,0
Burnaby,V5E 1C5,49.2188919,-122.9685771,mediterranean,2,free,0
Vancouver,V5N 4C5,49.259773,-123.0700274,restaurants,2,free,1
Vancouver,V7B 0A5,49.1943054,-123.1749191,vietnamese,2,free,0
Vancouver,V6M 2P7,49.227018,-123.1288733,restaurants,1,free,0
Richmond,V6X 2C2,49.1813728,-123.135898,fast food,1,no,0
Burnaby,V5C 2J9,49.2809142,-123.0076257,sushi bars,2,free,1
Burnaby,V5B 1R2,49.2801187,-122.9818486,restaurants,2,free,0
Vancouver,V6C 3K4,49.2845427,-123.1183473,food,2,free,1
Coquitlam,V3B 0G5,49.2825699,-122.7969556,coffee & tea,1,free,0
Coquitlam,V3E 1K9,49.2783159,-122.8145051,american (traditional),2,free,1
Richmond,V6X 2X9,49.175594981,-123.1344026058,restaurants,2,free,0
Vancouver,V6P 4G2,49.2055267,-123.131172503,nightlife,2,free,0
North Vancouver,V7J 3H2,49.33477,-123.03974,japanese,2,no,1
Burnaby,V3J 1P1,49.253645,-122.892575,restaurants,2,no,0
Vancouver,V6B 1Y1,49.2826418,-123.1151179,sushi bars,2,free,1
North Vancouver,V7P 2V8,49.322759,-123.113124,restaurants,2,no,0
Vancouver,V6B 0R3,49.2753742,-123.1128477,bars,2,no,0
Vancouver,V6C 2W6,49.2837454,-123.1207825,breakfast & brunch,3,free,0
Vancouver,V5Y 1E2,49.2671356,-123.1131742,breakfast & brunch,2,free,0
Vancouver,V6M 2A5,49.23478898,-123.1614619153,bars,2,no,1
Vancouver,V6M 3W4,49.2376685,-123.1556307,canadian (new),2,free,0
Vancouver,V6B 2G6,49.2767544664,-123.1251996431,coffee & tea,2,free,0
Vancouver,V5V 3R9,49.2412498,-123.1016585,chinese,2,no,0
Vancouver,V5V 3P6,49.2478042,-123.1007361,breakfast & brunch,2,free,1
Vancouver,V6B 6N8,49.2808066,-123.1072713824,coffee & tea,1,free,0
Vancouver,V6M 2A3,49.2347554,-123.158236,sandwiches,1,free,0
Surrey,V3W 2M6,49.1332413001,-122.8736311197,middle eastern,1,free,0
Coquitlam,V3K 3R8,49.2420027745,-122.8845311637,chinese,2,paid,0
Burnaby,V3N 3M4,49.2229872,-122.9330089,restaurants,1,no,1
Richmond,V6X 3X2,49.1862473,-123.1333378,korean,1,no,0
Vancouver,V6E 2P4,49.2882192,-123.1222259,bars,2,free,0
Richmond,V6Y 2B6,49.167158,-123.139158,breakfast & brunch,1,free,0
Vancouver,V5T 3K5,49.2574913,-123.0909344,restaurants,3,free,1
Vancouver,V6B 1B2,49.2841134476,-123.108428796,american (traditional),2,free,1
Vancouver,V6B 2G5,49.2766707231,-123.1257008615,food,1,free,1
North Vancouver,V7P 1T2,49.32443,-123.108171,sushi bars,2,free,0
Vancouver,V6A 3A3,49.2839643,-123.0952825,canadian (new),2,free,1
Burnaby,V5H 2A9,49.22955,-123.003219,chinese,1,no,0
North Vancouver,V7G 1L2,49.3268742454,-122.9493626042,american (new),2,no,1
Vancouver,V6B,49.2802009,-123.1182521,food,1,no,1
Vancouver,V6A 2V4,49.2790547,-123.1000169,japanese,2,free,1
Vancouver,V6K 2E5,49.2636455299,-123.1579183829,coffee & tea,2,free,1
Vancouver,V5N 4C5,49.259773,-123.0700274,vegetarian,2,free,1
Vancouver,V6H 3R9,49.2727014,-123.1352146,restaurants,1,no,1
New Westminster,V3L 0E3,49.2250086337,-122.8926249527,nightlife,2,free,0
New Westminster,V3M 6B9,49.2000834966,-122.9113744655,food,2,free,1
Vancouver,V5N 4C6,49.2593024,-123.0695171,restaurants,2,no,0
Richmond,V6Y 2B6,49.1660053,-123.1385914,chicken wings,2,no,0
Vancouver,V6M 1Y7,49.2347027,-123.1535489,japanese,2,no,0
Vancouver,V6H 3R9,49.2727014,-123.1352146,specialty food,1,no,1
Vancouver,V6B 0E7,49.278821,-123.115412,coffee & tea,1,free,0
Vancouver,V6B 2L2,49.2807799,-123.1079494,japanese,2,free,1
Bowen Island,V0N 1G2,49.3799524,-123.3499608,restaurants,2,free,1
Burnaby,V5C 2J6,49.28095,-123.009199,sushi bars,2,no,1
Vancouver,V6T 1Z1,49.2666322261,-123.2499224511,cafes,1,free,0
Vancouver,V6A 1X5,49.2792784082,-123.0973971309,seafood,2,paid,1
Vancouver,V5T 1W1,49.2630504,-123.1015035,american (traditional),2,free,0
Richmond,V7B 0A6,49.1949175,-123.1760053,restaurants,3,free,0
West Vancouver,V7T 1B8,49.3281414,-123.1546138,japanese,2,free,0
Vancouver,V6K,49.2715661205,-123.1552887268,bars,2,free,1
Vancouver,V6E 0B6,49.2857786,-123.1221398,restaurants,2,no,0
Coquitlam,V3B 6J6,49.274923,-122.791039,breakfast & brunch,2,free,0
Vancouver,V6A 2T4,49.2809495,-123.0993214,fast food,1,free,0
Vancouver,V5V 3R9,49.2417993,-123.1018127,restaurants,2,free,0
Vancouver,V6E 4E6,49.287111,-123.1247016,restaurants,2,free,1
Vancouver,V6J 2E1,49.2608947,-123.1391588,vegetarian,2,free,0
Vancouver,V6B 1GB,49.2821414,-123.1090685,pubs,1,free,0
Vancouver,V5V 3M5,49.2561784,-123.1010147,mexican,2,free,0
Vancouver,V5P 3W2,49.2331545277,-123.0657614126,burgers,1,free,0
Vancouver,V6H 1H4,49.2635194,-123.1369059,japanese,2,free,0
Vancouver,V6S 2E9,49.2483133,-123.1850191,restaurants,2,no,0
Vancouver,V6E 1N1,49.2810568,-123.1327804,nightlife,2,free,0
North Vancouver,V7P 1T3,49.3237147185,-123.1082354344,japanese,2,no,0
Vancouver,V5T 1B4,49.2695864693,-123.1028566413,restaurants,2,free,0
Vancouver,V5T 3E8,49.260986,-123.100708,restaurants,2,no,0
Vancouver,V6B 2T9,49.2755693,-123.1211438,pubs,2,free,0
Richmond,V6X 2E3,49.1708997,-123.1368139,sandwiches,1,free,0
North Vancouver,V7P 2S2,49.322767,-123.1074589,food,2,free,1
Vancouver,V5V 3R1,49.2474862,-123.1011218,food,2,no,1
Vancouver,V6B 4M3,49.2843832,-123.1070491,sandwiches,1,free,1
Vancouver,V6A 2W5,49.271917,-123.100716411,food,1,free,0
Vancouver,V6Z 1L2,49.2792922,-123.1226648,fast food,1,free,0
Vancouver,V6A 1S2,49.2806949,-123.0802963,seafood,2,free,0
Burnaby,V5G 3E3,49.2564946967,-123.0071976649,restaurants,2,free,0
Delta,V4C 6P6,49.146889,-122.8911121,restaurants,2,no,1
Richmond,V6X 1A7,49.1707169,-123.1328559,restaurants,1,no,0
Bowen Island,V0N 1G1,49.3796068251,-123.3342844248,sandwiches,2,free,1
Burnaby,V5E 1E1,49.219468,-122.9683527,restaurants,2,free,0
Burnaby,V3J 1H9,49.2540264,-122.8939025,restaurants,1,free,0
Vancouver,V6E 1Z8,49.2814077446,-123.1336959084,japanese,4,no,1
Richmond,V6Y 3X9,49.154142,-123.124236,taiwanese,2,no,0
